{"type":"FeatureCollection","features":[{"type":"Feature","id":"node/26123356","properties":{"type":"node","id":26123356,"tags":{"amenity":"atm"},"relations":[],"meta":{}},"geometry":{"type":"Point","coordinates":[17.7219934,59.6166832]}},{"type":"Feature","id":"node/26123357","properties":{"type":"node","id":26123357,"tags":{"amenity":"atm"},"relations":[],"meta":{}},"geometry":{"type":"Point","coordinates":[17.722574,59.6169494]}},{"type":"Feature","id":"node/29524375","properties":{"type":"node","id":29524375,"tags":{"amenity":"atm","operator":"Handelsbanken"},"relations":[],"meta":{}},"geometry":{"type":"Point","coordinates":[13.0014731,55.6055181]}},{"type":"Feature","id":"node/29535198","properties":{"type":"node","id":29535198,"tags":{"amenity":"atm"},"relations":[],"meta":{}},"geometry":{"type":"Point","coordinates":[12.9997708,55.6091324]}},{"type":"Feature","id":"node/29535219","properties":{"type":"node","id":29535219,"tags":{"amenity":"atm"},"relations":[],"meta":{}},"geometry":{"type":"Point","coordinates":[13.0036016,55.6037122]}},{"type":"Feature","id":"node/29535220","properties":{"type":"node","id":29535220,"tags":{"amenity":"atm"},"relations":[],"meta":{}},"geometry":{"type":"Point","coordinates":[13.0029741,55.607643]}},{"type":"Feature","id":"node/32179451","properties":{"type":"node","id":32179451,"tags":{"amenity":"atm"},"relations":[],"meta":{}},"geometry":{"type":"Point","coordinates":[17.3032926,62.3891624]}},{"type":"Feature","id":"node/38438086","properties":{"type":"node","id":38438086,"tags":{"amenity":"atm","created_by":"JOSM"},"relations":[],"meta":{}},"geometry":{"type":"Point","coordinates":[17.9637051,59.4102285]}},{"type":"Feature","id":"node/52592733","properties":{"type":"node","id":52592733,"tags":{"amenity":"atm","operator":"Swedbank"},"relations":[],"meta":{}},"geometry":{"type":"Point","coordinates":[18.2896489,57.6333514]}},{"type":"Feature","id":"node/81458206","properties":{"type":"node","id":81458206,"tags":{"amenity":"atm","name":"Swedbank"},"relations":[],"meta":{}},"geometry":{"type":"Point","coordinates":[16.5519574,59.6075323]}},{"type":"Feature","id":"node/81522700","properties":{"type":"node","id":81522700,"tags":{"amenity":"atm","created_by":"JOSM","name":"SEB","operator":"SEB"},"relations":[],"meta":{}},"geometry":{"type":"Point","coordinates":[16.5428484,59.6105277]}},{"type":"Feature","id":"node/83376929","properties":{"type":"node","id":83376929,"tags":{"amenity":"atm","operator":"Swedbank"},"relations":[],"meta":{}},"geometry":{"type":"Point","coordinates":[17.1490941,60.6701284]}},{"type":"Feature","id":"node/99133403","properties":{"type":"node","id":99133403,"tags":{"amenity":"atm","operator":"Handelsbanken"},"relations":[],"meta":{}},"geometry":{"type":"Point","coordinates":[20.9524593,64.7507131]}},{"type":"Feature","id":"node/99133405","properties":{"type":"node","id":99133405,"tags":{"amenity":"atm","operator":"Nordea"},"relations":[],"meta":{}},"geometry":{"type":"Point","coordinates":[20.9525818,64.7505737]}},{"type":"Feature","id":"node/99133408","properties":{"type":"node","id":99133408,"tags":{"amenity":"atm","operator":"Swedbank"},"relations":[],"meta":{}},"geometry":{"type":"Point","coordinates":[20.954211,64.7506448]}},{"type":"Feature","id":"node/150545534","properties":{"type":"node","id":150545534,"tags":{"amenity":"atm"},"relations":[],"meta":{}},"geometry":{"type":"Point","coordinates":[17.7499484,59.4789251]}},{"type":"Feature","id":"node/150545535","properties":{"type":"node","id":150545535,"tags":{"amenity":"atm"},"relations":[],"meta":{}},"geometry":{"type":"Point","coordinates":[17.7519247,59.479058]}},{"type":"Feature","id":"node/166294663","properties":{"type":"node","id":166294663,"tags":{"amenity":"atm"},"relations":[],"meta":{}},"geometry":{"type":"Point","coordinates":[17.6430363,59.5156806]}},{"type":"Feature","id":"node/170627065","properties":{"type":"node","id":170627065,"tags":{"amenity":"atm"},"relations":[],"meta":{}},"geometry":{"type":"Point","coordinates":[17.148199,60.6703697]}},{"type":"Feature","id":"node/220601104","properties":{"type":"node","id":220601104,"tags":{"amenity":"atm","operator":"Swedbank"},"relations":[],"meta":{}},"geometry":{"type":"Point","coordinates":[17.1412177,60.6740599]}},{"type":"Feature","id":"node/220601292","properties":{"type":"node","id":220601292,"tags":{"amenity":"atm","operator":"Swedbank"},"relations":[],"meta":{}},"geometry":{"type":"Point","coordinates":[17.1418663,60.6754713]}},{"type":"Feature","id":"node/220624384","properties":{"type":"node","id":220624384,"tags":{"amenity":"atm","created_by":"Potlatch 0.6a","operator":"SEB"},"relations":[],"meta":{}},"geometry":{"type":"Point","coordinates":[17.1394391,60.6746398]}},{"type":"Feature","id":"node/220624939","properties":{"type":"node","id":220624939,"tags":{"amenity":"atm","operator":"Swedbank"},"relations":[],"meta":{}},"geometry":{"type":"Point","coordinates":[17.1423197,60.675404]}},{"type":"Feature","id":"node/220625150","properties":{"type":"node","id":220625150,"tags":{"amenity":"atm","operator":"Swedbank"},"relations":[],"meta":{}},"geometry":{"type":"Point","coordinates":[17.1423867,60.6754184]}},{"type":"Feature","id":"node/220625201","properties":{"type":"node","id":220625201,"tags":{"amenity":"atm","name":"Handelsbanken"},"relations":[],"meta":{}},"geometry":{"type":"Point","coordinates":[17.1429347,60.6752533]}},{"type":"Feature","id":"node/220633570","properties":{"type":"node","id":220633570,"tags":{"amenity":"atm","operator":"Gävleborgs Provinsbank"},"relations":[],"meta":{}},"geometry":{"type":"Point","coordinates":[17.1466112,60.6755064]}},{"type":"Feature","id":"node/220671457","properties":{"type":"node","id":220671457,"tags":{"amenity":"atm"},"relations":[],"meta":{}},"geometry":{"type":"Point","coordinates":[17.1423298,60.6740424]}},{"type":"Feature","id":"node/232546858","properties":{"type":"node","id":232546858,"tags":{"amenity":"atm"},"relations":[],"meta":{}},"geometry":{"type":"Point","coordinates":[17.1339014,60.6577347]}},{"type":"Feature","id":"node/247823485","properties":{"type":"node","id":247823485,"tags":{"amenity":"atm","name":"Bankomat","operator":"Bankomat AB"},"relations":[],"meta":{}},"geometry":{"type":"Point","coordinates":[11.9339533,57.6991861]}},{"type":"Feature","id":"node/247823576","properties":{"type":"node","id":247823576,"tags":{"amenity":"atm","created_by":"Potlatch 0.7b"},"relations":[],"meta":{}},"geometry":{"type":"Point","coordinates":[11.9690246,57.708538]}},{"type":"Feature","id":"node/247823577","properties":{"type":"node","id":247823577,"tags":{"amenity":"atm","note":"The location is approximate, it might be some meters off.","operator":"Bankomat AB","source":"survey"},"relations":[],"meta":{}},"geometry":{"type":"Point","coordinates":[11.9682361,57.7098505]}},{"type":"Feature","id":"node/247823643","properties":{"type":"node","id":247823643,"tags":{"amenity":"atm","operator":"Nordea"},"relations":[],"meta":{}},"geometry":{"type":"Point","coordinates":[12.0317404,57.7521294]}},{"type":"Feature","id":"node/247823644","properties":{"type":"node","id":247823644,"tags":{"amenity":"atm"},"relations":[],"meta":{}},"geometry":{"type":"Point","coordinates":[12.0320537,57.7517058]}},{"type":"Feature","id":"node/247823665","properties":{"type":"node","id":247823665,"tags":{"amenity":"atm","operator":"Swedbank"},"relations":[],"meta":{}},"geometry":{"type":"Point","coordinates":[11.9868542,57.6965783]}},{"type":"Feature","id":"node/255371421","properties":{"type":"node","id":255371421,"tags":{"amenity":"atm","created_by":"JOSM","name":"Bankomat","source":"survey"},"relations":[],"meta":{}},"geometry":{"type":"Point","coordinates":[17.153941,60.7012195]}},{"type":"Feature","id":"node/267583790","properties":{"type":"node","id":267583790,"tags":{"amenity":"atm"},"relations":[],"meta":{}},"geometry":{"type":"Point","coordinates":[11.8741782,57.6646954]}},{"type":"Feature","id":"node/267583791","properties":{"type":"node","id":267583791,"tags":{"amenity":"atm"},"relations":[],"meta":{}},"geometry":{"type":"Point","coordinates":[11.878715,57.6711935]}},{"type":"Feature","id":"node/278816385","properties":{"type":"node","id":278816385,"tags":{"amenity":"atm","fixme":"resurvey","operator":"Swedbank"},"relations":[],"meta":{}},"geometry":{"type":"Point","coordinates":[16.5937702,59.6208409]}},{"type":"Feature","id":"node/282583565","properties":{"type":"node","id":282583565,"tags":{"amenity":"atm","operator":"bankomat"},"relations":[],"meta":{}},"geometry":{"type":"Point","coordinates":[17.9673387,59.2931129]}},{"type":"Feature","id":"node/283663778","properties":{"type":"node","id":283663778,"tags":{"amenity":"atm"},"relations":[],"meta":{}},"geometry":{"type":"Point","coordinates":[16.7714851,60.6254175]}},{"type":"Feature","id":"node/285432712","properties":{"type":"node","id":285432712,"tags":{"amenity":"atm"},"relations":[],"meta":{}},"geometry":{"type":"Point","coordinates":[14.7695258,56.2642154]}},{"type":"Feature","id":"node/286076107","properties":{"type":"node","id":286076107,"tags":{"amenity":"atm"},"relations":[],"meta":{}},"geometry":{"type":"Point","coordinates":[11.97342,57.7085038]}},{"type":"Feature","id":"node/286076142","properties":{"type":"node","id":286076142,"tags":{"amenity":"atm","created_by":"Potlatch 0.10b"},"relations":[],"meta":{}},"geometry":{"type":"Point","coordinates":[11.9729581,57.7086156]}},{"type":"Feature","id":"node/286588507","properties":{"type":"node","id":286588507,"tags":{"amenity":"atm","created_by":"Potlatch 0.10b","operator":"Swedbank"},"relations":[],"meta":{}},"geometry":{"type":"Point","coordinates":[20.3272757,63.8336019]}},{"type":"Feature","id":"node/286855215","properties":{"type":"node","id":286855215,"tags":{"amenity":"atm"},"relations":[],"meta":{}},"geometry":{"type":"Point","coordinates":[14.9956269,60.7316123]}},{"type":"Feature","id":"node/289448345","properties":{"type":"node","id":289448345,"tags":{"amenity":"atm"},"relations":[],"meta":{}},"geometry":{"type":"Point","coordinates":[17.1185552,60.6687417]}},{"type":"Feature","id":"node/290671810","properties":{"type":"node","id":290671810,"tags":{"amenity":"atm","created_by":"Potlatch 0.10b"},"relations":[],"meta":{}},"geometry":{"type":"Point","coordinates":[11.9610399,57.5609772]}},{"type":"Feature","id":"node/292464854","properties":{"type":"node","id":292464854,"tags":{"amenity":"atm","name":"bankomat"},"relations":[],"meta":{}},"geometry":{"type":"Point","coordinates":[14.3661942,60.5472875]}},{"type":"Feature","id":"node/295220024","properties":{"type":"node","id":295220024,"tags":{"amenity":"atm"},"relations":[],"meta":{}},"geometry":{"type":"Point","coordinates":[20.2647067,63.8279253]}},{"type":"Feature","id":"node/298555963","properties":{"type":"node","id":298555963,"tags":{"amenity":"atm","operator":"ICA"},"relations":[],"meta":{}},"geometry":{"type":"Point","coordinates":[20.3145265,63.8123858]}},{"type":"Feature","id":"node/304308531","properties":{"type":"node","id":304308531,"tags":{"amenity":"atm"},"relations":[],"meta":{}},"geometry":{"type":"Point","coordinates":[15.5981476,58.4077589]}},{"type":"Feature","id":"node/306691755","properties":{"type":"node","id":306691755,"tags":{"amenity":"atm","name":"Minuten","operator":"SWEDBANK","wheelchair":"yes"},"relations":[],"meta":{}},"geometry":{"type":"Point","coordinates":[15.5630539,58.4089837]}},{"type":"Feature","id":"node/306691760","properties":{"type":"node","id":306691760,"tags":{"amenity":"atm","name":"Bankomat","operator":"NORDEA","wheelchair":"yes"},"relations":[],"meta":{}},"geometry":{"type":"Point","coordinates":[15.5629562,58.4090765]}},{"type":"Feature","id":"node/312792886","properties":{"type":"node","id":312792886,"tags":{"amenity":"atm","created_by":"Potlatch 0.10f"},"relations":[],"meta":{}},"geometry":{"type":"Point","coordinates":[14.1628406,57.7819381]}},{"type":"Feature","id":"node/312792903","properties":{"type":"node","id":312792903,"tags":{"amenity":"atm","created_by":"Potlatch 0.10f"},"relations":[],"meta":{}},"geometry":{"type":"Point","coordinates":[14.161845,57.7830637]}},{"type":"Feature","id":"node/312792973","properties":{"type":"node","id":312792973,"tags":{"amenity":"atm","created_by":"Potlatch 0.10f"},"relations":[],"meta":{}},"geometry":{"type":"Point","coordinates":[14.16345,57.783137]}},{"type":"Feature","id":"node/312793001","properties":{"type":"node","id":312793001,"tags":{"amenity":"atm","operator":"SEB","source":"survey"},"relations":[],"meta":{}},"geometry":{"type":"Point","coordinates":[14.1617247,57.7835717]}},{"type":"Feature","id":"node/312793002","properties":{"type":"node","id":312793002,"tags":{"amenity":"atm","created_by":"Potlatch 0.10f"},"relations":[],"meta":{}},"geometry":{"type":"Point","coordinates":[14.1698702,57.78278]}},{"type":"Feature","id":"node/312793020","properties":{"type":"node","id":312793020,"tags":{"amenity":"atm"},"relations":[],"meta":{}},"geometry":{"type":"Point","coordinates":[14.16972,57.782691]}},{"type":"Feature","id":"node/312793052","properties":{"type":"node","id":312793052,"tags":{"amenity":"atm","created_by":"Potlatch 0.10f"},"relations":[],"meta":{}},"geometry":{"type":"Point","coordinates":[14.1696813,57.782295]}},{"type":"Feature","id":"node/312793081","properties":{"type":"node","id":312793081,"tags":{"amenity":"atm"},"relations":[],"meta":{}},"geometry":{"type":"Point","coordinates":[14.1708358,57.7816271]}},{"type":"Feature","id":"node/312793231","properties":{"type":"node","id":312793231,"tags":{"amenity":"atm"},"relations":[],"meta":{}},"geometry":{"type":"Point","coordinates":[14.1737501,57.7819944]}},{"type":"Feature","id":"node/312793256","properties":{"type":"node","id":312793256,"tags":{"amenity":"atm","created_by":"Potlatch 0.10f"},"relations":[],"meta":{}},"geometry":{"type":"Point","coordinates":[14.1763075,57.7819472]}},{"type":"Feature","id":"node/312793331","properties":{"type":"node","id":312793331,"tags":{"amenity":"atm"},"relations":[],"meta":{}},"geometry":{"type":"Point","coordinates":[14.1630288,57.7783848]}},{"type":"Feature","id":"node/312793344","properties":{"type":"node","id":312793344,"tags":{"amenity":"atm","created_by":"Potlatch 0.10f"},"relations":[],"meta":{}},"geometry":{"type":"Point","coordinates":[14.1564205,57.7785883]}},{"type":"Feature","id":"node/312793351","properties":{"type":"node","id":312793351,"tags":{"amenity":"atm"},"relations":[],"meta":{}},"geometry":{"type":"Point","coordinates":[14.153559,57.774352]}},{"type":"Feature","id":"node/312793431","properties":{"type":"node","id":312793431,"tags":{"amenity":"atm"},"relations":[],"meta":{}},"geometry":{"type":"Point","coordinates":[14.1755989,57.7715476]}},{"type":"Feature","id":"node/313791872","properties":{"type":"node","id":313791872,"tags":{"amenity":"atm"},"relations":[],"meta":{}},"geometry":{"type":"Point","coordinates":[12.0472761,57.7151292]}},{"type":"Feature","id":"node/315517399","properties":{"type":"node","id":315517399,"tags":{"amenity":"atm","operator":"Bankomat"},"relations":[],"meta":{}},"geometry":{"type":"Point","coordinates":[15.6783478,58.4263155]}},{"type":"Feature","id":"node/322591804","properties":{"type":"node","id":322591804,"tags":{"amenity":"atm","operator":"Danske bank"},"relations":[],"meta":{}},"geometry":{"type":"Point","coordinates":[18.0332554,59.3342558]}},{"type":"Feature","id":"node/325996032","properties":{"type":"node","id":325996032,"tags":{"amenity":"atm"},"relations":[],"meta":{}},"geometry":{"type":"Point","coordinates":[11.9743336,57.6888383]}},{"type":"Feature","id":"node/329998115","properties":{"type":"node","id":329998115,"tags":{"amenity":"atm","operator":"Swedbank"},"relations":[],"meta":{}},"geometry":{"type":"Point","coordinates":[12.3113876,58.9213811]}},{"type":"Feature","id":"node/336594417","properties":{"type":"node","id":336594417,"tags":{"amenity":"atm","operator":"Swedbank"},"relations":[],"meta":{}},"geometry":{"type":"Point","coordinates":[11.986144,57.6871226]}},{"type":"Feature","id":"node/358182369","properties":{"type":"node","id":358182369,"tags":{"amenity":"atm"},"relations":[],"meta":{}},"geometry":{"type":"Point","coordinates":[17.2634539,62.3987731]}},{"type":"Feature","id":"node/359155518","properties":{"type":"node","id":359155518,"tags":{"amenity":"atm","operator":"Swedbank"},"relations":[],"meta":{}},"geometry":{"type":"Point","coordinates":[12.7205255,61.8580037]}},{"type":"Feature","id":"node/360926901","properties":{"type":"node","id":360926901,"tags":{"amenity":"atm"},"relations":[],"meta":{}},"geometry":{"type":"Point","coordinates":[17.3375273,62.4467853]}},{"type":"Feature","id":"node/366598065","properties":{"type":"node","id":366598065,"tags":{"amenity":"atm","operator":"Swedbank"},"relations":[],"meta":{}},"geometry":{"type":"Point","coordinates":[18.2917178,57.6389552]}},{"type":"Feature","id":"node/371253685","properties":{"type":"node","id":371253685,"tags":{"amenity":"atm","created_by":"Potlatch 0.10f"},"relations":[],"meta":{}},"geometry":{"type":"Point","coordinates":[18.2851908,57.6215977]}},{"type":"Feature","id":"node/373457516","properties":{"type":"node","id":373457516,"tags":{"amenity":"atm","name":"Swedbank","operator":"Swedbank"},"relations":[],"meta":{}},"geometry":{"type":"Point","coordinates":[18.0903229,59.3403002]}},{"type":"Feature","id":"node/380984196","properties":{"type":"node","id":380984196,"tags":{"amenity":"atm"},"relations":[],"meta":{}},"geometry":{"type":"Point","coordinates":[12.8654748,56.6731174]}},{"type":"Feature","id":"node/382556423","properties":{"type":"node","id":382556423,"tags":{"amenity":"atm","operator":"Swedbank"},"relations":[],"meta":{}},"geometry":{"type":"Point","coordinates":[17.216103,62.4153399]}},{"type":"Feature","id":"node/387475419","properties":{"type":"node","id":387475419,"tags":{"amenity":"atm","operator":"Nordea"},"relations":[],"meta":{}},"geometry":{"type":"Point","coordinates":[14.6186439,63.1825155]}},{"type":"Feature","id":"node/391455961","properties":{"type":"node","id":391455961,"tags":{"amenity":"atm","operator":"Nordea"},"relations":[],"meta":{}},"geometry":{"type":"Point","coordinates":[18.0106209,59.3391403]}},{"type":"Feature","id":"node/392640782","properties":{"type":"node","id":392640782,"tags":{"amenity":"atm"},"relations":[],"meta":{}},"geometry":{"type":"Point","coordinates":[11.9214666,57.7167711]}},{"type":"Feature","id":"node/403762431","properties":{"type":"node","id":403762431,"tags":{"amenity":"atm","operator":"Swedbank"},"relations":[],"meta":{}},"geometry":{"type":"Point","coordinates":[17.4866467,58.9463072]}},{"type":"Feature","id":"node/405320470","properties":{"type":"node","id":405320470,"tags":{"amenity":"atm"},"relations":[],"meta":{}},"geometry":{"type":"Point","coordinates":[15.5775172,58.3975489]}},{"type":"Feature","id":"node/405320535","properties":{"type":"node","id":405320535,"tags":{"amenity":"atm"},"relations":[],"meta":{}},"geometry":{"type":"Point","coordinates":[15.5864827,58.4323318]}},{"type":"Feature","id":"node/409752615","properties":{"type":"node","id":409752615,"tags":{"amenity":"atm","operator":"Länsförsäkringar"},"relations":[],"meta":{}},"geometry":{"type":"Point","coordinates":[11.9680578,57.7072016]}},{"type":"Feature","id":"node/409832286","properties":{"type":"node","id":409832286,"tags":{"amenity":"atm","operator":"Bankomat AB"},"relations":[],"meta":{}},"geometry":{"type":"Point","coordinates":[12.0035462,57.649755]}},{"type":"Feature","id":"node/409832295","properties":{"type":"node","id":409832295,"tags":{"amenity":"atm","operator":"Kontanten"},"relations":[],"meta":{}},"geometry":{"type":"Point","coordinates":[11.9916616,57.6617273]}},{"type":"Feature","id":"node/409858885","properties":{"type":"node","id":409858885,"tags":{"amenity":"atm"},"relations":[],"meta":{}},"geometry":{"type":"Point","coordinates":[17.6367079,59.8588428]}},{"type":"Feature","id":"node/409866977","properties":{"type":"node","id":409866977,"tags":{"amenity":"atm"},"relations":[],"meta":{}},"geometry":{"type":"Point","coordinates":[17.6284242,59.8607758]}},{"type":"Feature","id":"node/409866978","properties":{"type":"node","id":409866978,"tags":{"amenity":"atm"},"relations":[],"meta":{}},"geometry":{"type":"Point","coordinates":[17.6293452,59.8602206]}},{"type":"Feature","id":"node/412046616","properties":{"type":"node","id":412046616,"tags":{"amenity":"atm"},"relations":[],"meta":{}},"geometry":{"type":"Point","coordinates":[12.0071256,57.7047288]}},{"type":"Feature","id":"node/412258588","properties":{"type":"node","id":412258588,"tags":{"amenity":"atm","operator":"Swedbank"},"relations":[],"meta":{}},"geometry":{"type":"Point","coordinates":[12.0143563,57.6553486]}},{"type":"Feature","id":"node/412311174","properties":{"type":"node","id":412311174,"tags":{"amenity":"atm"},"relations":[],"meta":{}},"geometry":{"type":"Point","coordinates":[17.5603629,59.8488957]}},{"type":"Feature","id":"node/412311175","properties":{"type":"node","id":412311175,"tags":{"amenity":"atm"},"relations":[],"meta":{}},"geometry":{"type":"Point","coordinates":[17.5599412,59.84912]}},{"type":"Feature","id":"node/412971261","properties":{"type":"node","id":412971261,"tags":{"amenity":"atm"},"relations":[],"meta":{}},"geometry":{"type":"Point","coordinates":[17.5880624,59.8518072]}},{"type":"Feature","id":"node/413640959","properties":{"type":"node","id":413640959,"tags":{"amenity":"atm"},"relations":[],"meta":{}},"geometry":{"type":"Point","coordinates":[17.6391147,59.8582757]}},{"type":"Feature","id":"node/413640960","properties":{"type":"node","id":413640960,"tags":{"amenity":"atm","operator":"Nordea"},"relations":[],"meta":{}},"geometry":{"type":"Point","coordinates":[17.639467,59.8586807]}},{"type":"Feature","id":"node/413642736","properties":{"type":"node","id":413642736,"tags":{"amenity":"atm"},"relations":[],"meta":{}},"geometry":{"type":"Point","coordinates":[17.6381195,59.8581635]}},{"type":"Feature","id":"node/413642739","properties":{"type":"node","id":413642739,"tags":{"amenity":"atm","operator":"SEB"},"relations":[],"meta":{}},"geometry":{"type":"Point","coordinates":[17.6406343,59.8576204]}},{"type":"Feature","id":"node/415276919","properties":{"type":"node","id":415276919,"tags":{"amenity":"atm","wheelchair":"no"},"relations":[],"meta":{}},"geometry":{"type":"Point","coordinates":[18.0508819,59.3175893]}},{"type":"Feature","id":"node/416679335","properties":{"type":"node","id":416679335,"tags":{"amenity":"atm","operator":"Danske bank"},"relations":[],"meta":{}},"geometry":{"type":"Point","coordinates":[18.0601117,59.3301661]}},{"type":"Feature","id":"node/418125694","properties":{"type":"node","id":418125694,"tags":{"amenity":"atm","operator":"Swedbank"},"relations":[],"meta":{}},"geometry":{"type":"Point","coordinates":[16.2964843,56.7347674]}},{"type":"Feature","id":"node/418222852","properties":{"type":"node","id":418222852,"tags":{"amenity":"atm","operator":"Bankomat"},"relations":[],"meta":{}},"geometry":{"type":"Point","coordinates":[16.3624244,56.6632304]}},{"type":"Feature","id":"node/418222854","properties":{"type":"node","id":418222854,"tags":{"amenity":"atm","operator":"Bankomat"},"relations":[],"meta":{}},"geometry":{"type":"Point","coordinates":[16.3631269,56.6632825]}},{"type":"Feature","id":"node/419311411","properties":{"type":"node","id":419311411,"tags":{"amenity":"atm"},"relations":[],"meta":{}},"geometry":{"type":"Point","coordinates":[13.0064689,55.6062476]}},{"type":"Feature","id":"node/419311413","properties":{"type":"node","id":419311413,"tags":{"amenity":"atm"},"relations":[],"meta":{}},"geometry":{"type":"Point","coordinates":[13.0073221,55.6076111]}},{"type":"Feature","id":"node/420450074","properties":{"type":"node","id":420450074,"tags":{"amenity":"atm","operator":"Handelsbanken"},"relations":[],"meta":{}},"geometry":{"type":"Point","coordinates":[18.0939368,59.3043398]}},{"type":"Feature","id":"node/427143510","properties":{"type":"node","id":427143510,"tags":{"amenity":"atm"},"relations":[],"meta":{}},"geometry":{"type":"Point","coordinates":[15.1307651,60.5603353]}},{"type":"Feature","id":"node/428959888","properties":{"type":"node","id":428959888,"tags":{"amenity":"atm","operator":"Swedbank"},"relations":[],"meta":{}},"geometry":{"type":"Point","coordinates":[13.1446535,58.5080087]}},{"type":"Feature","id":"node/428959890","properties":{"type":"node","id":428959890,"tags":{"amenity":"atm","operator":"Nordea","wheelchair":"yes"},"relations":[],"meta":{}},"geometry":{"type":"Point","coordinates":[13.1465105,58.508219]}},{"type":"Feature","id":"node/429234883","properties":{"type":"node","id":429234883,"tags":{"amenity":"atm","source":"survey"},"relations":[],"meta":{}},"geometry":{"type":"Point","coordinates":[17.9257898,59.4987328]}},{"type":"Feature","id":"node/430816459","properties":{"type":"node","id":430816459,"tags":{"amenity":"atm","name":"SEB Linköping","note:amenity":"The atm is inside a building. You open the doors, step in and make your transaction.","operator":"SEB"},"relations":[],"meta":{}},"geometry":{"type":"Point","coordinates":[15.6209577,58.4109167]}},{"type":"Feature","id":"node/430940846","properties":{"type":"node","id":430940846,"tags":{"amenity":"atm","name":"Roslagens Sparbank"},"relations":[],"meta":{}},"geometry":{"type":"Point","coordinates":[18.813426,60.0997684]}},{"type":"Feature","id":"node/434419181","properties":{"type":"node","id":434419181,"tags":{"addr:city":"Hudiksvall","addr:country":"SE","amenity":"atm"},"relations":[],"meta":{}},"geometry":{"type":"Point","coordinates":[17.0934182,61.7350914]}},{"type":"Feature","id":"node/434481292","properties":{"type":"node","id":434481292,"tags":{"amenity":"atm"},"relations":[],"meta":{}},"geometry":{"type":"Point","coordinates":[13.0213072,55.5911619]}},{"type":"Feature","id":"node/434483898","properties":{"type":"node","id":434483898,"tags":{"amenity":"atm"},"relations":[],"meta":{}},"geometry":{"type":"Point","coordinates":[17.648182,59.8665994]}},{"type":"Feature","id":"node/440620169","properties":{"type":"node","id":440620169,"tags":{"amenity":"atm","layer":"3","operator":"Swedbank","source":"local_knowledge"},"relations":[],"meta":{}},"geometry":{"type":"Point","coordinates":[15.4183925,60.4836721]}},{"type":"Feature","id":"node/441030065","properties":{"type":"node","id":441030065,"tags":{"amenity":"atm","operator":"Sundsvallsbanken"},"relations":[],"meta":{}},"geometry":{"type":"Point","coordinates":[17.3074094,62.3903133]}},{"type":"Feature","id":"node/441267961","properties":{"type":"node","id":441267961,"tags":{"amenity":"atm","operator":"SEB"},"relations":[],"meta":{}},"geometry":{"type":"Point","coordinates":[11.9675743,57.7082777]}},{"type":"Feature","id":"node/441789860","properties":{"type":"node","id":441789860,"tags":{"amenity":"atm","operator":"Nordea"},"relations":[],"meta":{}},"geometry":{"type":"Point","coordinates":[17.6845906,59.8526257]}},{"type":"Feature","id":"node/443318077","properties":{"type":"node","id":443318077,"tags":{"amenity":"atm","operator":"Handelsbanken"},"relations":[],"meta":{}},"geometry":{"type":"Point","coordinates":[16.3393708,56.6916995]}},{"type":"Feature","id":"node/443690834","properties":{"type":"node","id":443690834,"tags":{"amenity":"atm"},"relations":[],"meta":{}},"geometry":{"type":"Point","coordinates":[17.8170699,59.3797929]}},{"type":"Feature","id":"node/444832883","properties":{"type":"node","id":444832883,"tags":{"amenity":"atm"},"relations":[],"meta":{}},"geometry":{"type":"Point","coordinates":[13.0033024,55.6045921]}},{"type":"Feature","id":"node/444866316","properties":{"type":"node","id":444866316,"tags":{"amenity":"atm","operator":"SEB"},"relations":[],"meta":{}},"geometry":{"type":"Point","coordinates":[13.0015345,55.6034878]}},{"type":"Feature","id":"node/445807904","properties":{"type":"node","id":445807904,"tags":{"amenity":"atm"},"relations":[],"meta":{}},"geometry":{"type":"Point","coordinates":[17.8590085,59.369544]}},{"type":"Feature","id":"node/445846491","properties":{"type":"node","id":445846491,"tags":{"amenity":"atm","operator":"Swedbank"},"relations":[],"meta":{}},"geometry":{"type":"Point","coordinates":[13.0047715,55.5879028]}},{"type":"Feature","id":"node/446048556","properties":{"type":"node","id":446048556,"tags":{"amenity":"atm","operator":"SEB"},"relations":[],"meta":{}},"geometry":{"type":"Point","coordinates":[17.9442652,59.4023294]}},{"type":"Feature","id":"node/448288823","properties":{"type":"node","id":448288823,"tags":{"amenity":"atm","name":"ICA Bungehallen","shop":"supermarket"},"relations":[],"meta":{}},"geometry":{"type":"Point","coordinates":[19.0547901,57.8631632]}},{"type":"Feature","id":"node/449051032","properties":{"type":"node","id":449051032,"tags":{"amenity":"atm","description":"bankomat"},"relations":[],"meta":{}},"geometry":{"type":"Point","coordinates":[14.5401537,61.0064666]}},{"type":"Feature","id":"node/449051034","properties":{"type":"node","id":449051034,"tags":{"amenity":"atm","description":"Swedbank"},"relations":[],"meta":{}},"geometry":{"type":"Point","coordinates":[14.5385304,61.0051494]}},{"type":"Feature","id":"node/449051036","properties":{"type":"node","id":449051036,"tags":{"amenity":"atm","description":"bankomat"},"relations":[],"meta":{}},"geometry":{"type":"Point","coordinates":[14.5373288,61.0040385]}},{"type":"Feature","id":"node/449776771","properties":{"type":"node","id":449776771,"tags":{"amenity":"atm","operator":"Bankomat"},"relations":[],"meta":{}},"geometry":{"type":"Point","coordinates":[16.3635625,56.664312]}},{"type":"Feature","id":"node/449776777","properties":{"type":"node","id":449776777,"tags":{"amenity":"atm","operator":"Swedbank"},"relations":[],"meta":{}},"geometry":{"type":"Point","coordinates":[16.3641197,56.6637471]}},{"type":"Feature","id":"node/449776780","properties":{"type":"node","id":449776780,"tags":{"amenity":"atm","operator":"Bankomat"},"relations":[],"meta":{}},"geometry":{"type":"Point","coordinates":[16.3645899,56.6646895]}},{"type":"Feature","id":"node/449884295","properties":{"type":"node","id":449884295,"tags":{"amenity":"atm","operator":"Länsförsäkringar"},"relations":[],"meta":{}},"geometry":{"type":"Point","coordinates":[18.0694697,59.3359196]}},{"type":"Feature","id":"node/451850470","properties":{"type":"node","id":451850470,"tags":{"amenity":"atm","operator":"Swedbank","source":"survey"},"relations":[],"meta":{}},"geometry":{"type":"Point","coordinates":[12.5415791,62.5465809]}},{"type":"Feature","id":"node/452236318","properties":{"type":"node","id":452236318,"tags":{"amenity":"atm","operator":"Östgöta Enskilda Bank","outside_atm":"yes"},"relations":[],"meta":{}},"geometry":{"type":"Point","coordinates":[15.6125642,58.4274381]}},{"type":"Feature","id":"node/456353291","properties":{"type":"node","id":456353291,"tags":{"amenity":"atm"},"relations":[],"meta":{}},"geometry":{"type":"Point","coordinates":[17.31015,62.3909892]}},{"type":"Feature","id":"node/458244250","properties":{"type":"node","id":458244250,"tags":{"amenity":"atm","operator":"Danske Bank"},"relations":[],"meta":{}},"geometry":{"type":"Point","coordinates":[18.0722301,59.3333482]}},{"type":"Feature","id":"node/458629264","properties":{"type":"node","id":458629264,"tags":{"amenity":"atm","operator":"Nordea"},"relations":[],"meta":{}},"geometry":{"type":"Point","coordinates":[16.639816,57.7581973]}},{"type":"Feature","id":"node/458635540","properties":{"type":"node","id":458635540,"tags":{"amenity":"atm","operator":"Föreningssparbanken"},"relations":[],"meta":{}},"geometry":{"type":"Point","coordinates":[16.6388547,57.7579088]}},{"type":"Feature","id":"node/458997499","properties":{"type":"node","id":458997499,"tags":{"amenity":"atm"},"relations":[],"meta":{}},"geometry":{"type":"Point","coordinates":[14.5878826,61.008834]}},{"type":"Feature","id":"node/463172830","properties":{"type":"node","id":463172830,"tags":{"amenity":"atm","wheelchair":"yes"},"relations":[],"meta":{}},"geometry":{"type":"Point","coordinates":[17.9384917,62.6331364]}},{"type":"Feature","id":"node/463172835","properties":{"type":"node","id":463172835,"tags":{"amenity":"atm","operator":"Länsförsäkringar","wheelchair":"yes"},"relations":[],"meta":{}},"geometry":{"type":"Point","coordinates":[17.9381842,62.6320223]}},{"type":"Feature","id":"node/463175192","properties":{"type":"node","id":463175192,"tags":{"amenity":"atm","operator":"Nordea","wheelchair":"yes"},"relations":[],"meta":{}},"geometry":{"type":"Point","coordinates":[17.9383313,62.6327071]}},{"type":"Feature","id":"node/463212568","properties":{"type":"node","id":463212568,"tags":{"amenity":"atm"},"relations":[],"meta":{}},"geometry":{"type":"Point","coordinates":[17.9018972,59.394061]}},{"type":"Feature","id":"node/463940831","properties":{"type":"node","id":463940831,"tags":{"amenity":"atm"},"relations":[],"meta":{}},"geometry":{"type":"Point","coordinates":[12.0152025,57.6554207]}},{"type":"Feature","id":"node/469222605","properties":{"type":"node","id":469222605,"tags":{"amenity":"atm","operator":"Bankomat"},"relations":[],"meta":{}},"geometry":{"type":"Point","coordinates":[14.7419749,63.158353]}},{"type":"Feature","id":"node/470641651","properties":{"type":"node","id":470641651,"tags":{"amenity":"atm","operator":"Uttag"},"relations":[],"meta":{}},"geometry":{"type":"Point","coordinates":[14.6708459,63.1596236]}},{"type":"Feature","id":"node/471352021","properties":{"type":"node","id":471352021,"tags":{"amenity":"atm","operator":"Handelsbanken","wheelchair":"yes"},"relations":[],"meta":{}},"geometry":{"type":"Point","coordinates":[13.7646889,56.1577168]}},{"type":"Feature","id":"node/471352024","properties":{"type":"node","id":471352024,"tags":{"amenity":"atm","operator":"Länsförsäkringar Bank","wheelchair":"yes"},"relations":[],"meta":{}},"geometry":{"type":"Point","coordinates":[13.7665313,56.155951]}},{"type":"Feature","id":"node/471352026","properties":{"type":"node","id":471352026,"tags":{"amenity":"atm","operator":"Minuten","wheelchair":"yes"},"relations":[],"meta":{}},"geometry":{"type":"Point","coordinates":[13.7662203,56.158936]}},{"type":"Feature","id":"node/471352029","properties":{"type":"node","id":471352029,"tags":{"amenity":"atm","operator":"Bankomat","wheelchair":"yes"},"relations":[],"meta":{}},"geometry":{"type":"Point","coordinates":[13.7671952,56.1585626]}},{"type":"Feature","id":"node/471405848","properties":{"type":"node","id":471405848,"tags":{"amenity":"atm","operator":"Swedbank","wheelchair":"yes"},"relations":[],"meta":{}},"geometry":{"type":"Point","coordinates":[17.9312358,62.629381]}},{"type":"Feature","id":"node/471963919","properties":{"type":"node","id":471963919,"tags":{"amenity":"atm","operator":"Handelsbanken"},"relations":[],"meta":{}},"geometry":{"type":"Point","coordinates":[18.0637902,59.3327003]}},{"type":"Feature","id":"node/472644551","properties":{"type":"node","id":472644551,"tags":{"amenity":"atm"},"relations":[],"meta":{}},"geometry":{"type":"Point","coordinates":[18.0317256,59.3324725]}},{"type":"Feature","id":"node/473590268","properties":{"type":"node","id":473590268,"tags":{"amenity":"atm","name":"Nordea","operator":"Nordea"},"relations":[],"meta":{}},"geometry":{"type":"Point","coordinates":[18.0558921,59.3360595]}},{"type":"Feature","id":"node/474630227","properties":{"type":"node","id":474630227,"tags":{"amenity":"atm","fee":"no","operator":"Uttag","wheelchair":"yes"},"relations":[],"meta":{}},"geometry":{"type":"Point","coordinates":[14.6384591,63.1775706]}},{"type":"Feature","id":"node/475902920","properties":{"type":"node","id":475902920,"tags":{"amenity":"atm","operator":"Nordea"},"relations":[],"meta":{}},"geometry":{"type":"Point","coordinates":[18.067473,59.3350485]}},{"type":"Feature","id":"node/475902933","properties":{"type":"node","id":475902933,"tags":{"amenity":"atm","name":"Swedbank","operator":"Swedbank"},"relations":[],"meta":{}},"geometry":{"type":"Point","coordinates":[18.0628177,59.3320779]}},{"type":"Feature","id":"node/475902947","properties":{"type":"node","id":475902947,"tags":{"amenity":"atm","name":"Swedbank","operator":"Swedbank"},"relations":[],"meta":{}},"geometry":{"type":"Point","coordinates":[18.0603004,59.3314608]}},{"type":"Feature","id":"node/476655551","properties":{"type":"node","id":476655551,"tags":{"amenity":"atm","operator":"Swedbank"},"relations":[],"meta":{}},"geometry":{"type":"Point","coordinates":[14.6948309,63.1750297]}},{"type":"Feature","id":"node/476782158","properties":{"type":"node","id":476782158,"tags":{"amenity":"atm","operator":"Nordea","wheelchair":"yes"},"relations":[],"meta":{}},"geometry":{"type":"Point","coordinates":[14.6352049,63.1772526]}},{"type":"Feature","id":"node/479369199","properties":{"type":"node","id":479369199,"tags":{"amenity":"atm","operator":"Danske bank"},"relations":[],"meta":{}},"geometry":{"type":"Point","coordinates":[18.0641315,59.3343631]}},{"type":"Feature","id":"node/481375382","properties":{"type":"node","id":481375382,"tags":{"amenity":"atm","fee":"no","operator":"Swedbank","wheelchair":"yes"},"relations":[],"meta":{}},"geometry":{"type":"Point","coordinates":[14.6374423,63.1751184]}},{"type":"Feature","id":"node/483644582","properties":{"type":"node","id":483644582,"tags":{"amenity":"atm","name":"Swedbank","operator":"Swedbank"},"relations":[],"meta":{}},"geometry":{"type":"Point","coordinates":[18.0676147,59.3315006]}},{"type":"Feature","id":"node/485981189","properties":{"type":"node","id":485981189,"tags":{"amenity":"atm","operator":"Swedbank"},"relations":[],"meta":{}},"geometry":{"type":"Point","coordinates":[18.0555786,59.3344785]}},{"type":"Feature","id":"node/489953817","properties":{"type":"node","id":489953817,"tags":{"amenity":"atm"},"relations":[],"meta":{}},"geometry":{"type":"Point","coordinates":[17.8549089,59.4039729]}},{"type":"Feature","id":"node/489953821","properties":{"type":"node","id":489953821,"tags":{"amenity":"atm"},"relations":[],"meta":{}},"geometry":{"type":"Point","coordinates":[17.867628,59.4024868]}},{"type":"Feature","id":"node/490481723","properties":{"type":"node","id":490481723,"tags":{"amenity":"atm","name":"Swedbank","operator":"Swedbank"},"relations":[],"meta":{}},"geometry":{"type":"Point","coordinates":[18.0329825,59.3346799]}},{"type":"Feature","id":"node/490482321","properties":{"type":"node","id":490482321,"tags":{"amenity":"atm","name":"Swedbank","operator":"Swedbank"},"relations":[],"meta":{}},"geometry":{"type":"Point","coordinates":[18.0569162,59.3311351]}},{"type":"Feature","id":"node/490482440","properties":{"type":"node","id":490482440,"tags":{"amenity":"atm","name":"Swedbank","operator":"Swedbank","wheelchair":"yes"},"relations":[],"meta":{}},"geometry":{"type":"Point","coordinates":[18.0934231,59.3037909]}},{"type":"Feature","id":"node/490482468","properties":{"type":"node","id":490482468,"tags":{"amenity":"atm","name":"Swedbank","operator":"Swedbank","wheelchair":"yes"},"relations":[],"meta":{}},"geometry":{"type":"Point","coordinates":[18.0794075,59.2979177]}},{"type":"Feature","id":"node/490494003","properties":{"type":"node","id":490494003,"tags":{"amenity":"atm","name":"Swedbank","operator":"Swedbank"},"relations":[],"meta":{}},"geometry":{"type":"Point","coordinates":[18.0906682,59.3394763]}},{"type":"Feature","id":"node/491221858","properties":{"type":"node","id":491221858,"tags":{"amenity":"atm"},"relations":[],"meta":{}},"geometry":{"type":"Point","coordinates":[12.0129576,57.7303049]}},{"type":"Feature","id":"node/492945623","properties":{"type":"node","id":492945623,"tags":{"amenity":"atm","operator":"Nordea"},"relations":[],"meta":{}},"geometry":{"type":"Point","coordinates":[18.0034566,59.3478906]}},{"type":"Feature","id":"node/494114018","properties":{"type":"node","id":494114018,"tags":{"amenity":"atm"},"relations":[],"meta":{}},"geometry":{"type":"Point","coordinates":[18.0756009,59.3143271]}},{"type":"Feature","id":"node/495988347","properties":{"type":"node","id":495988347,"tags":{"amenity":"atm","source":"local_knowledge"},"relations":[],"meta":{}},"geometry":{"type":"Point","coordinates":[11.9271345,57.7547838]}},{"type":"Feature","id":"node/497071615","properties":{"type":"node","id":497071615,"tags":{"amenity":"atm","operator":"Handelsbanken"},"relations":[],"meta":{}},"geometry":{"type":"Point","coordinates":[12.0463898,57.893411]}},{"type":"Feature","id":"node/497186584","properties":{"type":"node","id":497186584,"tags":{"amenity":"atm"},"relations":[],"meta":{}},"geometry":{"type":"Point","coordinates":[14.0772777,56.2552323]}},{"type":"Feature","id":"node/497268845","properties":{"type":"node","id":497268845,"tags":{"amenity":"atm"},"relations":[],"meta":{}},"geometry":{"type":"Point","coordinates":[16.3236503,58.4802913]}},{"type":"Feature","id":"node/497270906","properties":{"type":"node","id":497270906,"tags":{"amenity":"atm","name":"Nordea"},"relations":[],"meta":{}},"geometry":{"type":"Point","coordinates":[16.3216932,58.4799083]}},{"type":"Feature","id":"node/497711140","properties":{"type":"node","id":497711140,"tags":{"amenity":"atm","operator":"Swedbank"},"relations":[],"meta":{}},"geometry":{"type":"Point","coordinates":[14.0873927,56.1920542]}},{"type":"Feature","id":"node/499142553","properties":{"type":"node","id":499142553,"tags":{"amenity":"atm","fee":"0:-","operator":"Nordea"},"relations":[],"meta":{}},"geometry":{"type":"Point","coordinates":[14.3650907,62.0336094]}},{"type":"Feature","id":"node/506305768","properties":{"type":"node","id":506305768,"tags":{"amenity":"atm"},"relations":[],"meta":{}},"geometry":{"type":"Point","coordinates":[12.7329709,56.8193395]}},{"type":"Feature","id":"node/508081266","properties":{"type":"node","id":508081266,"tags":{"amenity":"atm","operator":"Swedbank"},"relations":[],"meta":{}},"geometry":{"type":"Point","coordinates":[16.4683894,56.6514337]}},{"type":"Feature","id":"node/508269451","properties":{"type":"node","id":508269451,"tags":{"amenity":"atm","name":"Minuten","operator":"Swedbank"},"relations":[],"meta":{}},"geometry":{"type":"Point","coordinates":[15.6216837,58.4103459]}},{"type":"Feature","id":"node/508729890","properties":{"type":"node","id":508729890,"tags":{"amenity":"atm","operator":"Bankomat AB"},"relations":[],"meta":{}},"geometry":{"type":"Point","coordinates":[11.9282651,57.6974122]}},{"type":"Feature","id":"node/508739752","properties":{"type":"node","id":508739752,"tags":{"amenity":"atm","operator":"Swedbank"},"relations":[],"meta":{}},"geometry":{"type":"Point","coordinates":[11.8933947,57.7332043]}},{"type":"Feature","id":"node/512538819","properties":{"type":"node","id":512538819,"tags":{"amenity":"atm"},"relations":[],"meta":{}},"geometry":{"type":"Point","coordinates":[18.0681738,59.3336606]}},{"type":"Feature","id":"node/514636046","properties":{"type":"node","id":514636046,"tags":{"amenity":"atm","operator":"SEB"},"relations":[],"meta":{}},"geometry":{"type":"Point","coordinates":[17.3093456,62.3915859]}},{"type":"Feature","id":"node/514956455","properties":{"type":"node","id":514956455,"tags":{"amenity":"atm","source":"local_knowledge"},"relations":[],"meta":{}},"geometry":{"type":"Point","coordinates":[17.9390867,62.6321697]}},{"type":"Feature","id":"node/529639110","properties":{"type":"node","id":529639110,"tags":{"amenity":"atm","name":"Otto","operator":"Nordea","ref":"5408"},"relations":[],"meta":{}},"geometry":{"type":"Point","coordinates":[24.1491314,65.8459502]}},{"type":"Feature","id":"node/529639112","properties":{"type":"node","id":529639112,"tags":{"addr:housenumber":"14","amenity":"atm","name":"Otto","operator":"Osuuspankki","ref":"3794"},"relations":[],"meta":{}},"geometry":{"type":"Point","coordinates":[24.1496627,65.846162]}},{"type":"Feature","id":"node/534287859","properties":{"type":"node","id":534287859,"tags":{"amenity":"atm"},"relations":[],"meta":{}},"geometry":{"type":"Point","coordinates":[18.0129525,59.3016861]}},{"type":"Feature","id":"node/534566670","properties":{"type":"node","id":534566670,"tags":{"amenity":"atm","operator":"Nordea"},"relations":[],"meta":{}},"geometry":{"type":"Point","coordinates":[13.0052741,55.5931643]}},{"type":"Feature","id":"node/534566765","properties":{"type":"node","id":534566765,"tags":{"amenity":"atm","operator":"SE-Banken"},"relations":[],"meta":{}},"geometry":{"type":"Point","coordinates":[13.0025122,55.5963892]}},{"type":"Feature","id":"node/534566787","properties":{"type":"node","id":534566787,"tags":{"amenity":"atm","operator":"Handelsbanken"},"relations":[],"meta":{}},"geometry":{"type":"Point","coordinates":[13.0039168,55.5960826]}},{"type":"Feature","id":"node/537767193","properties":{"type":"node","id":537767193,"tags":{"amenity":"atm"},"relations":[],"meta":{}},"geometry":{"type":"Point","coordinates":[17.2206991,59.2590913]}},{"type":"Feature","id":"node/537767197","properties":{"type":"node","id":537767197,"tags":{"amenity":"atm"},"relations":[],"meta":{}},"geometry":{"type":"Point","coordinates":[17.2212999,59.2592361]}},{"type":"Feature","id":"node/539381807","properties":{"type":"node","id":539381807,"tags":{"amenity":"atm","count":"2","operator":"Swedbank","wheelchair":"limited"},"relations":[],"meta":{}},"geometry":{"type":"Point","coordinates":[13.0020428,55.596778]}},{"type":"Feature","id":"node/540007504","properties":{"type":"node","id":540007504,"tags":{"amenity":"atm","operator":"Handelsbanken"},"relations":[],"meta":{}},"geometry":{"type":"Point","coordinates":[14.6827688,63.1557843]}},{"type":"Feature","id":"node/546851591","properties":{"type":"node","id":546851591,"tags":{"amenity":"atm"},"relations":[],"meta":{}},"geometry":{"type":"Point","coordinates":[18.3313262,59.4721792]}},{"type":"Feature","id":"node/549240741","properties":{"type":"node","id":549240741,"tags":{"amenity":"atm","wheelchair":"limited"},"relations":[],"meta":{}},"geometry":{"type":"Point","coordinates":[12.4835536,56.9036835]}},{"type":"Feature","id":"node/558314224","properties":{"type":"node","id":558314224,"tags":{"amenity":"atm"},"relations":[],"meta":{}},"geometry":{"type":"Point","coordinates":[18.048783,59.3475547]}},{"type":"Feature","id":"node/560085714","properties":{"type":"node","id":560085714,"tags":{"amenity":"atm","operator":"Handelsbanken"},"relations":[],"meta":{}},"geometry":{"type":"Point","coordinates":[18.7028997,59.7573287]}},{"type":"Feature","id":"node/564196515","properties":{"type":"node","id":564196515,"tags":{"amenity":"atm","operator":"Länsförsäkringar"},"relations":[],"meta":{}},"geometry":{"type":"Point","coordinates":[17.1510742,60.6758712]}},{"type":"Feature","id":"node/567188763","properties":{"type":"node","id":567188763,"tags":{"amenity":"atm","operator":"Swedbank"},"relations":[],"meta":{}},"geometry":{"type":"Point","coordinates":[14.9720987,57.6661407]}},{"type":"Feature","id":"node/572631900","properties":{"type":"node","id":572631900,"tags":{"addr:street":"Kungsgatan","amenity":"atm","name":"Handelsbanken"},"relations":[],"meta":{}},"geometry":{"type":"Point","coordinates":[15.2795062,56.2104664]}},{"type":"Feature","id":"node/573759872","properties":{"type":"node","id":573759872,"tags":{"amenity":"atm","operator":"Bankomat"},"relations":[],"meta":{}},"geometry":{"type":"Point","coordinates":[15.2770802,56.2099373]}},{"type":"Feature","id":"node/582718223","properties":{"type":"node","id":582718223,"tags":{"amenity":"atm","name":"Bankomat"},"relations":[],"meta":{}},"geometry":{"type":"Point","coordinates":[15.625357,58.4162464]}},{"type":"Feature","id":"node/583003378","properties":{"type":"node","id":583003378,"tags":{"amenity":"atm","operator":"Swedbank"},"relations":[],"meta":{}},"geometry":{"type":"Point","coordinates":[20.8479552,64.1926223]}},{"type":"Feature","id":"node/587295551","properties":{"type":"node","id":587295551,"tags":{"amenity":"atm","operator":"Sparbanken Enköping"},"relations":[],"meta":{}},"geometry":{"type":"Point","coordinates":[17.6426862,59.5162278]}},{"type":"Feature","id":"node/596447470","properties":{"type":"node","id":596447470,"tags":{"amenity":"atm","fee":"no","operator":"Länsförsäkringar bank","wheelchair":"yes"},"relations":[],"meta":{}},"geometry":{"type":"Point","coordinates":[14.6364058,63.1795749]}},{"type":"Feature","id":"node/596447477","properties":{"type":"node","id":596447477,"tags":{"amenity":"atm","fee":"no","operator":"Swedbank","wheelchair":"yes"},"relations":[],"meta":{}},"geometry":{"type":"Point","coordinates":[14.6371085,63.1792796]}},{"type":"Feature","id":"node/597194290","properties":{"type":"node","id":597194290,"tags":{"amenity":"atm","operator":"Nordea"},"relations":[],"meta":{}},"geometry":{"type":"Point","coordinates":[13.846444,58.3902271]}},{"type":"Feature","id":"node/598115298","properties":{"type":"node","id":598115298,"tags":{"amenity":"atm","name":"SEB"},"relations":[],"meta":{}},"geometry":{"type":"Point","coordinates":[17.8378907,59.4240655]}},{"type":"Feature","id":"node/598115305","properties":{"type":"node","id":598115305,"tags":{"amenity":"atm","name":"Nordea"},"relations":[],"meta":{}},"geometry":{"type":"Point","coordinates":[17.8351281,59.4230886]}},{"type":"Feature","id":"node/598115306","properties":{"type":"node","id":598115306,"tags":{"amenity":"atm","name":"Nordea"},"relations":[],"meta":{}},"geometry":{"type":"Point","coordinates":[17.8347901,59.4242593]}},{"type":"Feature","id":"node/598253187","properties":{"type":"node","id":598253187,"tags":{"amenity":"atm"},"relations":[],"meta":{}},"geometry":{"type":"Point","coordinates":[17.938802,62.6336146]}},{"type":"Feature","id":"node/600423102","properties":{"type":"node","id":600423102,"tags":{"amenity":"atm","name":"Otto","operator":"Sampo Pankki","ref":"4595"},"relations":[],"meta":{}},"geometry":{"type":"Point","coordinates":[24.1503874,65.8465445]}},{"type":"Feature","id":"node/611770256","properties":{"type":"node","id":611770256,"tags":{"amenity":"atm","operator":"Nordea"},"relations":[],"meta":{}},"geometry":{"type":"Point","coordinates":[13.0326673,55.5999662]}},{"type":"Feature","id":"node/611806642","properties":{"type":"node","id":611806642,"tags":{"amenity":"atm"},"relations":[],"meta":{}},"geometry":{"type":"Point","coordinates":[13.0231473,55.6065093]}},{"type":"Feature","id":"node/612268766","properties":{"type":"node","id":612268766,"tags":{"amenity":"atm","name":"Swedbank AB Vrigstad"},"relations":[],"meta":{}},"geometry":{"type":"Point","coordinates":[14.4735686,57.3557513]}},{"type":"Feature","id":"node/612401228","properties":{"type":"node","id":612401228,"tags":{"amenity":"atm","layer":"1","name":"Otto","ref":"4065"},"relations":[],"meta":{}},"geometry":{"type":"Point","coordinates":[24.144178,65.8431787]}},{"type":"Feature","id":"node/616765356","properties":{"type":"node","id":616765356,"tags":{"amenity":"atm"},"relations":[],"meta":{}},"geometry":{"type":"Point","coordinates":[15.5826993,58.4275716]}},{"type":"Feature","id":"node/616815618","properties":{"type":"node","id":616815618,"tags":{"amenity":"atm","operator":"Länsförsäkringar"},"relations":[],"meta":{}},"geometry":{"type":"Point","coordinates":[18.703029,59.7592594]}},{"type":"Feature","id":"node/622746625","properties":{"type":"node","id":622746625,"tags":{"amenity":"atm","name":"ICA Bank"},"relations":[],"meta":{}},"geometry":{"type":"Point","coordinates":[16.534488,59.3880983]}},{"type":"Feature","id":"node/623258920","properties":{"type":"node","id":623258920,"tags":{"amenity":"atm"},"relations":[],"meta":{}},"geometry":{"type":"Point","coordinates":[18.0160739,59.3340482]}},{"type":"Feature","id":"node/623566961","properties":{"type":"node","id":623566961,"tags":{"amenity":"atm","operator":"SEB"},"relations":[],"meta":{}},"geometry":{"type":"Point","coordinates":[13.6624638,55.8517496]}},{"type":"Feature","id":"node/625987374","properties":{"type":"node","id":625987374,"tags":{"amenity":"atm","operator":"Kontanten"},"relations":[],"meta":{}},"geometry":{"type":"Point","coordinates":[12.9960396,55.6090298]}},{"type":"Feature","id":"node/626006080","properties":{"type":"node","id":626006080,"tags":{"amenity":"atm","operator":"Swedbank"},"relations":[],"meta":{}},"geometry":{"type":"Point","coordinates":[16.6201988,59.6093193]}},{"type":"Feature","id":"node/629865266","properties":{"type":"node","id":629865266,"tags":{"amenity":"atm","name":"Uttagsautomat","wheelchair":"limited"},"relations":[],"meta":{}},"geometry":{"type":"Point","coordinates":[16.5167627,59.369366]}},{"type":"Feature","id":"node/630660740","properties":{"type":"node","id":630660740,"tags":{"amenity":"atm"},"relations":[],"meta":{}},"geometry":{"type":"Point","coordinates":[12.050145,57.609898]}},{"type":"Feature","id":"node/632507208","properties":{"type":"node","id":632507208,"tags":{"amenity":"atm"},"relations":[],"meta":{}},"geometry":{"type":"Point","coordinates":[18.2004966,57.3860113]}},{"type":"Feature","id":"node/634123149","properties":{"type":"node","id":634123149,"tags":{"amenity":"atm"},"relations":[],"meta":{}},"geometry":{"type":"Point","coordinates":[15.6270052,58.4110453]}},{"type":"Feature","id":"node/637944251","properties":{"type":"node","id":637944251,"tags":{"amenity":"atm","name":"Bankomat"},"relations":[],"meta":{}},"geometry":{"type":"Point","coordinates":[18.014789,59.262201]}},{"type":"Feature","id":"node/639151754","properties":{"type":"node","id":639151754,"tags":{"amenity":"atm","operator":"Den Danske Bank"},"relations":[],"meta":{}},"geometry":{"type":"Point","coordinates":[18.0527491,59.2968326]}},{"type":"Feature","id":"node/639151764","properties":{"type":"node","id":639151764,"tags":{"amenity":"atm","operator":"ICA-banken"},"relations":[],"meta":{}},"geometry":{"type":"Point","coordinates":[18.0523562,59.2963935]}},{"type":"Feature","id":"node/639592032","properties":{"type":"node","id":639592032,"tags":{"amenity":"atm"},"relations":[],"meta":{}},"geometry":{"type":"Point","coordinates":[16.6067451,59.9200858]}},{"type":"Feature","id":"node/639592056","properties":{"type":"node","id":639592056,"tags":{"amenity":"atm"},"relations":[],"meta":{}},"geometry":{"type":"Point","coordinates":[16.6068202,59.9200992]}},{"type":"Feature","id":"node/648859924","properties":{"type":"node","id":648859924,"tags":{"amenity":"atm","operator":"Handelsbanken"},"relations":[],"meta":{}},"geometry":{"type":"Point","coordinates":[12.6990428,56.0409668]}},{"type":"Feature","id":"node/648859955","properties":{"type":"node","id":648859955,"tags":{"amenity":"atm","operator":"Nordea"},"relations":[],"meta":{}},"geometry":{"type":"Point","coordinates":[12.7013205,56.0410918]}},{"type":"Feature","id":"node/654027724","properties":{"type":"node","id":654027724,"tags":{"amenity":"atm","operator":"Automaten"},"relations":[],"meta":{}},"geometry":{"type":"Point","coordinates":[17.9285153,59.3287361]}},{"type":"Feature","id":"node/658855469","properties":{"type":"node","id":658855469,"tags":{"amenity":"atm"},"relations":[],"meta":{}},"geometry":{"type":"Point","coordinates":[14.8900458,58.4484438]}},{"type":"Feature","id":"node/658855470","properties":{"type":"node","id":658855470,"tags":{"amenity":"atm","email":"hk@vadstenasparbank.se","fax":"+46 14313647","name":"Vadstena Sparbank","opening_hours":"Mo-We,Fr 10:00-15:00;Th 10:00-17:30","phone":"+46 14375500","website":"http://www.vadstenasparbank.se/"},"relations":[],"meta":{}},"geometry":{"type":"Point","coordinates":[14.8897438,58.4480477]}},{"type":"Feature","id":"node/658866805","properties":{"type":"node","id":658866805,"tags":{"amenity":"atm"},"relations":[],"meta":{}},"geometry":{"type":"Point","coordinates":[17.8572994,59.41714]}},{"type":"Feature","id":"node/663003552","properties":{"type":"node","id":663003552,"tags":{"amenity":"atm","operator":"Sparbanken Öresund"},"relations":[],"meta":{}},"geometry":{"type":"Point","coordinates":[13.2080833,55.6439516]}},{"type":"Feature","id":"node/666945043","properties":{"type":"node","id":666945043,"tags":{"amenity":"atm","operator":"Swedbank"},"relations":[],"meta":{}},"geometry":{"type":"Point","coordinates":[16.4738988,59.5996874]}},{"type":"Feature","id":"node/666945046","properties":{"type":"node","id":666945046,"tags":{"amenity":"atm","operator":"Nordea"},"relations":[],"meta":{}},"geometry":{"type":"Point","coordinates":[16.4745512,59.5989958]}},{"type":"Feature","id":"node/672273124","properties":{"type":"node","id":672273124,"tags":{"amenity":"atm","life_cycle":"operative","network":"Bankomat"},"relations":[],"meta":{}},"geometry":{"type":"Point","coordinates":[11.9216796,57.6873697]}},{"type":"Feature","id":"node/672748863","properties":{"type":"node","id":672748863,"tags":{"amenity":"atm","wheelchair":"limited"},"relations":[],"meta":{}},"geometry":{"type":"Point","coordinates":[18.0118349,59.3160925]}},{"type":"Feature","id":"node/675631273","properties":{"type":"node","id":675631273,"tags":{"amenity":"atm","operator":"Nordea"},"relations":[],"meta":{}},"geometry":{"type":"Point","coordinates":[12.6929109,56.0483638]}},{"type":"Feature","id":"node/675631275","properties":{"type":"node","id":675631275,"tags":{"amenity":"atm","operator":"Nordea"},"relations":[],"meta":{}},"geometry":{"type":"Point","coordinates":[12.6930998,56.0482502]}},{"type":"Feature","id":"node/677189264","properties":{"type":"node","id":677189264,"tags":{"amenity":"atm","operator":"SEB","wheelchair":"yes"},"relations":[],"meta":{}},"geometry":{"type":"Point","coordinates":[11.9511958,57.6958442]}},{"type":"Feature","id":"node/678896444","properties":{"type":"node","id":678896444,"tags":{"amenity":"atm","name":"Bankomat"},"relations":[],"meta":{}},"geometry":{"type":"Point","coordinates":[15.627535,58.4101982]}},{"type":"Feature","id":"node/681268566","properties":{"type":"node","id":681268566,"tags":{"amenity":"atm","layer":"3","level":"1","source":"local_knowledge"},"relations":[],"meta":{}},"geometry":{"type":"Point","coordinates":[15.4186258,60.4839585]}},{"type":"Feature","id":"node/683393796","properties":{"type":"node","id":683393796,"tags":{"amenity":"atm"},"relations":[],"meta":{}},"geometry":{"type":"Point","coordinates":[12.0554593,58.6499709]}},{"type":"Feature","id":"node/700947218","properties":{"type":"node","id":700947218,"tags":{"amenity":"atm","operator":"Swedbank"},"relations":[],"meta":{}},"geometry":{"type":"Point","coordinates":[18.7149719,63.2887822]}},{"type":"Feature","id":"node/702973829","properties":{"type":"node","id":702973829,"tags":{"amenity":"atm","operator":"Swedbank"},"relations":[],"meta":{}},"geometry":{"type":"Point","coordinates":[18.3010717,57.6372725]}},{"type":"Feature","id":"node/702973830","properties":{"type":"node","id":702973830,"tags":{"amenity":"atm","operator":"Länsförsäkringar Gotland"},"relations":[],"meta":{}},"geometry":{"type":"Point","coordinates":[18.302381,57.6369034]}},{"type":"Feature","id":"node/702973831","properties":{"type":"node","id":702973831,"tags":{"amenity":"atm","operator":"Nordea"},"relations":[],"meta":{}},"geometry":{"type":"Point","coordinates":[18.3007979,57.6374531]}},{"type":"Feature","id":"node/703981103","properties":{"type":"node","id":703981103,"tags":{"amenity":"atm","operator":"Nordea"},"relations":[],"meta":{}},"geometry":{"type":"Point","coordinates":[18.0079225,59.2786991]}},{"type":"Feature","id":"node/703981106","properties":{"type":"node","id":703981106,"tags":{"amenity":"atm","operator":"Handelsbanken"},"relations":[],"meta":{}},"geometry":{"type":"Point","coordinates":[18.008769,59.2794755]}},{"type":"Feature","id":"node/715682735","properties":{"type":"node","id":715682735,"tags":{"amenity":"atm","operator":"Bankomat"},"relations":[],"meta":{}},"geometry":{"type":"Point","coordinates":[17.6366086,59.8575975]}},{"type":"Feature","id":"node/724307774","properties":{"type":"node","id":724307774,"tags":{"amenity":"atm","ele":"220.800000","operator":"Swedbank"},"relations":[],"meta":{}},"geometry":{"type":"Point","coordinates":[14.6653275,57.4012405]}},{"type":"Feature","id":"node/724307801","properties":{"type":"node","id":724307801,"tags":{"amenity":"atm","ele":"227.100000"},"relations":[],"meta":{}},"geometry":{"type":"Point","coordinates":[14.6675144,57.4006435]}},{"type":"Feature","id":"node/725455038","properties":{"type":"node","id":725455038,"tags":{"amenity":"atm","source":"local_knowledge"},"relations":[],"meta":{}},"geometry":{"type":"Point","coordinates":[15.1798708,60.1442486]}},{"type":"Feature","id":"node/726826676","properties":{"type":"node","id":726826676,"tags":{"amenity":"atm"},"relations":[],"meta":{}},"geometry":{"type":"Point","coordinates":[16.6570004,56.8793711]}},{"type":"Feature","id":"node/727537242","properties":{"type":"node","id":727537242,"tags":{"amenity":"atm","operator":"Bankomat AB"},"relations":[],"meta":{}},"geometry":{"type":"Point","coordinates":[11.9516534,57.6964999]}},{"type":"Feature","id":"node/731906026","properties":{"type":"node","id":731906026,"tags":{"amenity":"atm"},"relations":[],"meta":{}},"geometry":{"type":"Point","coordinates":[13.0198537,55.6069011]}},{"type":"Feature","id":"node/735442547","properties":{"type":"node","id":735442547,"tags":{"amenity":"atm","operator":"Handelsbanken"},"relations":[],"meta":{}},"geometry":{"type":"Point","coordinates":[18.0319467,59.2939614]}},{"type":"Feature","id":"node/735844799","properties":{"type":"node","id":735844799,"tags":{"amenity":"atm"},"relations":[],"meta":{}},"geometry":{"type":"Point","coordinates":[16.1820056,58.6655925]}},{"type":"Feature","id":"node/736797481","properties":{"type":"node","id":736797481,"tags":{"amenity":"atm","wheelchair":"yes"},"relations":[],"meta":{}},"geometry":{"type":"Point","coordinates":[18.0782046,59.29452]}},{"type":"Feature","id":"node/736797486","properties":{"type":"node","id":736797486,"tags":{"amenity":"atm","operator":"SEB","wheelchair":"yes"},"relations":[],"meta":{}},"geometry":{"type":"Point","coordinates":[18.0803792,59.2942091]}},{"type":"Feature","id":"node/738673236","properties":{"type":"node","id":738673236,"tags":{"amenity":"atm"},"relations":[],"meta":{}},"geometry":{"type":"Point","coordinates":[15.5650714,58.3883206]}},{"type":"Feature","id":"node/739839291","properties":{"type":"node","id":739839291,"tags":{"amenity":"atm"},"relations":[],"meta":{}},"geometry":{"type":"Point","coordinates":[17.861126,59.6281847]}},{"type":"Feature","id":"node/739839340","properties":{"type":"node","id":739839340,"tags":{"amenity":"atm","operator":"Swedbank"},"relations":[],"meta":{}},"geometry":{"type":"Point","coordinates":[17.8598168,59.6276389]}},{"type":"Feature","id":"node/747463320","properties":{"type":"node","id":747463320,"tags":{"amenity":"atm"},"relations":[],"meta":{}},"geometry":{"type":"Point","coordinates":[18.064831,59.3145865]}},{"type":"Feature","id":"node/762701855","properties":{"type":"node","id":762701855,"tags":{"amenity":"atm","contact:website":"http://www.kontanten.se","name":"Kontanten","operator":"Kontanten AB"},"relations":[],"meta":{}},"geometry":{"type":"Point","coordinates":[11.9592234,57.6970947]}},{"type":"Feature","id":"node/762701858","properties":{"type":"node","id":762701858,"tags":{"amenity":"atm","operator":"SEB"},"relations":[],"meta":{}},"geometry":{"type":"Point","coordinates":[11.9603261,57.6963793]}},{"type":"Feature","id":"node/763241806","properties":{"type":"node","id":763241806,"tags":{"amenity":"atm","name":"Bankomat","operator":"Bankomat AB"},"relations":[],"meta":{}},"geometry":{"type":"Point","coordinates":[11.954613,57.7012154]}},{"type":"Feature","id":"node/763246069","properties":{"type":"node","id":763246069,"tags":{"amenity":"atm"},"relations":[],"meta":{}},"geometry":{"type":"Point","coordinates":[12.0349242,57.7802598]}},{"type":"Feature","id":"node/765664737","properties":{"type":"node","id":765664737,"tags":{"amenity":"atm"},"relations":[],"meta":{}},"geometry":{"type":"Point","coordinates":[16.2457566,58.6016522]}},{"type":"Feature","id":"node/766290410","properties":{"type":"node","id":766290410,"tags":{"amenity":"atm"},"relations":[],"meta":{}},"geometry":{"type":"Point","coordinates":[18.296537,57.6408784]}},{"type":"Feature","id":"node/766840320","properties":{"type":"node","id":766840320,"tags":{"amenity":"atm"},"relations":[],"meta":{}},"geometry":{"type":"Point","coordinates":[13.2779544,56.2835889]}},{"type":"Feature","id":"node/772222405","properties":{"type":"node","id":772222405,"tags":{"amenity":"atm","level":"0"},"relations":[],"meta":{}},"geometry":{"type":"Point","coordinates":[17.9426567,59.4039661]}},{"type":"Feature","id":"node/773589618","properties":{"type":"node","id":773589618,"tags":{"amenity":"atm"},"relations":[],"meta":{}},"geometry":{"type":"Point","coordinates":[13.9370155,56.8335737]}},{"type":"Feature","id":"node/773589655","properties":{"type":"node","id":773589655,"tags":{"amenity":"atm"},"relations":[],"meta":{}},"geometry":{"type":"Point","coordinates":[13.9328742,56.8323822]}},{"type":"Feature","id":"node/773589658","properties":{"type":"node","id":773589658,"tags":{"amenity":"atm","operator":"SEB"},"relations":[],"meta":{}},"geometry":{"type":"Point","coordinates":[13.9394617,56.8332509]}},{"type":"Feature","id":"node/773589674","properties":{"type":"node","id":773589674,"tags":{"amenity":"atm","operator":"Handelsbanken"},"relations":[],"meta":{}},"geometry":{"type":"Point","coordinates":[13.9413124,56.8335414]}},{"type":"Feature","id":"node/773589680","properties":{"type":"node","id":773589680,"tags":{"amenity":"atm"},"relations":[],"meta":{}},"geometry":{"type":"Point","coordinates":[13.9394671,56.8332098]}},{"type":"Feature","id":"node/773589684","properties":{"type":"node","id":773589684,"tags":{"amenity":"atm"},"relations":[],"meta":{}},"geometry":{"type":"Point","coordinates":[13.9371121,56.8336383]}},{"type":"Feature","id":"node/773898796","properties":{"type":"node","id":773898796,"tags":{"amenity":"atm"},"relations":[],"meta":{}},"geometry":{"type":"Point","coordinates":[17.9494671,59.4293699]}},{"type":"Feature","id":"node/775349529","properties":{"type":"node","id":775349529,"tags":{"amenity":"atm"},"relations":[],"meta":{}},"geometry":{"type":"Point","coordinates":[17.6024565,59.8410579]}},{"type":"Feature","id":"node/776027629","properties":{"type":"node","id":776027629,"tags":{"amenity":"atm"},"relations":[],"meta":{}},"geometry":{"type":"Point","coordinates":[13.8211246,55.4287289]}},{"type":"Feature","id":"node/776659917","properties":{"type":"node","id":776659917,"tags":{"amenity":"atm","operator":"Swedbank"},"relations":[],"meta":{}},"geometry":{"type":"Point","coordinates":[18.037841,59.3418366]}},{"type":"Feature","id":"node/778527797","properties":{"type":"node","id":778527797,"tags":{"amenity":"atm","operator":"Sparbanken Gripen"},"relations":[],"meta":{}},"geometry":{"type":"Point","coordinates":[12.9696187,56.2591592]}},{"type":"Feature","id":"node/791109884","properties":{"type":"node","id":791109884,"tags":{"amenity":"atm"},"relations":[],"meta":{}},"geometry":{"type":"Point","coordinates":[11.9538835,57.7208171]}},{"type":"Feature","id":"node/792710549","properties":{"type":"node","id":792710549,"tags":{"amenity":"atm"},"relations":[],"meta":{}},"geometry":{"type":"Point","coordinates":[14.0960384,56.0018647]}},{"type":"Feature","id":"node/795684642","properties":{"type":"node","id":795684642,"tags":{"amenity":"atm","operator":"Swedbank","source":"Survey"},"relations":[],"meta":{}},"geometry":{"type":"Point","coordinates":[18.10807,59.24154]}},{"type":"Feature","id":"node/795849991","properties":{"type":"node","id":795849991,"tags":{"amenity":"atm","operator":"Spar1826"},"relations":[],"meta":{}},"geometry":{"type":"Point","coordinates":[14.1469695,56.0221428]}},{"type":"Feature","id":"node/801343555","properties":{"type":"node","id":801343555,"tags":{"amenity":"atm"},"relations":[],"meta":{}},"geometry":{"type":"Point","coordinates":[17.6429272,59.857688]}},{"type":"Feature","id":"node/801639437","properties":{"type":"node","id":801639437,"tags":{"amenity":"atm"},"relations":[],"meta":{}},"geometry":{"type":"Point","coordinates":[13.0584152,57.9872527]}},{"type":"Feature","id":"node/821819021","properties":{"type":"node","id":821819021,"tags":{"amenity":"atm","operator":"Swedbank"},"relations":[],"meta":{}},"geometry":{"type":"Point","coordinates":[12.0505811,57.7968866]}},{"type":"Feature","id":"node/821819022","properties":{"type":"node","id":821819022,"tags":{"amenity":"atm"},"relations":[],"meta":{}},"geometry":{"type":"Point","coordinates":[12.0503655,57.7963792]}},{"type":"Feature","id":"node/821819024","properties":{"type":"node","id":821819024,"tags":{"amenity":"atm"},"relations":[],"meta":{}},"geometry":{"type":"Point","coordinates":[12.0497258,57.7973141]}},{"type":"Feature","id":"node/822124628","properties":{"type":"node","id":822124628,"tags":{"amenity":"atm","operator":"Nordea"},"relations":[],"meta":{}},"geometry":{"type":"Point","coordinates":[11.1715861,58.9378595]}},{"type":"Feature","id":"node/822124635","properties":{"type":"node","id":822124635,"tags":{"amenity":"atm","operator":"SEB"},"relations":[],"meta":{}},"geometry":{"type":"Point","coordinates":[11.1711194,58.938665]}},{"type":"Feature","id":"node/822126736","properties":{"type":"node","id":822126736,"tags":{"amenity":"atm","operator":"Swedbank"},"relations":[],"meta":{}},"geometry":{"type":"Point","coordinates":[11.174043,58.9376768]}},{"type":"Feature","id":"node/822127616","properties":{"type":"node","id":822127616,"tags":{"amenity":"atm","operator":"Handelsbanken"},"relations":[],"meta":{}},"geometry":{"type":"Point","coordinates":[11.1702289,58.9397361]}},{"type":"Feature","id":"node/833380432","properties":{"type":"node","id":833380432,"tags":{"amenity":"atm","name":"Swedbank","operator":"Swedbank"},"relations":[],"meta":{}},"geometry":{"type":"Point","coordinates":[16.4659012,58.6653584]}},{"type":"Feature","id":"node/835262545","properties":{"type":"node","id":835262545,"tags":{"amenity":"atm","operator":"Östgöta Enskilda Bank"},"relations":[],"meta":{}},"geometry":{"type":"Point","coordinates":[16.1854068,58.594252]}},{"type":"Feature","id":"node/841102225","properties":{"type":"node","id":841102225,"tags":{"amenity":"atm","operator":"Nordea"},"relations":[],"meta":{}},"geometry":{"type":"Point","coordinates":[15.6816499,58.3802845]}},{"type":"Feature","id":"node/841102233","properties":{"type":"node","id":841102233,"tags":{"amenity":"atm","operator":"Swedbank"},"relations":[],"meta":{}},"geometry":{"type":"Point","coordinates":[15.6817384,58.380345]}},{"type":"Feature","id":"node/841972711","properties":{"type":"node","id":841972711,"tags":{"amenity":"atm"},"relations":[],"meta":{}},"geometry":{"type":"Point","coordinates":[18.3739471,60.2586604]}},{"type":"Feature","id":"node/842452671","properties":{"type":"node","id":842452671,"tags":{"amenity":"atm","wheelchair":"yes"},"relations":[],"meta":{}},"geometry":{"type":"Point","coordinates":[18.0578383,59.3128314]}},{"type":"Feature","id":"node/847099462","properties":{"type":"node","id":847099462,"tags":{"amenity":"atm","operator":"Swedebank"},"relations":[],"meta":{}},"geometry":{"type":"Point","coordinates":[18.7038364,63.3141599]}},{"type":"Feature","id":"node/849719278","properties":{"type":"node","id":849719278,"tags":{"amenity":"atm"},"relations":[],"meta":{}},"geometry":{"type":"Point","coordinates":[12.7029745,56.0395083]}},{"type":"Feature","id":"node/849852874","properties":{"type":"node","id":849852874,"tags":{"amenity":"atm"},"relations":[],"meta":{}},"geometry":{"type":"Point","coordinates":[18.3315401,59.4023141]}},{"type":"Feature","id":"node/855155550","properties":{"type":"node","id":855155550,"tags":{"amenity":"atm"},"relations":[],"meta":{}},"geometry":{"type":"Point","coordinates":[14.1631539,57.7823907]}},{"type":"Feature","id":"node/856433716","properties":{"type":"node","id":856433716,"tags":{"amenity":"atm","operator":"SEB"},"relations":[],"meta":{}},"geometry":{"type":"Point","coordinates":[11.9757762,57.7001626]}},{"type":"Feature","id":"node/856433718","properties":{"type":"node","id":856433718,"tags":{"amenity":"atm","operator":"Nordea"},"relations":[],"meta":{}},"geometry":{"type":"Point","coordinates":[11.9734961,57.7010573]}},{"type":"Feature","id":"node/859202248","properties":{"type":"node","id":859202248,"tags":{"amenity":"atm"},"relations":[],"meta":{}},"geometry":{"type":"Point","coordinates":[14.5115577,58.530211]}},{"type":"Feature","id":"node/861247530","properties":{"type":"node","id":861247530,"tags":{"amenity":"atm","comment":"Inside ICA","comment:sv":"Inne på ICA"},"relations":[],"meta":{}},"geometry":{"type":"Point","coordinates":[18.4409389,60.3391366]}},{"type":"Feature","id":"node/861247535","properties":{"type":"node","id":861247535,"tags":{"amenity":"atm"},"relations":[],"meta":{}},"geometry":{"type":"Point","coordinates":[18.4401649,60.3368829]}},{"type":"Feature","id":"node/861341888","properties":{"type":"node","id":861341888,"tags":{"amenity":"atm","name":"Danske Bank Karlstad","operator":"Danske Bank","wheelchair":"yes"},"relations":[],"meta":{}},"geometry":{"type":"Point","coordinates":[13.504365,59.3787795]}},{"type":"Feature","id":"node/861341896","properties":{"type":"node","id":861341896,"tags":{"amenity":"atm","name":"Handelsbanken","operator":"Handelsbanken"},"relations":[],"meta":{}},"geometry":{"type":"Point","coordinates":[13.5016244,59.3803381]}},{"type":"Feature","id":"node/861341902","properties":{"type":"node","id":861341902,"tags":{"amenity":"atm","name":"Swedbank","operator":"Swedbank"},"relations":[],"meta":{}},"geometry":{"type":"Point","coordinates":[13.5051547,59.3812344]}},{"type":"Feature","id":"node/861341906","properties":{"type":"node","id":861341906,"tags":{"amenity":"atm","name":"Swedbank","operator":"Swedbank"},"relations":[],"meta":{}},"geometry":{"type":"Point","coordinates":[13.5164442,59.39308]}},{"type":"Feature","id":"node/861713555","properties":{"type":"node","id":861713555,"tags":{"amenity":"atm"},"relations":[],"meta":{}},"geometry":{"type":"Point","coordinates":[12.7208282,56.0444422]}},{"type":"Feature","id":"node/868861451","properties":{"type":"node","id":868861451,"tags":{"amenity":"atm","operator":"Handelsbanken"},"relations":[],"meta":{}},"geometry":{"type":"Point","coordinates":[18.08173,59.256978]}},{"type":"Feature","id":"node/869271056","properties":{"type":"node","id":869271056,"tags":{"amenity":"atm","operator":"Handelsbanken","source":"knowledge"},"relations":[],"meta":{}},"geometry":{"type":"Point","coordinates":[14.2266659,60.5101052]}},{"type":"Feature","id":"node/871256779","properties":{"type":"node","id":871256779,"tags":{"amenity":"atm","operator":"Swedbank"},"relations":[],"meta":{}},"geometry":{"type":"Point","coordinates":[13.4678653,59.3247115]}},{"type":"Feature","id":"node/871256786","properties":{"type":"node","id":871256786,"tags":{"amenity":"atm","name":"Swedbank","operator":"Swedbank"},"relations":[],"meta":{}},"geometry":{"type":"Point","coordinates":[13.3176446,59.5039789]}},{"type":"Feature","id":"node/884024106","properties":{"type":"node","id":884024106,"tags":{"amenity":"atm"},"relations":[],"meta":{}},"geometry":{"type":"Point","coordinates":[20.2260556,67.8548693]}},{"type":"Feature","id":"node/895197178","properties":{"type":"node","id":895197178,"tags":{"amenity":"atm"},"relations":[],"meta":{}},"geometry":{"type":"Point","coordinates":[11.8188336,57.6949316]}},{"type":"Feature","id":"node/897668958","properties":{"type":"node","id":897668958,"tags":{"amenity":"atm","wheelchair":"yes"},"relations":[],"meta":{}},"geometry":{"type":"Point","coordinates":[13.4256561,59.3784845]}},{"type":"Feature","id":"node/897668965","properties":{"type":"node","id":897668965,"tags":{"amenity":"atm","wheelchair":"yes"},"relations":[],"meta":{}},"geometry":{"type":"Point","coordinates":[13.425883,59.3774911]}},{"type":"Feature","id":"node/897668977","properties":{"type":"node","id":897668977,"tags":{"amenity":"atm","wheelchair":"yes"},"relations":[],"meta":{}},"geometry":{"type":"Point","coordinates":[13.4273408,59.3762229]}},{"type":"Feature","id":"node/897860309","properties":{"type":"node","id":897860309,"tags":{"amenity":"atm","operator":"Sparbanken Öresund"},"relations":[],"meta":{}},"geometry":{"type":"Point","coordinates":[13.1091729,55.790556]}},{"type":"Feature","id":"node/897860379","properties":{"type":"node","id":897860379,"tags":{"amenity":"atm","operator":"Färs och Frosta Sparbank"},"relations":[],"meta":{}},"geometry":{"type":"Point","coordinates":[13.1102,55.7914599]}},{"type":"Feature","id":"node/898251884","properties":{"type":"node","id":898251884,"tags":{"amenity":"atm","name":"Nordea","operator":"Nordea","wheelchair":"yes"},"relations":[],"meta":{}},"geometry":{"type":"Point","coordinates":[13.5032281,59.3803563]}},{"type":"Feature","id":"node/905132735","properties":{"type":"node","id":905132735,"tags":{"amenity":"atm"},"relations":[],"meta":{}},"geometry":{"type":"Point","coordinates":[17.84353,59.3676312]}},{"type":"Feature","id":"node/907846502","properties":{"type":"node","id":907846502,"tags":{"amenity":"atm","name":"Kontanten Uttag"},"relations":[],"meta":{}},"geometry":{"type":"Point","coordinates":[15.6204781,58.411948]}},{"type":"Feature","id":"node/907846503","properties":{"type":"node","id":907846503,"tags":{"amenity":"atm","name":"Kontanten Uttag"},"relations":[],"meta":{}},"geometry":{"type":"Point","coordinates":[15.62545,58.4090441]}},{"type":"Feature","id":"node/916675110","properties":{"type":"node","id":916675110,"tags":{"amenity":"atm","operator":"Swedbank"},"relations":[],"meta":{}},"geometry":{"type":"Point","coordinates":[18.0931571,59.2850476]}},{"type":"Feature","id":"node/934861155","properties":{"type":"node","id":934861155,"tags":{"amenity":"atm","name":"SEB","operator":"SEB","source":"survey"},"relations":[],"meta":{}},"geometry":{"type":"Point","coordinates":[18.0579983,59.3846903]}},{"type":"Feature","id":"node/937503622","properties":{"type":"node","id":937503622,"tags":{"amenity":"atm"},"relations":[],"meta":{}},"geometry":{"type":"Point","coordinates":[18.0161062,59.3713907]}},{"type":"Feature","id":"node/937503641","properties":{"type":"node","id":937503641,"tags":{"amenity":"atm","operator":"Swedbank"},"relations":[],"meta":{}},"geometry":{"type":"Point","coordinates":[18.0178468,59.3692067]}},{"type":"Feature","id":"node/939988783","properties":{"type":"node","id":939988783,"tags":{"amenity":"atm"},"relations":[],"meta":{}},"geometry":{"type":"Point","coordinates":[12.5353282,57.9302515]}},{"type":"Feature","id":"node/939988790","properties":{"type":"node","id":939988790,"tags":{"amenity":"atm","operator":"Swedbank"},"relations":[],"meta":{}},"geometry":{"type":"Point","coordinates":[12.5330229,57.9286586]}},{"type":"Feature","id":"node/939988805","properties":{"type":"node","id":939988805,"tags":{"amenity":"atm","operator":"Nordea","wheelchair":"yes"},"relations":[],"meta":{}},"geometry":{"type":"Point","coordinates":[12.5458243,57.9242246]}},{"type":"Feature","id":"node/939988812","properties":{"type":"node","id":939988812,"tags":{"amenity":"atm","operator":"SEB"},"relations":[],"meta":{}},"geometry":{"type":"Point","coordinates":[12.5375791,57.9300472]}},{"type":"Feature","id":"node/939988836","properties":{"type":"node","id":939988836,"tags":{"amenity":"atm","operator":"Nordea"},"relations":[],"meta":{}},"geometry":{"type":"Point","coordinates":[12.5330732,57.9288378]}},{"type":"Feature","id":"node/945340109","properties":{"type":"node","id":945340109,"tags":{"addr:housenumber":"4","addr:postcode":"455 61","addr:street":"Järnvägsgatan","amenity":"atm","name":"ICA Nära Dingle","operator":"ICA","shop":"supermarket","wheelchair":"yes"},"relations":[],"meta":{}},"geometry":{"type":"Point","coordinates":[11.5769342,58.5268691]}},{"type":"Feature","id":"node/957304665","properties":{"type":"node","id":957304665,"tags":{"amenity":"atm","name":"Handelsbanken"},"relations":[],"meta":{}},"geometry":{"type":"Point","coordinates":[12.8089831,58.0361985]}},{"type":"Feature","id":"node/967790254","properties":{"type":"node","id":967790254,"tags":{"amenity":"atm"},"relations":[],"meta":{}},"geometry":{"type":"Point","coordinates":[16.171913,60.14548]}},{"type":"Feature","id":"node/970062875","properties":{"type":"node","id":970062875,"tags":{"amenity":"atm"},"relations":[],"meta":{}},"geometry":{"type":"Point","coordinates":[16.165702,60.146919]}},{"type":"Feature","id":"node/971756684","properties":{"type":"node","id":971756684,"tags":{"amenity":"atm","operator":"SEB"},"relations":[],"meta":{}},"geometry":{"type":"Point","coordinates":[15.9080083,56.7442262]}},{"type":"Feature","id":"node/971756757","properties":{"type":"node","id":971756757,"tags":{"amenity":"atm","operator":"Swedbank"},"relations":[],"meta":{}},"geometry":{"type":"Point","coordinates":[15.9089132,56.7439875]}},{"type":"Feature","id":"node/988619847","properties":{"type":"node","id":988619847,"tags":{"amenity":"atm"},"relations":[],"meta":{}},"geometry":{"type":"Point","coordinates":[17.6390896,59.8582635]}},{"type":"Feature","id":"node/1015929956","properties":{"type":"node","id":1015929956,"tags":{"amenity":"atm"},"relations":[],"meta":{}},"geometry":{"type":"Point","coordinates":[11.9468031,57.7302371]}},{"type":"Feature","id":"node/1024815478","properties":{"type":"node","id":1024815478,"tags":{"amenity":"atm"},"relations":[],"meta":{}},"geometry":{"type":"Point","coordinates":[18.7125486,63.299544]}},{"type":"Feature","id":"node/1024815479","properties":{"type":"node","id":1024815479,"tags":{"amenity":"atm"},"relations":[],"meta":{}},"geometry":{"type":"Point","coordinates":[18.7154025,63.2910872]}},{"type":"Feature","id":"node/1028596276","properties":{"type":"node","id":1028596276,"tags":{"amenity":"atm"},"relations":[],"meta":{}},"geometry":{"type":"Point","coordinates":[16.2089021,58.5726004]}},{"type":"Feature","id":"node/1029425382","properties":{"type":"node","id":1029425382,"tags":{"amenity":"atm"},"relations":[],"meta":{}},"geometry":{"type":"Point","coordinates":[17.3290427,62.4472389]}},{"type":"Feature","id":"node/1042796262","properties":{"type":"node","id":1042796262,"tags":{"amenity":"atm"},"relations":[],"meta":{}},"geometry":{"type":"Point","coordinates":[11.9432008,57.6984376]}},{"type":"Feature","id":"node/1052384797","properties":{"type":"node","id":1052384797,"tags":{"amenity":"atm"},"relations":[],"meta":{}},"geometry":{"type":"Point","coordinates":[11.8610448,57.7278669]}},{"type":"Feature","id":"node/1052384804","properties":{"type":"node","id":1052384804,"tags":{"amenity":"atm"},"relations":[],"meta":{}},"geometry":{"type":"Point","coordinates":[11.9720306,57.6841251]}},{"type":"Feature","id":"node/1062292773","properties":{"type":"node","id":1062292773,"tags":{"amenity":"atm"},"relations":[],"meta":{}},"geometry":{"type":"Point","coordinates":[20.3034314,63.7978249]}},{"type":"Feature","id":"node/1072629620","properties":{"type":"node","id":1072629620,"tags":{"amenity":"atm"},"relations":[],"meta":{}},"geometry":{"type":"Point","coordinates":[12.8574822,56.6745138]}},{"type":"Feature","id":"node/1079498182","properties":{"type":"node","id":1079498182,"tags":{"amenity":"atm","operator":"Handelsbanken"},"relations":[],"meta":{}},"geometry":{"type":"Point","coordinates":[19.0549321,57.8631887]}},{"type":"Feature","id":"node/1082743130","properties":{"type":"node","id":1082743130,"tags":{"amenity":"atm"},"relations":[],"meta":{}},"geometry":{"type":"Point","coordinates":[18.1332235,59.2774668]}},{"type":"Feature","id":"node/1090492350","properties":{"type":"node","id":1090492350,"tags":{"amenity":"atm","name":"Kontanten"},"relations":[],"meta":{}},"geometry":{"type":"Point","coordinates":[18.0772671,59.3347141]}},{"type":"Feature","id":"node/1097051828","properties":{"type":"node","id":1097051828,"tags":{"amenity":"atm","operator":"SEB"},"relations":[],"meta":{}},"geometry":{"type":"Point","coordinates":[18.6910871,63.2671508]}},{"type":"Feature","id":"node/1097051847","properties":{"type":"node","id":1097051847,"tags":{"amenity":"atm","operator":"Swedbank"},"relations":[],"meta":{}},"geometry":{"type":"Point","coordinates":[18.6916916,63.2728248]}},{"type":"Feature","id":"node/1126805847","properties":{"type":"node","id":1126805847,"tags":{"amenity":"atm"},"relations":[],"meta":{}},"geometry":{"type":"Point","coordinates":[13.1599272,55.7136112]}},{"type":"Feature","id":"node/1126903215","properties":{"type":"node","id":1126903215,"tags":{"amenity":"atm","name":"Swedbank"},"relations":[],"meta":{}},"geometry":{"type":"Point","coordinates":[18.0604,59.3184716]}},{"type":"Feature","id":"node/1127865523","properties":{"type":"node","id":1127865523,"tags":{"amenity":"atm"},"relations":[],"meta":{}},"geometry":{"type":"Point","coordinates":[13.9418006,56.8345011]}},{"type":"Feature","id":"node/1140772135","properties":{"type":"node","id":1140772135,"tags":{"amenity":"atm"},"relations":[],"meta":{}},"geometry":{"type":"Point","coordinates":[18.1874001,63.0093957]}},{"type":"Feature","id":"node/1158849134","properties":{"type":"node","id":1158849134,"tags":{"amenity":"atm","operator":"Swedbank"},"relations":[],"meta":{}},"geometry":{"type":"Point","coordinates":[15.657641,62.5246727]}},{"type":"Feature","id":"node/1161921154","properties":{"type":"node","id":1161921154,"tags":{"amenity":"atm","operator":"Nordea"},"relations":[],"meta":{}},"geometry":{"type":"Point","coordinates":[18.021813,59.3103674]}},{"type":"Feature","id":"node/1162550310","properties":{"type":"node","id":1162550310,"tags":{"amenity":"atm"},"relations":[],"meta":{}},"geometry":{"type":"Point","coordinates":[17.942937,59.2187683]}},{"type":"Feature","id":"node/1162999656","properties":{"type":"node","id":1162999656,"tags":{"amenity":"atm","name":"Bankomat","operator":"Nordea"},"relations":[],"meta":{}},"geometry":{"type":"Point","coordinates":[15.6238158,58.4098372]}},{"type":"Feature","id":"node/1166589108","properties":{"type":"node","id":1166589108,"tags":{"amenity":"atm"},"relations":[],"meta":{}},"geometry":{"type":"Point","coordinates":[18.3739385,60.258534]}},{"type":"Feature","id":"node/1168324704","properties":{"type":"node","id":1168324704,"tags":{"amenity":"atm","fixme":"did I mistakenly tag atm instead of post box here? I do not see it on recent photo outside","source":"survey"},"relations":[],"meta":{}},"geometry":{"type":"Point","coordinates":[18.070283,59.4456584]}},{"type":"Feature","id":"node/1170431731","properties":{"type":"node","id":1170431731,"tags":{"amenity":"atm"},"relations":[],"meta":{}},"geometry":{"type":"Point","coordinates":[11.9360545,57.7214768]}},{"type":"Feature","id":"node/1170431733","properties":{"type":"node","id":1170431733,"tags":{"amenity":"atm","operator":"Nordea"},"relations":[],"meta":{}},"geometry":{"type":"Point","coordinates":[11.9336058,57.7209436]}},{"type":"Feature","id":"node/1182516745","properties":{"type":"node","id":1182516745,"tags":{"amenity":"atm"},"relations":[],"meta":{}},"geometry":{"type":"Point","coordinates":[17.9279114,59.4363637]}},{"type":"Feature","id":"node/1184804023","properties":{"type":"node","id":1184804023,"tags":{"amenity":"atm"},"relations":[],"meta":{}},"geometry":{"type":"Point","coordinates":[17.8564131,59.6168576]}},{"type":"Feature","id":"node/1193166668","properties":{"type":"node","id":1193166668,"tags":{"amenity":"atm"},"relations":[],"meta":{}},"geometry":{"type":"Point","coordinates":[18.092656,59.2425493]}},{"type":"Feature","id":"node/1194526738","properties":{"type":"node","id":1194526738,"tags":{"amenity":"atm","operator":"Nordea","wheelchair":"yes"},"relations":[],"meta":{}},"geometry":{"type":"Point","coordinates":[13.5796443,59.4057687]}},{"type":"Feature","id":"node/1200263327","properties":{"type":"node","id":1200263327,"tags":{"amenity":"atm"},"relations":[],"meta":{}},"geometry":{"type":"Point","coordinates":[17.9123447,59.4768597]}},{"type":"Feature","id":"node/1202971230","properties":{"type":"node","id":1202971230,"tags":{"amenity":"atm","description":"östgöta Enskilda","source":"survey"},"relations":[],"meta":{}},"geometry":{"type":"Point","coordinates":[17.9951898,59.3643023]}},{"type":"Feature","id":"node/1205434703","properties":{"type":"node","id":1205434703,"tags":{"amenity":"atm"},"relations":[],"meta":{}},"geometry":{"type":"Point","coordinates":[13.3479346,55.6643222]}},{"type":"Feature","id":"node/1205434704","properties":{"type":"node","id":1205434704,"tags":{"amenity":"atm"},"relations":[],"meta":{}},"geometry":{"type":"Point","coordinates":[13.3479318,55.6641834]}},{"type":"Feature","id":"node/1210332900","properties":{"type":"node","id":1210332900,"tags":{"amenity":"atm","fee":"no","operator":"Unknown"},"relations":[],"meta":{}},"geometry":{"type":"Point","coordinates":[12.5795595,56.1460341]}},{"type":"Feature","id":"node/1213866623","properties":{"type":"node","id":1213866623,"tags":{"amenity":"atm","operator":"seb"},"relations":[],"meta":{}},"geometry":{"type":"Point","coordinates":[18.0893273,59.2429246]}},{"type":"Feature","id":"node/1223427276","properties":{"type":"node","id":1223427276,"tags":{"amenity":"atm","operator":"Swedbank"},"relations":[],"meta":{}},"geometry":{"type":"Point","coordinates":[17.3246696,62.4869756]}},{"type":"Feature","id":"node/1225113228","properties":{"type":"node","id":1225113228,"tags":{"amenity":"atm","operator":"Sprabanken Öresund"},"relations":[],"meta":{}},"geometry":{"type":"Point","coordinates":[13.196944,55.7020959]}},{"type":"Feature","id":"node/1225220912","properties":{"type":"node","id":1225220912,"tags":{"amenity":"atm","operator":"Sparbanken"},"relations":[],"meta":{}},"geometry":{"type":"Point","coordinates":[13.1873293,55.7053053]}},{"type":"Feature","id":"node/1225220993","properties":{"type":"node","id":1225220993,"tags":{"amenity":"atm","wheelchair":"yes"},"relations":[],"meta":{}},"geometry":{"type":"Point","coordinates":[13.1882555,55.7054237]}},{"type":"Feature","id":"node/1225238521","properties":{"type":"node","id":1225238521,"tags":{"amenity":"atm"},"relations":[],"meta":{}},"geometry":{"type":"Point","coordinates":[13.207271,55.709086]}},{"type":"Feature","id":"node/1227769761","properties":{"type":"node","id":1227769761,"tags":{"amenity":"atm","operator":"Handelsbanken"},"relations":[],"meta":{}},"geometry":{"type":"Point","coordinates":[17.370988,62.5092817]}},{"type":"Feature","id":"node/1230326153","properties":{"type":"node","id":1230326153,"tags":{"amenity":"atm"},"relations":[],"meta":{}},"geometry":{"type":"Point","coordinates":[14.5904393,61.0082663]}},{"type":"Feature","id":"node/1233020642","properties":{"type":"node","id":1233020642,"tags":{"amenity":"atm"},"relations":[],"meta":{}},"geometry":{"type":"Point","coordinates":[17.3060303,62.3903407]}},{"type":"Feature","id":"node/1240952279","properties":{"type":"node","id":1240952279,"tags":{"amenity":"atm","operator":"ICA Banken"},"relations":[],"meta":{}},"geometry":{"type":"Point","coordinates":[13.1882815,55.7066993]}},{"type":"Feature","id":"node/1241001001","properties":{"type":"node","id":1241001001,"tags":{"amenity":"atm","operator":"Swedbank"},"relations":[],"meta":{}},"geometry":{"type":"Point","coordinates":[12.1535485,58.0329309]}},{"type":"Feature","id":"node/1251653371","properties":{"type":"node","id":1251653371,"tags":{"amenity":"atm"},"relations":[],"meta":{}},"geometry":{"type":"Point","coordinates":[17.9660349,59.4454879]}},{"type":"Feature","id":"node/1254098680","properties":{"type":"node","id":1254098680,"tags":{"amenity":"atm","operator":"SEB"},"relations":[],"meta":{}},"geometry":{"type":"Point","coordinates":[11.2276853,58.3534231]}},{"type":"Feature","id":"node/1260661029","properties":{"type":"node","id":1260661029,"tags":{"amenity":"atm"},"relations":[],"meta":{}},"geometry":{"type":"Point","coordinates":[17.6107992,59.1865841]}},{"type":"Feature","id":"node/1262017062","properties":{"type":"node","id":1262017062,"tags":{"amenity":"atm"},"relations":[],"meta":{}},"geometry":{"type":"Point","coordinates":[16.44705,57.0440217]}},{"type":"Feature","id":"node/1275935047","properties":{"type":"node","id":1275935047,"tags":{"amenity":"atm"},"relations":[],"meta":{}},"geometry":{"type":"Point","coordinates":[12.0050191,57.7163987]}},{"type":"Feature","id":"node/1278037743","properties":{"type":"node","id":1278037743,"tags":{"amenity":"atm","operator":"Swedbank"},"relations":[],"meta":{}},"geometry":{"type":"Point","coordinates":[17.9490092,58.9030739]}},{"type":"Feature","id":"node/1286550587","properties":{"type":"node","id":1286550587,"tags":{"amenity":"atm"},"relations":[],"meta":{}},"geometry":{"type":"Point","coordinates":[12.6902378,56.0457723]}},{"type":"Feature","id":"node/1304207280","properties":{"type":"node","id":1304207280,"tags":{"amenity":"atm","operator":"Swedbank"},"relations":[],"meta":{}},"geometry":{"type":"Point","coordinates":[12.3617738,57.8083706]}},{"type":"Feature","id":"node/1306158757","properties":{"type":"node","id":1306158757,"tags":{"amenity":"atm"},"relations":[],"meta":{}},"geometry":{"type":"Point","coordinates":[13.0083528,55.590291]}},{"type":"Feature","id":"node/1306549300","properties":{"type":"node","id":1306549300,"tags":{"amenity":"atm"},"relations":[],"meta":{}},"geometry":{"type":"Point","coordinates":[15.2264061,59.5941962]}},{"type":"Feature","id":"node/1309274649","properties":{"type":"node","id":1309274649,"tags":{"amenity":"atm","operator":"SEB"},"relations":[],"meta":{}},"geometry":{"type":"Point","coordinates":[13.007583,55.5997344]}},{"type":"Feature","id":"node/1312019315","properties":{"type":"node","id":1312019315,"tags":{"amenity":"atm"},"relations":[],"meta":{}},"geometry":{"type":"Point","coordinates":[11.9160121,57.66032]}},{"type":"Feature","id":"node/1312779590","properties":{"type":"node","id":1312779590,"tags":{"amenity":"atm","fixme":"we found there nothing!","operator":"Danske Bank"},"relations":[],"meta":{}},"geometry":{"type":"Point","coordinates":[12.7485317,56.0896879]}},{"type":"Feature","id":"node/1313237938","properties":{"type":"node","id":1313237938,"tags":{"amenity":"atm","fee":"no","operator":"Danske Bank (Östgötabanken)"},"relations":[],"meta":{}},"geometry":{"type":"Point","coordinates":[16.1898628,58.5871125]}},{"type":"Feature","id":"node/1314862566","properties":{"type":"node","id":1314862566,"tags":{"amenity":"atm","operator":"Bankomat"},"relations":[],"meta":{}},"geometry":{"type":"Point","coordinates":[12.7377625,56.007465]}},{"type":"Feature","id":"node/1327385727","properties":{"type":"node","id":1327385727,"tags":{"amenity":"atm","operator":"SEB","source":"survey"},"relations":[],"meta":{}},"geometry":{"type":"Point","coordinates":[18.0958502,59.4307153]}},{"type":"Feature","id":"node/1334429702","properties":{"type":"node","id":1334429702,"tags":{"amenity":"atm","operator":"Handelsbanken"},"relations":[],"meta":{}},"geometry":{"type":"Point","coordinates":[17.9805561,59.2355551]}},{"type":"Feature","id":"node/1334429728","properties":{"type":"node","id":1334429728,"tags":{"amenity":"atm","operator":"Kontanten"},"relations":[],"meta":{}},"geometry":{"type":"Point","coordinates":[17.9806973,59.2362414]}},{"type":"Feature","id":"node/1343652781","properties":{"type":"node","id":1343652781,"tags":{"amenity":"atm","fee":"no"},"relations":[],"meta":{}},"geometry":{"type":"Point","coordinates":[14.6493335,63.1772957]}},{"type":"Feature","id":"node/1348515191","properties":{"type":"node","id":1348515191,"tags":{"amenity":"atm"},"relations":[],"meta":{}},"geometry":{"type":"Point","coordinates":[18.0753462,59.3108155]}},{"type":"Feature","id":"node/1348515216","properties":{"type":"node","id":1348515216,"tags":{"amenity":"atm","operator":"SEB"},"relations":[],"meta":{}},"geometry":{"type":"Point","coordinates":[18.0749485,59.310349]}},{"type":"Feature","id":"node/1348515285","properties":{"type":"node","id":1348515285,"tags":{"amenity":"atm","operator":"Nordea"},"relations":[],"meta":{}},"geometry":{"type":"Point","coordinates":[18.0759909,59.3082707]}},{"type":"Feature","id":"node/1349579120","properties":{"type":"node","id":1349579120,"tags":{"amenity":"atm","operator":"SEB"},"relations":[],"meta":{}},"geometry":{"type":"Point","coordinates":[11.9700475,57.7041527]}},{"type":"Feature","id":"node/1349579123","properties":{"type":"node","id":1349579123,"tags":{"amenity":"atm","operator":"Swedbank"},"relations":[],"meta":{}},"geometry":{"type":"Point","coordinates":[11.9698985,57.7042459]}},{"type":"Feature","id":"node/1360325656","properties":{"type":"node","id":1360325656,"tags":{"amenity":"atm"},"relations":[],"meta":{}},"geometry":{"type":"Point","coordinates":[17.4303075,59.1782008]}},{"type":"Feature","id":"node/1361474774","properties":{"type":"node","id":1361474774,"tags":{"amenity":"atm","operator":"Handelsbanken"},"relations":[],"meta":{}},"geometry":{"type":"Point","coordinates":[12.0748926,57.4915041]}},{"type":"Feature","id":"node/1361474791","properties":{"type":"node","id":1361474791,"tags":{"amenity":"atm","operator":"Swedbank"},"relations":[],"meta":{}},"geometry":{"type":"Point","coordinates":[12.0740973,57.4921267]}},{"type":"Feature","id":"node/1361475065","properties":{"type":"node","id":1361475065,"tags":{"amenity":"atm","operator":"Swedbank"},"relations":[],"meta":{}},"geometry":{"type":"Point","coordinates":[12.0740187,57.4932877]}},{"type":"Feature","id":"node/1365813031","properties":{"type":"node","id":1365813031,"tags":{"amenity":"atm","fee":"no","operator":"Länsförsäkringar bank","wheelchair":"yes"},"relations":[],"meta":{}},"geometry":{"type":"Point","coordinates":[14.6372534,63.1750499]}},{"type":"Feature","id":"node/1371532794","properties":{"type":"node","id":1371532794,"tags":{"amenity":"atm"},"relations":[],"meta":{}},"geometry":{"type":"Point","coordinates":[16.3641716,58.6748307]}},{"type":"Feature","id":"node/1376616303","properties":{"type":"node","id":1376616303,"tags":{"amenity":"atm"},"relations":[],"meta":{}},"geometry":{"type":"Point","coordinates":[18.7162891,63.2893806]}},{"type":"Feature","id":"node/1377928615","properties":{"type":"node","id":1377928615,"tags":{"amenity":"atm"},"relations":[],"meta":{}},"geometry":{"type":"Point","coordinates":[17.7054095,59.9595153]}},{"type":"Feature","id":"node/1379853792","properties":{"type":"node","id":1379853792,"tags":{"amenity":"atm"},"relations":[],"meta":{}},"geometry":{"type":"Point","coordinates":[13.4918775,55.6339407]}},{"type":"Feature","id":"node/1383564120","properties":{"type":"node","id":1383564120,"tags":{"amenity":"atm","wheelchair":"yes"},"relations":[],"meta":{}},"geometry":{"type":"Point","coordinates":[17.9244284,62.6355476]}},{"type":"Feature","id":"node/1387693681","properties":{"type":"node","id":1387693681,"tags":{"amenity":"atm"},"relations":[],"meta":{}},"geometry":{"type":"Point","coordinates":[17.310039,59.7356726]}},{"type":"Feature","id":"node/1388384381","properties":{"type":"node","id":1388384381,"tags":{"amenity":"atm"},"relations":[],"meta":{}},"geometry":{"type":"Point","coordinates":[18.0749779,59.3352081]}},{"type":"Feature","id":"node/1392751873","properties":{"type":"node","id":1392751873,"tags":{"amenity":"atm","name":"Danske Bank","operator":"Danske Bank"},"relations":[],"meta":{}},"geometry":{"type":"Point","coordinates":[18.064293,59.3308062]}},{"type":"Feature","id":"node/1393875699","properties":{"type":"node","id":1393875699,"tags":{"amenity":"atm","indoor":"yes"},"relations":[],"meta":{}},"geometry":{"type":"Point","coordinates":[15.6624366,58.3955799]}},{"type":"Feature","id":"node/1394070993","properties":{"type":"node","id":1394070993,"tags":{"amenity":"atm","operator":"SEB","website":"www.seb.se"},"relations":[],"meta":{}},"geometry":{"type":"Point","coordinates":[13.2147801,55.7142719]}},{"type":"Feature","id":"node/1394070994","properties":{"type":"node","id":1394070994,"tags":{"amenity":"atm","operator":"SEB","website":"www.seb.se"},"relations":[],"meta":{}},"geometry":{"type":"Point","coordinates":[13.2147801,55.7142719]}},{"type":"Feature","id":"node/1394103282","properties":{"type":"node","id":1394103282,"tags":{"amenity":"atm","operator":"Kontanten","website":"www.kontanten.se"},"relations":[],"meta":{}},"geometry":{"type":"Point","coordinates":[13.2150429,55.7098283]}},{"type":"Feature","id":"node/1394732915","properties":{"type":"node","id":1394732915,"tags":{"amenity":"atm","name":"Westra Wermlands Sparbank","wheelchair":"limited"},"relations":[],"meta":{}},"geometry":{"type":"Point","coordinates":[12.132079,59.3924151]}},{"type":"Feature","id":"node/1394732916","properties":{"type":"node","id":1394732916,"tags":{"amenity":"atm","operator":"Nordea","wheelchair":"limited"},"relations":[],"meta":{}},"geometry":{"type":"Point","coordinates":[12.131647,59.3925048]}},{"type":"Feature","id":"node/1395313650","properties":{"type":"node","id":1395313650,"tags":{"amenity":"atm"},"relations":[],"meta":{}},"geometry":{"type":"Point","coordinates":[12.843759,55.4120077]}},{"type":"Feature","id":"node/1396949826","properties":{"type":"node","id":1396949826,"tags":{"amenity":"atm","name":"Bankomat","opening_hours":"Mo-Su 00:00-00:00","operator":"Bankomat"},"relations":[],"meta":{}},"geometry":{"type":"Point","coordinates":[17.9288543,59.5137901]}},{"type":"Feature","id":"node/1397232997","properties":{"type":"node","id":1397232997,"tags":{"amenity":"atm"},"relations":[],"meta":{}},"geometry":{"type":"Point","coordinates":[14.1790055,55.4576873]}},{"type":"Feature","id":"node/1398980801","properties":{"type":"node","id":1398980801,"tags":{"amenity":"atm","operator":"Swedbank"},"relations":[],"meta":{}},"geometry":{"type":"Point","coordinates":[15.8341564,56.1915041]}},{"type":"Feature","id":"node/1399633326","properties":{"type":"node","id":1399633326,"tags":{"amenity":"atm","operator":"Sparbanken Nord"},"relations":[],"meta":{}},"geometry":{"type":"Point","coordinates":[23.6570911,66.3893584]}},{"type":"Feature","id":"node/1401388270","properties":{"type":"node","id":1401388270,"tags":{"amenity":"atm"},"relations":[],"meta":{}},"geometry":{"type":"Point","coordinates":[15.0381681,59.5198927]}},{"type":"Feature","id":"node/1401388272","properties":{"type":"node","id":1401388272,"tags":{"amenity":"atm","operator":"SEB"},"relations":[],"meta":{}},"geometry":{"type":"Point","coordinates":[15.0390714,59.5199806]}},{"type":"Feature","id":"node/1401603877","properties":{"type":"node","id":1401603877,"tags":{"amenity":"atm","opening_hours":"24/7","operator":"Handelsbanken"},"relations":[],"meta":{}},"geometry":{"type":"Point","coordinates":[18.3923753,59.3270346]}},{"type":"Feature","id":"node/1401603883","properties":{"type":"node","id":1401603883,"tags":{"amenity":"atm","opening_hours":"24/7","operator":"Nordea"},"relations":[],"meta":{}},"geometry":{"type":"Point","coordinates":[18.3928433,59.3272958]}},{"type":"Feature","id":"node/1402599382","properties":{"type":"node","id":1402599382,"tags":{"amenity":"atm","operator":"Kontanten"},"relations":[],"meta":{}},"geometry":{"type":"Point","coordinates":[12.8909085,56.2553526]}},{"type":"Feature","id":"node/1405244321","properties":{"type":"node","id":1405244321,"tags":{"amenity":"atm","operator":"SEB"},"relations":[],"meta":{}},"geometry":{"type":"Point","coordinates":[12.862726,56.2443763]}},{"type":"Feature","id":"node/1405244351","properties":{"type":"node","id":1405244351,"tags":{"amenity":"atm","operator":"Sparbanken Östergötland"},"relations":[],"meta":{}},"geometry":{"type":"Point","coordinates":[12.8631767,56.2453155]}},{"type":"Feature","id":"node/1415765089","properties":{"type":"node","id":1415765089,"tags":{"amenity":"atm","operator":"Swedbank"},"relations":[],"meta":{}},"geometry":{"type":"Point","coordinates":[15.5201854,58.4141375]}},{"type":"Feature","id":"node/1415932323","properties":{"type":"node","id":1415932323,"tags":{"amenity":"atm","operator":"Swedbank"},"relations":[],"meta":{}},"geometry":{"type":"Point","coordinates":[17.4170902,62.428635]}},{"type":"Feature","id":"node/1416506768","properties":{"type":"node","id":1416506768,"tags":{"amenity":"atm","operator":"Swedbank"},"relations":[],"meta":{}},"geometry":{"type":"Point","coordinates":[12.8759572,56.2378802]}},{"type":"Feature","id":"node/1417775835","properties":{"type":"node","id":1417775835,"tags":{"amenity":"atm","operator":"Sparbanken"},"relations":[],"meta":{}},"geometry":{"type":"Point","coordinates":[12.720147,56.0460645]}},{"type":"Feature","id":"node/1437621179","properties":{"type":"node","id":1437621179,"tags":{"amenity":"atm"},"relations":[],"meta":{}},"geometry":{"type":"Point","coordinates":[13.178131,55.6915134]}},{"type":"Feature","id":"node/1440891772","properties":{"type":"node","id":1440891772,"tags":{"amenity":"atm","operator":"Sparbanken Öresund"},"relations":[],"meta":{}},"geometry":{"type":"Point","coordinates":[13.1965704,55.7124706]}},{"type":"Feature","id":"node/1440891787","properties":{"type":"node","id":1440891787,"tags":{"amenity":"atm"},"relations":[],"meta":{}},"geometry":{"type":"Point","coordinates":[13.1990173,55.7118495]}},{"type":"Feature","id":"node/1471161139","properties":{"type":"node","id":1471161139,"tags":{"amenity":"atm","operator":"Sparbanken Öresund"},"relations":[],"meta":{}},"geometry":{"type":"Point","coordinates":[12.8912611,56.2522935]}},{"type":"Feature","id":"node/1478230397","properties":{"type":"node","id":1478230397,"tags":{"amenity":"atm","name":"Swedbank"},"relations":[],"meta":{}},"geometry":{"type":"Point","coordinates":[12.1231873,57.9583045]}},{"type":"Feature","id":"node/1492519540","properties":{"type":"node","id":1492519540,"tags":{"amenity":"atm","operator":"Swedbank"},"relations":[],"meta":{}},"geometry":{"type":"Point","coordinates":[12.693567,56.0442679]}},{"type":"Feature","id":"node/1492519645","properties":{"type":"node","id":1492519645,"tags":{"amenity":"atm","operator":"Forex"},"relations":[],"meta":{}},"geometry":{"type":"Point","coordinates":[12.6936889,56.0441874]}},{"type":"Feature","id":"node/1494527344","properties":{"type":"node","id":1494527344,"tags":{"amenity":"atm","operator":"Sparbanken Tanum"},"relations":[],"meta":{}},"geometry":{"type":"Point","coordinates":[11.2843706,58.5988404]}},{"type":"Feature","id":"node/1495932330","properties":{"type":"node","id":1495932330,"tags":{"amenity":"atm","fee":"Minuten"},"relations":[],"meta":{}},"geometry":{"type":"Point","coordinates":[13.0959501,55.5394496]}},{"type":"Feature","id":"node/1501494519","properties":{"type":"node","id":1501494519,"tags":{"amenity":"atm","operator":"Swedbank"},"relations":[],"meta":{}},"geometry":{"type":"Point","coordinates":[11.8925521,57.7126912]}},{"type":"Feature","id":"node/1524731474","properties":{"type":"node","id":1524731474,"tags":{"amenity":"atm"},"relations":[],"meta":{}},"geometry":{"type":"Point","coordinates":[20.1911675,63.8407337]}},{"type":"Feature","id":"node/1545855020","properties":{"type":"node","id":1545855020,"tags":{"amenity":"atm"},"relations":[],"meta":{}},"geometry":{"type":"Point","coordinates":[13.2092901,55.7122512]}},{"type":"Feature","id":"node/1576271801","properties":{"type":"node","id":1576271801,"tags":{"amenity":"atm"},"relations":[],"meta":{}},"geometry":{"type":"Point","coordinates":[17.0270112,59.3757785]}},{"type":"Feature","id":"node/1579753598","properties":{"type":"node","id":1579753598,"tags":{"amenity":"atm"},"relations":[],"meta":{}},"geometry":{"type":"Point","coordinates":[17.0258968,59.3760158]}},{"type":"Feature","id":"node/1583336863","properties":{"type":"node","id":1583336863,"tags":{"amenity":"atm"},"relations":[],"meta":{}},"geometry":{"type":"Point","coordinates":[17.0260866,59.3768623]}},{"type":"Feature","id":"node/1586728880","properties":{"type":"node","id":1586728880,"tags":{"amenity":"atm"},"relations":[],"meta":{}},"geometry":{"type":"Point","coordinates":[16.4628843,59.6163884]}},{"type":"Feature","id":"node/1586799575","properties":{"type":"node","id":1586799575,"tags":{"amenity":"atm"},"relations":[],"meta":{}},"geometry":{"type":"Point","coordinates":[16.4641153,59.6101839]}},{"type":"Feature","id":"node/1587423526","properties":{"type":"node","id":1587423526,"tags":{"amenity":"atm","operator":"Handelsbanken"},"relations":[],"meta":{}},"geometry":{"type":"Point","coordinates":[12.8439561,55.4124787]}},{"type":"Feature","id":"node/1600804950","properties":{"type":"node","id":1600804950,"tags":{"amenity":"atm","operator":"Swedbank"},"relations":[],"meta":{}},"geometry":{"type":"Point","coordinates":[14.6183427,63.1828559]}},{"type":"Feature","id":"node/1601182704","properties":{"type":"node","id":1601182704,"tags":{"amenity":"atm","operator":"Swedbank"},"relations":[],"meta":{}},"geometry":{"type":"Point","coordinates":[12.7040944,56.0465149]}},{"type":"Feature","id":"node/1601205226","properties":{"type":"node","id":1601205226,"tags":{"amenity":"atm"},"relations":[],"meta":{}},"geometry":{"type":"Point","coordinates":[13.1640234,55.7163553]}},{"type":"Feature","id":"node/1604888124","properties":{"type":"node","id":1604888124,"tags":{"amenity":"atm","operator":"Swedbank","wheelchair":"yes"},"relations":[],"meta":{}},"geometry":{"type":"Point","coordinates":[16.3393247,56.6702291]}},{"type":"Feature","id":"node/1604888145","properties":{"type":"node","id":1604888145,"tags":{"amenity":"atm","operator":"Kontanten","wheelchair":"yes"},"relations":[],"meta":{}},"geometry":{"type":"Point","coordinates":[16.3355369,56.6704486]}},{"type":"Feature","id":"node/1604888146","properties":{"type":"node","id":1604888146,"tags":{"amenity":"atm","operator":"Handelsbanken","wheelchair":"yes"},"relations":[],"meta":{}},"geometry":{"type":"Point","coordinates":[16.33783,56.6706643]}},{"type":"Feature","id":"node/1604888147","properties":{"type":"node","id":1604888147,"tags":{"amenity":"atm","operator":"Bankomat","wheelchair":"yes"},"relations":[],"meta":{}},"geometry":{"type":"Point","coordinates":[16.3358813,56.6709428]}},{"type":"Feature","id":"node/1606940054","properties":{"type":"node","id":1606940054,"tags":{"amenity":"atm","operator":"SEB"},"relations":[],"meta":{}},"geometry":{"type":"Point","coordinates":[18.071274,59.3144152]}},{"type":"Feature","id":"node/1608663869","properties":{"type":"node","id":1608663869,"tags":{"amenity":"atm"},"relations":[],"meta":{}},"geometry":{"type":"Point","coordinates":[15.6245408,58.3913162]}},{"type":"Feature","id":"node/1616037420","properties":{"type":"node","id":1616037420,"tags":{"amenity":"atm","fee":"Depending on cardholder","source":"Local knowledge"},"relations":[],"meta":{}},"geometry":{"type":"Point","coordinates":[18.0286031,59.3101479]}},{"type":"Feature","id":"node/1617791805","properties":{"type":"node","id":1617791805,"tags":{"amenity":"atm","operator":"Handelsbanken"},"relations":[],"meta":{}},"geometry":{"type":"Point","coordinates":[18.0734359,59.3305858]}},{"type":"Feature","id":"node/1631579426","properties":{"type":"node","id":1631579426,"tags":{"amenity":"atm"},"relations":[],"meta":{}},"geometry":{"type":"Point","coordinates":[11.9202704,58.2222603]}},{"type":"Feature","id":"node/1632019701","properties":{"type":"node","id":1632019701,"tags":{"amenity":"atm","operator":"Nordea"},"relations":[],"meta":{}},"geometry":{"type":"Point","coordinates":[11.9689976,57.7071931]}},{"type":"Feature","id":"node/1634570953","properties":{"type":"node","id":1634570953,"tags":{"amenity":"atm","operator":"Swedbank"},"relations":[],"meta":{}},"geometry":{"type":"Point","coordinates":[17.8113725,59.2900052]}},{"type":"Feature","id":"node/1639252036","properties":{"type":"node","id":1639252036,"tags":{"amenity":"atm"},"relations":[],"meta":{}},"geometry":{"type":"Point","coordinates":[18.0758278,59.307446]}},{"type":"Feature","id":"node/1644384772","properties":{"type":"node","id":1644384772,"tags":{"amenity":"atm"},"relations":[],"meta":{}},"geometry":{"type":"Point","coordinates":[12.8708623,60.7309349]}},{"type":"Feature","id":"node/1649278087","properties":{"type":"node","id":1649278087,"tags":{"amenity":"atm","name":"Bankomat"},"relations":[],"meta":{}},"geometry":{"type":"Point","coordinates":[13.0255516,58.0781288]}},{"type":"Feature","id":"node/1657464718","properties":{"type":"node","id":1657464718,"tags":{"amenity":"atm","operator":"Swedbank","source":"survey"},"relations":[],"meta":{}},"geometry":{"type":"Point","coordinates":[11.9709272,57.6932441]}},{"type":"Feature","id":"node/1659053998","properties":{"type":"node","id":1659053998,"tags":{"amenity":"atm"},"relations":[],"meta":{}},"geometry":{"type":"Point","coordinates":[12.7155323,57.1368992]}},{"type":"Feature","id":"node/1665935724","properties":{"type":"node","id":1665935724,"tags":{"amenity":"atm","operator":"ICA Oppeby"},"relations":[],"meta":{}},"geometry":{"type":"Point","coordinates":[16.987629,58.7690881]}},{"type":"Feature","id":"node/1668378637","properties":{"type":"node","id":1668378637,"tags":{"amenity":"atm"},"relations":[],"meta":{}},"geometry":{"type":"Point","coordinates":[17.916128,59.4710672]}},{"type":"Feature","id":"node/1668970784","properties":{"type":"node","id":1668970784,"tags":{"amenity":"atm"},"relations":[],"meta":{}},"geometry":{"type":"Point","coordinates":[13.1962448,55.7013618]}},{"type":"Feature","id":"node/1668970827","properties":{"type":"node","id":1668970827,"tags":{"amenity":"atm"},"relations":[],"meta":{}},"geometry":{"type":"Point","coordinates":[13.1895353,55.7033699]}},{"type":"Feature","id":"node/1668970829","properties":{"type":"node","id":1668970829,"tags":{"amenity":"atm"},"relations":[],"meta":{}},"geometry":{"type":"Point","coordinates":[13.1836278,55.7037509]}},{"type":"Feature","id":"node/1669553200","properties":{"type":"node","id":1669553200,"tags":{"amenity":"atm","operator":"Nordea"},"relations":[],"meta":{}},"geometry":{"type":"Point","coordinates":[12.9837177,55.5967395]}},{"type":"Feature","id":"node/1670766033","properties":{"type":"node","id":1670766033,"tags":{"amenity":"atm"},"relations":[],"meta":{}},"geometry":{"type":"Point","coordinates":[19.0643234,59.7212774]}},{"type":"Feature","id":"node/1670779937","properties":{"type":"node","id":1670779937,"tags":{"amenity":"atm","operator":"Handelsbanken"},"relations":[],"meta":{}},"geometry":{"type":"Point","coordinates":[12.9850721,55.593766]}},{"type":"Feature","id":"node/1670786947","properties":{"type":"node","id":1670786947,"tags":{"amenity":"atm","wheelchair":"yes"},"relations":[],"meta":{}},"geometry":{"type":"Point","coordinates":[13.0011939,55.599486]}},{"type":"Feature","id":"node/1670786948","properties":{"type":"node","id":1670786948,"tags":{"amenity":"atm","operator":"Sparbanken"},"relations":[],"meta":{}},"geometry":{"type":"Point","coordinates":[13.0019268,55.6027602]}},{"type":"Feature","id":"node/1670786951","properties":{"type":"node","id":1670786951,"tags":{"amenity":"atm","operator":"Nordea"},"relations":[],"meta":{}},"geometry":{"type":"Point","coordinates":[13.0004009,55.6047675]}},{"type":"Feature","id":"node/1673848862","properties":{"type":"node","id":1673848862,"tags":{"amenity":"atm","name":"Bankomat"},"relations":[],"meta":{}},"geometry":{"type":"Point","coordinates":[11.6550551,57.7080651]}},{"type":"Feature","id":"node/1673850546","properties":{"type":"node","id":1673850546,"tags":{"amenity":"atm","name":"Bankomat","operator":"Bankomat AB"},"relations":[],"meta":{}},"geometry":{"type":"Point","coordinates":[11.6510325,57.6965605]}},{"type":"Feature","id":"node/1674642176","properties":{"type":"node","id":1674642176,"tags":{"amenity":"atm","operator":"Kontanten","wheelchair":"yes"},"relations":[],"meta":{}},"geometry":{"type":"Point","coordinates":[16.3161093,56.6838119]}},{"type":"Feature","id":"node/1674642177","properties":{"type":"node","id":1674642177,"tags":{"amenity":"atm","operator":"Bankomat","wheelchair":"yes"},"relations":[],"meta":{}},"geometry":{"type":"Point","coordinates":[16.3192923,56.6870222]}},{"type":"Feature","id":"node/1676874336","properties":{"type":"node","id":1676874336,"tags":{"amenity":"atm"},"relations":[],"meta":{}},"geometry":{"type":"Point","coordinates":[16.5874643,59.6383495]}},{"type":"Feature","id":"node/1678284054","properties":{"type":"node","id":1678284054,"tags":{"amenity":"atm"},"relations":[],"meta":{}},"geometry":{"type":"Point","coordinates":[12.0454944,57.7354156]}},{"type":"Feature","id":"node/1680808753","properties":{"type":"node","id":1680808753,"tags":{"amenity":"atm"},"relations":[],"meta":{}},"geometry":{"type":"Point","coordinates":[13.8203546,55.4292776]}},{"type":"Feature","id":"node/1680808759","properties":{"type":"node","id":1680808759,"tags":{"amenity":"atm"},"relations":[],"meta":{}},"geometry":{"type":"Point","coordinates":[13.8273845,55.4307296]}},{"type":"Feature","id":"node/1685947878","properties":{"type":"node","id":1685947878,"tags":{"amenity":"atm"},"relations":[],"meta":{}},"geometry":{"type":"Point","coordinates":[13.194055,55.7022952]}},{"type":"Feature","id":"node/1686324824","properties":{"type":"node","id":1686324824,"tags":{"amenity":"atm","name":"ICA","operator":"ICA","source":"survey"},"relations":[],"meta":{}},"geometry":{"type":"Point","coordinates":[15.6588692,60.6073139]}},{"type":"Feature","id":"node/1686442447","properties":{"type":"node","id":1686442447,"tags":{"amenity":"atm"},"relations":[],"meta":{}},"geometry":{"type":"Point","coordinates":[12.9935669,55.5512393]}},{"type":"Feature","id":"node/1688786663","properties":{"type":"node","id":1688786663,"tags":{"amenity":"atm","wheelchair":"yes"},"relations":[],"meta":{}},"geometry":{"type":"Point","coordinates":[13.1925724,55.7022348]}},{"type":"Feature","id":"node/1688786666","properties":{"type":"node","id":1688786666,"tags":{"amenity":"atm"},"relations":[],"meta":{}},"geometry":{"type":"Point","coordinates":[13.1924394,55.7033999]}},{"type":"Feature","id":"node/1690330076","properties":{"type":"node","id":1690330076,"tags":{"amenity":"atm","operator":"Bankomat","source":"suvey"},"relations":[],"meta":{}},"geometry":{"type":"Point","coordinates":[18.0579974,59.3635772]}},{"type":"Feature","id":"node/1691294796","properties":{"type":"node","id":1691294796,"tags":{"amenity":"atm","operator":"SEB","source":"survey"},"relations":[],"meta":{}},"geometry":{"type":"Point","coordinates":[11.9192331,57.6943853]}},{"type":"Feature","id":"node/1693079972","properties":{"type":"node","id":1693079972,"tags":{"amenity":"atm"},"relations":[],"meta":{}},"geometry":{"type":"Point","coordinates":[18.6229674,63.2943126]}},{"type":"Feature","id":"node/1698465895","properties":{"type":"node","id":1698465895,"tags":{"amenity":"atm"},"relations":[],"meta":{}},"geometry":{"type":"Point","coordinates":[13.1861278,55.7053396]}},{"type":"Feature","id":"node/1706416642","properties":{"type":"node","id":1706416642,"tags":{"amenity":"atm","operator":"Danske Bank","source":"survey"},"relations":[],"meta":{}},"geometry":{"type":"Point","coordinates":[17.164715,60.677788]}},{"type":"Feature","id":"node/1707318068","properties":{"type":"node","id":1707318068,"tags":{"amenity":"atm"},"relations":[],"meta":{}},"geometry":{"type":"Point","coordinates":[12.4904135,56.9031718]}},{"type":"Feature","id":"node/1707484033","properties":{"type":"node","id":1707484033,"tags":{"amenity":"atm","operator":"Nordea"},"relations":[],"meta":{}},"geometry":{"type":"Point","coordinates":[17.4158692,62.4292789]}},{"type":"Feature","id":"node/1710047640","properties":{"type":"node","id":1710047640,"tags":{"amenity":"atm","operator":"Swedbank"},"relations":[],"meta":{}},"geometry":{"type":"Point","coordinates":[17.836508,59.4226802]}},{"type":"Feature","id":"node/1714394909","properties":{"type":"node","id":1714394909,"tags":{"amenity":"atm"},"relations":[],"meta":{}},"geometry":{"type":"Point","coordinates":[15.0401011,58.5365385]}},{"type":"Feature","id":"node/1714394921","properties":{"type":"node","id":1714394921,"tags":{"amenity":"atm"},"relations":[],"meta":{}},"geometry":{"type":"Point","coordinates":[15.0382079,58.5361613]}},{"type":"Feature","id":"node/1716393551","properties":{"type":"node","id":1716393551,"tags":{"amenity":"atm","operator":"SEB"},"relations":[],"meta":{}},"geometry":{"type":"Point","coordinates":[18.096371,59.3361326]}},{"type":"Feature","id":"node/1716675116","properties":{"type":"node","id":1716675116,"tags":{"amenity":"atm"},"relations":[],"meta":{}},"geometry":{"type":"Point","coordinates":[17.6942462,59.8460657]}},{"type":"Feature","id":"node/1716951589","properties":{"type":"node","id":1716951589,"tags":{"amenity":"atm","operator":"SEB"},"relations":[],"meta":{}},"geometry":{"type":"Point","coordinates":[18.0820588,59.3390923]}},{"type":"Feature","id":"node/1727520784","properties":{"type":"node","id":1727520784,"tags":{"amenity":"atm","operator":"Bankomat"},"relations":[],"meta":{}},"geometry":{"type":"Point","coordinates":[11.9711518,57.7280957]}},{"type":"Feature","id":"node/1731868391","properties":{"type":"node","id":1731868391,"tags":{"amenity":"atm"},"relations":[],"meta":{}},"geometry":{"type":"Point","coordinates":[15.0686069,58.5408823]}},{"type":"Feature","id":"node/1734070137","properties":{"type":"node","id":1734070137,"tags":{"amenity":"atm"},"relations":[],"meta":{}},"geometry":{"type":"Point","coordinates":[18.1270068,59.2681145]}},{"type":"Feature","id":"node/1734172569","properties":{"type":"node","id":1734172569,"tags":{"amenity":"atm"},"relations":[],"meta":{}},"geometry":{"type":"Point","coordinates":[15.0370691,58.5361535]}},{"type":"Feature","id":"node/1734496159","properties":{"type":"node","id":1734496159,"tags":{"amenity":"atm","wheelchair":"yes"},"relations":[],"meta":{}},"geometry":{"type":"Point","coordinates":[12.9399687,57.7245961]}},{"type":"Feature","id":"node/1734496226","properties":{"type":"node","id":1734496226,"tags":{"amenity":"atm","wheelchair":"yes"},"relations":[],"meta":{}},"geometry":{"type":"Point","coordinates":[12.9388831,57.7295326]}},{"type":"Feature","id":"node/1736398587","properties":{"type":"node","id":1736398587,"tags":{"amenity":"atm","currency:EUR":"no","currency:SEK":"yes","operator":"Handelsbanken"},"relations":[],"meta":{}},"geometry":{"type":"Point","coordinates":[17.9031598,59.2062592]}},{"type":"Feature","id":"node/1741574118","properties":{"type":"node","id":1741574118,"tags":{"amenity":"atm","operator":"Nordea"},"relations":[],"meta":{}},"geometry":{"type":"Point","coordinates":[17.6613005,59.8658828]}},{"type":"Feature","id":"node/1753672105","properties":{"type":"node","id":1753672105,"tags":{"amenity":"atm","operator":"Bankomat"},"relations":[],"meta":{}},"geometry":{"type":"Point","coordinates":[17.7675113,59.2016843]}},{"type":"Feature","id":"node/1753672107","properties":{"type":"node","id":1753672107,"tags":{"amenity":"atm","operator":"Swedbank"},"relations":[],"meta":{}},"geometry":{"type":"Point","coordinates":[17.7673832,59.2015858]}},{"type":"Feature","id":"node/1764602798","properties":{"type":"node","id":1764602798,"tags":{"amenity":"atm"},"relations":[],"meta":{}},"geometry":{"type":"Point","coordinates":[17.9714758,59.3560882]}},{"type":"Feature","id":"node/1765638100","properties":{"type":"node","id":1765638100,"tags":{"amenity":"atm","operator":"Nordea"},"relations":[],"meta":{}},"geometry":{"type":"Point","coordinates":[11.9142972,57.7011705]}},{"type":"Feature","id":"node/1768077673","properties":{"type":"node","id":1768077673,"tags":{"amenity":"atm","ele":"180.66720599999999","operator":"Nordea","source":"survey"},"relations":[],"meta":{}},"geometry":{"type":"Point","coordinates":[14.9970217,60.731531]}},{"type":"Feature","id":"node/1768150728","properties":{"type":"node","id":1768150728,"tags":{"amenity":"atm","operator":"Bankomat"},"relations":[],"meta":{}},"geometry":{"type":"Point","coordinates":[18.1004866,59.2953666]}},{"type":"Feature","id":"node/1768150729","properties":{"type":"node","id":1768150729,"tags":{"amenity":"atm"},"relations":[],"meta":{}},"geometry":{"type":"Point","coordinates":[18.1027146,59.2951452]}},{"type":"Feature","id":"node/1768954715","properties":{"type":"node","id":1768954715,"tags":{"amenity":"atm"},"relations":[],"meta":{}},"geometry":{"type":"Point","coordinates":[13.9069509,56.8149437]}},{"type":"Feature","id":"node/1773906857","properties":{"type":"node","id":1773906857,"tags":{"amenity":"atm"},"relations":[],"meta":{}},"geometry":{"type":"Point","coordinates":[13.1556488,55.3743174]}},{"type":"Feature","id":"node/1776169522","properties":{"type":"node","id":1776169522,"tags":{"amenity":"atm","operator":"Nordea"},"relations":[],"meta":{}},"geometry":{"type":"Point","coordinates":[13.5964078,57.4440495]}},{"type":"Feature","id":"node/1778422713","properties":{"type":"node","id":1778422713,"tags":{"amenity":"atm","operator":"Sparbanken"},"relations":[],"meta":{}},"geometry":{"type":"Point","coordinates":[12.9466934,56.1344076]}},{"type":"Feature","id":"node/1784404898","properties":{"type":"node","id":1784404898,"tags":{"amenity":"atm","operator":"Handelsbanken"},"relations":[],"meta":{}},"geometry":{"type":"Point","coordinates":[15.9971156,59.5133521]}},{"type":"Feature","id":"node/1785627490","properties":{"type":"node","id":1785627490,"tags":{"amenity":"atm","operator":"Nordea"},"relations":[],"meta":{}},"geometry":{"type":"Point","coordinates":[16.1579078,58.5775212]}},{"type":"Feature","id":"node/1788332267","properties":{"type":"node","id":1788332267,"tags":{"amenity":"atm"},"relations":[],"meta":{}},"geometry":{"type":"Point","coordinates":[15.4755058,60.462226]}},{"type":"Feature","id":"node/1798735142","properties":{"type":"node","id":1798735142,"tags":{"amenity":"atm"},"relations":[],"meta":{}},"geometry":{"type":"Point","coordinates":[16.364215,58.6737265]}},{"type":"Feature","id":"node/1801786967","properties":{"type":"node","id":1801786967,"tags":{"amenity":"atm"},"relations":[],"meta":{}},"geometry":{"type":"Point","coordinates":[14.580703,57.1699244]}},{"type":"Feature","id":"node/1806393577","properties":{"type":"node","id":1806393577,"tags":{"amenity":"atm"},"relations":[],"meta":{}},"geometry":{"type":"Point","coordinates":[16.3222302,58.4805556]}},{"type":"Feature","id":"node/1815103830","properties":{"type":"node","id":1815103830,"tags":{"amenity":"atm"},"relations":[],"meta":{}},"geometry":{"type":"Point","coordinates":[14.073731,57.9086156]}},{"type":"Feature","id":"node/1815103912","properties":{"type":"node","id":1815103912,"tags":{"amenity":"atm"},"relations":[],"meta":{}},"geometry":{"type":"Point","coordinates":[14.0740139,57.9089605]}},{"type":"Feature","id":"node/1819899986","properties":{"type":"node","id":1819899986,"tags":{"amenity":"atm"},"relations":[],"meta":{}},"geometry":{"type":"Point","coordinates":[13.5942511,57.1743557]}},{"type":"Feature","id":"node/1827374076","properties":{"type":"node","id":1827374076,"tags":{"amenity":"atm"},"relations":[],"meta":{}},"geometry":{"type":"Point","coordinates":[16.6543764,64.6250013]}},{"type":"Feature","id":"node/1828586300","properties":{"type":"node","id":1828586300,"tags":{"amenity":"atm"},"relations":[],"meta":{}},"geometry":{"type":"Point","coordinates":[16.4713183,63.5375095]}},{"type":"Feature","id":"node/1831233501","properties":{"type":"node","id":1831233501,"tags":{"amenity":"atm","name":"Danske bank"},"relations":[],"meta":{}},"geometry":{"type":"Point","coordinates":[17.967242,59.361272]}},{"type":"Feature","id":"node/1831267302","properties":{"type":"node","id":1831267302,"tags":{"amenity":"atm","name":"Nordea"},"relations":[],"meta":{}},"geometry":{"type":"Point","coordinates":[17.968276,59.363012]}},{"type":"Feature","id":"node/1832548214","properties":{"type":"node","id":1832548214,"tags":{"amenity":"atm","operator":"Handelsbanken"},"relations":[],"meta":{}},"geometry":{"type":"Point","coordinates":[17.9479189,58.9035373]}},{"type":"Feature","id":"node/1832548226","properties":{"type":"node","id":1832548226,"tags":{"amenity":"atm","operator":"Nordea"},"relations":[],"meta":{}},"geometry":{"type":"Point","coordinates":[17.9475595,58.9029831]}},{"type":"Feature","id":"node/1832974109","properties":{"type":"node","id":1832974109,"tags":{"amenity":"atm","ele":"163.41201799999999","operator":"Swedbank","source":"survey"},"relations":[],"meta":{}},"geometry":{"type":"Point","coordinates":[15.7520109,60.346341]}},{"type":"Feature","id":"node/1832979235","properties":{"type":"node","id":1832979235,"tags":{"amenity":"atm","ele":"167.75195299999999","operator":"Handelsbanken","source":"survey"},"relations":[],"meta":{}},"geometry":{"type":"Point","coordinates":[15.7526958,60.3466887]}},{"type":"Feature","id":"node/1834406337","properties":{"type":"node","id":1834406337,"tags":{"amenity":"atm","operator":"ICA"},"relations":[],"meta":{}},"geometry":{"type":"Point","coordinates":[17.8942067,58.9831087]}},{"type":"Feature","id":"node/1835736847","properties":{"type":"node","id":1835736847,"tags":{"amenity":"atm","operator":"Nordea"},"relations":[],"meta":{}},"geometry":{"type":"Point","coordinates":[18.15368,59.2175406]}},{"type":"Feature","id":"node/1836787475","properties":{"type":"node","id":1836787475,"tags":{"amenity":"atm"},"relations":[],"meta":{}},"geometry":{"type":"Point","coordinates":[12.0758365,57.4867807]}},{"type":"Feature","id":"node/1841160086","properties":{"type":"node","id":1841160086,"tags":{"amenity":"atm"},"relations":[],"meta":{}},"geometry":{"type":"Point","coordinates":[13.6639187,56.3401804]}},{"type":"Feature","id":"node/1841363962","properties":{"type":"node","id":1841363962,"tags":{"amenity":"atm","operator":"SEB"},"relations":[],"meta":{}},"geometry":{"type":"Point","coordinates":[17.9452323,59.4025719]}},{"type":"Feature","id":"node/1842937417","properties":{"type":"node","id":1842937417,"tags":{"amenity":"atm","operator":"Bankomat"},"relations":[],"meta":{}},"geometry":{"type":"Point","coordinates":[19.4821222,64.9120569]}},{"type":"Feature","id":"node/1846595463","properties":{"type":"node","id":1846595463,"tags":{"amenity":"atm","operator":"Swedbank"},"relations":[],"meta":{}},"geometry":{"type":"Point","coordinates":[14.504813,59.3153484]}},{"type":"Feature","id":"node/1846595465","properties":{"type":"node","id":1846595465,"tags":{"amenity":"atm","operator":"Swedbank"},"relations":[],"meta":{}},"geometry":{"type":"Point","coordinates":[14.5232001,59.3259524]}},{"type":"Feature","id":"node/1848234994","properties":{"type":"node","id":1848234994,"tags":{"amenity":"atm"},"relations":[],"meta":{}},"geometry":{"type":"Point","coordinates":[17.949474,59.396944]}},{"type":"Feature","id":"node/1848374695","properties":{"type":"node","id":1848374695,"tags":{"amenity":"atm"},"relations":[],"meta":{}},"geometry":{"type":"Point","coordinates":[13.2209602,55.7202707]}},{"type":"Feature","id":"node/1851966013","properties":{"type":"node","id":1851966013,"tags":{"amenity":"atm"},"relations":[],"meta":{}},"geometry":{"type":"Point","coordinates":[16.2224492,59.7062999]}},{"type":"Feature","id":"node/1851995303","properties":{"type":"node","id":1851995303,"tags":{"amenity":"atm"},"relations":[],"meta":{}},"geometry":{"type":"Point","coordinates":[16.2313551,59.6137259]}},{"type":"Feature","id":"node/1854733299","properties":{"type":"node","id":1854733299,"tags":{"amenity":"atm","fee":"no","operator":"Nordea"},"relations":[],"meta":{}},"geometry":{"type":"Point","coordinates":[14.5663578,63.1689021]}},{"type":"Feature","id":"node/1859365698","properties":{"type":"node","id":1859365698,"tags":{"amenity":"atm","operator":"Bankomat"},"relations":[],"meta":{}},"geometry":{"type":"Point","coordinates":[14.522865,59.3263091]}},{"type":"Feature","id":"node/1860964423","properties":{"type":"node","id":1860964423,"tags":{"amenity":"atm","wheelchair":"yes"},"relations":[],"meta":{}},"geometry":{"type":"Point","coordinates":[13.0127408,55.5956022]}},{"type":"Feature","id":"node/1862258405","properties":{"type":"node","id":1862258405,"tags":{"amenity":"atm"},"relations":[],"meta":{}},"geometry":{"type":"Point","coordinates":[15.1880212,59.2701899]}},{"type":"Feature","id":"node/1863121712","properties":{"type":"node","id":1863121712,"tags":{"amenity":"atm","operator":"Nordea"},"relations":[],"meta":{}},"geometry":{"type":"Point","coordinates":[15.1324996,58.3229014]}},{"type":"Feature","id":"node/1863132804","properties":{"type":"node","id":1863132804,"tags":{"amenity":"atm"},"relations":[],"meta":{}},"geometry":{"type":"Point","coordinates":[15.1294082,58.3257182]}},{"type":"Feature","id":"node/1863132806","properties":{"type":"node","id":1863132806,"tags":{"amenity":"atm","operator":"Nordea"},"relations":[],"meta":{}},"geometry":{"type":"Point","coordinates":[15.1249879,58.3256013]}},{"type":"Feature","id":"node/1863251321","properties":{"type":"node","id":1863251321,"tags":{"amenity":"atm"},"relations":[],"meta":{}},"geometry":{"type":"Point","coordinates":[16.1782607,58.5916993]}},{"type":"Feature","id":"node/1863251322","properties":{"type":"node","id":1863251322,"tags":{"amenity":"atm"},"relations":[],"meta":{}},"geometry":{"type":"Point","coordinates":[16.1781159,58.5907852]}},{"type":"Feature","id":"node/1865216853","properties":{"type":"node","id":1865216853,"tags":{"amenity":"atm","ele":"26.314223999999999","operator":"Swedbank","source":"survey"},"relations":[],"meta":{}},"geometry":{"type":"Point","coordinates":[17.1678509,60.6718418]}},{"type":"Feature","id":"node/1867496231","properties":{"type":"node","id":1867496231,"tags":{"amenity":"atm"},"relations":[],"meta":{}},"geometry":{"type":"Point","coordinates":[20.2635094,63.8265097]}},{"type":"Feature","id":"node/1869006047","properties":{"type":"node","id":1869006047,"tags":{"amenity":"atm"},"relations":[],"meta":{}},"geometry":{"type":"Point","coordinates":[16.973043,58.7472605]}},{"type":"Feature","id":"node/1869023489","properties":{"type":"node","id":1869023489,"tags":{"amenity":"atm"},"relations":[],"meta":{}},"geometry":{"type":"Point","coordinates":[17.0027243,58.7516214]}},{"type":"Feature","id":"node/1869023490","properties":{"type":"node","id":1869023490,"tags":{"amenity":"atm"},"relations":[],"meta":{}},"geometry":{"type":"Point","coordinates":[17.0028209,58.7516603]}},{"type":"Feature","id":"node/1871089497","properties":{"type":"node","id":1871089497,"tags":{"amenity":"atm","brand":"Swedbank","operator":"Swedbank Trandared"},"relations":[],"meta":{}},"geometry":{"type":"Point","coordinates":[12.9692513,57.7077494]}},{"type":"Feature","id":"node/1878289305","properties":{"type":"node","id":1878289305,"tags":{"amenity":"atm","operator":"Bankomat"},"relations":[],"meta":{}},"geometry":{"type":"Point","coordinates":[14.5750238,59.3280037]}},{"type":"Feature","id":"node/1879690778","properties":{"type":"node","id":1879690778,"tags":{"amenity":"atm"},"relations":[],"meta":{}},"geometry":{"type":"Point","coordinates":[18.0012876,59.3061848]}},{"type":"Feature","id":"node/1883209156","properties":{"type":"node","id":1883209156,"tags":{"amenity":"atm","operator":"Sparbanken Öresund"},"relations":[],"meta":{}},"geometry":{"type":"Point","coordinates":[13.2173756,55.7176784]}},{"type":"Feature","id":"node/1894209903","properties":{"type":"node","id":1894209903,"tags":{"amenity":"atm","operator":"Swedbank"},"relations":[],"meta":{}},"geometry":{"type":"Point","coordinates":[14.6977297,57.6527407]}},{"type":"Feature","id":"node/1896716382","properties":{"type":"node","id":1896716382,"tags":{"amenity":"atm","fee":"no","operator":"Swedbank"},"relations":[],"meta":{}},"geometry":{"type":"Point","coordinates":[16.1822973,60.1585315]}},{"type":"Feature","id":"node/1898766886","properties":{"type":"node","id":1898766886,"tags":{"amenity":"atm","operator":"Nordea","source":"local_knowledge"},"relations":[],"meta":{}},"geometry":{"type":"Point","coordinates":[14.6958709,57.6531339]}},{"type":"Feature","id":"node/1899998849","properties":{"type":"node","id":1899998849,"tags":{"amenity":"atm"},"relations":[],"meta":{}},"geometry":{"type":"Point","coordinates":[12.02589,57.7193487]}},{"type":"Feature","id":"node/1914215878","properties":{"type":"node","id":1914215878,"tags":{"amenity":"atm","operator":"Swedbank"},"relations":[],"meta":{}},"geometry":{"type":"Point","coordinates":[17.5296762,59.5694677]}},{"type":"Feature","id":"node/1917023377","properties":{"type":"node","id":1917023377,"tags":{"amenity":"atm","fee":"0:-","operator":"Swedbank"},"relations":[],"meta":{}},"geometry":{"type":"Point","coordinates":[14.3598254,62.0333953]}},{"type":"Feature","id":"node/1923573247","properties":{"type":"node","id":1923573247,"tags":{"amenity":"atm","operator":"Swedbank"},"relations":[],"meta":{}},"geometry":{"type":"Point","coordinates":[15.1438173,59.126776]}},{"type":"Feature","id":"node/1927100039","properties":{"type":"node","id":1927100039,"tags":{"amenity":"atm"},"relations":[],"meta":{}},"geometry":{"type":"Point","coordinates":[15.1747194,59.2728963]}},{"type":"Feature","id":"node/1934164675","properties":{"type":"node","id":1934164675,"tags":{"amenity":"atm","operator":"Swedbank"},"relations":[],"meta":{}},"geometry":{"type":"Point","coordinates":[12.0005266,57.6981894]}},{"type":"Feature","id":"node/1937207742","properties":{"type":"node","id":1937207742,"tags":{"amenity":"atm"},"relations":[],"meta":{}},"geometry":{"type":"Point","coordinates":[20.2479655,63.81899]}},{"type":"Feature","id":"node/1951786965","properties":{"type":"node","id":1951786965,"tags":{"amenity":"atm"},"relations":[],"meta":{}},"geometry":{"type":"Point","coordinates":[17.5121466,59.577049]}},{"type":"Feature","id":"node/1951787163","properties":{"type":"node","id":1951787163,"tags":{"amenity":"atm"},"relations":[],"meta":{}},"geometry":{"type":"Point","coordinates":[17.5295863,59.5671706]}},{"type":"Feature","id":"node/1955472627","properties":{"type":"node","id":1955472627,"tags":{"amenity":"atm","fee":"no","operator":"Swedbank"},"relations":[],"meta":{}},"geometry":{"type":"Point","coordinates":[11.2493278,58.3609831]}},{"type":"Feature","id":"node/1955473565","properties":{"type":"node","id":1955473565,"tags":{"amenity":"atm","fee":"no","operator":"SEB"},"relations":[],"meta":{}},"geometry":{"type":"Point","coordinates":[11.2488651,58.3603084]}},{"type":"Feature","id":"node/1963452615","properties":{"type":"node","id":1963452615,"tags":{"amenity":"atm"},"relations":[],"meta":{}},"geometry":{"type":"Point","coordinates":[13.0082174,55.7583706]}},{"type":"Feature","id":"node/1967042967","properties":{"type":"node","id":1967042967,"tags":{"amenity":"atm"},"relations":[],"meta":{}},"geometry":{"type":"Point","coordinates":[20.261865,63.8255971]}},{"type":"Feature","id":"node/1968379088","properties":{"type":"node","id":1968379088,"tags":{"amenity":"atm","fee":"Minuten","operator":"Swedbank"},"relations":[],"meta":{}},"geometry":{"type":"Point","coordinates":[13.8833526,57.9153505]}},{"type":"Feature","id":"node/1969000527","properties":{"type":"node","id":1969000527,"tags":{"amenity":"atm","operator":"SEB"},"relations":[],"meta":{}},"geometry":{"type":"Point","coordinates":[17.3094772,62.3916157]}},{"type":"Feature","id":"node/1975219621","properties":{"type":"node","id":1975219621,"tags":{"amenity":"atm"},"relations":[],"meta":{}},"geometry":{"type":"Point","coordinates":[20.281033,63.8325353]}},{"type":"Feature","id":"node/1976698941","properties":{"type":"node","id":1976698941,"tags":{"amenity":"atm","opening_hours":"24/7","operator":"Swedbank"},"relations":[],"meta":{}},"geometry":{"type":"Point","coordinates":[18.3924668,59.3267297]}},{"type":"Feature","id":"node/1984211766","properties":{"type":"node","id":1984211766,"tags":{"amenity":"atm"},"relations":[],"meta":{}},"geometry":{"type":"Point","coordinates":[17.8486343,59.3792854]}},{"type":"Feature","id":"node/1994471588","properties":{"type":"node","id":1994471588,"tags":{"amenity":"atm","operator":"Kontanten"},"relations":[],"meta":{}},"geometry":{"type":"Point","coordinates":[21.0230245,64.7663541]}},{"type":"Feature","id":"node/1998670942","properties":{"type":"node","id":1998670942,"tags":{"amenity":"atm","operator":"Bankomat"},"relations":[],"meta":{}},"geometry":{"type":"Point","coordinates":[15.5720607,57.6164263]}},{"type":"Feature","id":"node/2002877697","properties":{"type":"node","id":2002877697,"tags":{"amenity":"atm","operator":"Swedbank"},"relations":[],"meta":{}},"geometry":{"type":"Point","coordinates":[17.9691194,59.3619324]}},{"type":"Feature","id":"node/2012799199","properties":{"type":"node","id":2012799199,"tags":{"amenity":"atm","operator":"Swedbank"},"relations":[],"meta":{}},"geometry":{"type":"Point","coordinates":[17.3787476,62.298205]}},{"type":"Feature","id":"node/2018229207","properties":{"type":"node","id":2018229207,"tags":{"amenity":"atm"},"relations":[],"meta":{}},"geometry":{"type":"Point","coordinates":[17.3393987,62.4142539]}},{"type":"Feature","id":"node/2033520152","properties":{"type":"node","id":2033520152,"tags":{"amenity":"atm","operator":"Swedbank"},"relations":[],"meta":{}},"geometry":{"type":"Point","coordinates":[11.9773807,57.699038]}},{"type":"Feature","id":"node/2039206536","properties":{"type":"node","id":2039206536,"tags":{"amenity":"atm"},"relations":[],"meta":{}},"geometry":{"type":"Point","coordinates":[11.9656032,57.704225]}},{"type":"Feature","id":"node/2039206538","properties":{"type":"node","id":2039206538,"tags":{"amenity":"atm","operator":"Danske Bank"},"relations":[],"meta":{}},"geometry":{"type":"Point","coordinates":[11.9662657,57.7043268]}},{"type":"Feature","id":"node/2039365664","properties":{"type":"node","id":2039365664,"tags":{"amenity":"atm"},"relations":[],"meta":{}},"geometry":{"type":"Point","coordinates":[13.1445242,55.3815656]}},{"type":"Feature","id":"node/2039365669","properties":{"type":"node","id":2039365669,"tags":{"amenity":"atm"},"relations":[],"meta":{}},"geometry":{"type":"Point","coordinates":[13.1677606,55.3734335]}},{"type":"Feature","id":"node/2078834990","properties":{"type":"node","id":2078834990,"tags":{"amenity":"atm","operator":"Swedbank"},"relations":[],"meta":{}},"geometry":{"type":"Point","coordinates":[13.1451902,59.8367935]}},{"type":"Feature","id":"node/2078834991","properties":{"type":"node","id":2078834991,"tags":{"amenity":"atm","operator":"Bankomat"},"relations":[],"meta":{}},"geometry":{"type":"Point","coordinates":[13.144356,59.8372895]}},{"type":"Feature","id":"node/2085589544","properties":{"type":"node","id":2085589544,"tags":{"amenity":"atm","indoor":"yes","operator":"Ica"},"relations":[],"meta":{}},"geometry":{"type":"Point","coordinates":[21.024876,64.7654131]}},{"type":"Feature","id":"node/2093991854","properties":{"type":"node","id":2093991854,"tags":{"amenity":"atm"},"relations":[],"meta":{}},"geometry":{"type":"Point","coordinates":[20.2612345,63.8257985]}},{"type":"Feature","id":"node/2093991865","properties":{"type":"node","id":2093991865,"tags":{"amenity":"atm"},"relations":[],"meta":{}},"geometry":{"type":"Point","coordinates":[20.2602236,63.8267215]}},{"type":"Feature","id":"node/2095568255","properties":{"type":"node","id":2095568255,"tags":{"amenity":"atm","wheelchair":"yes"},"relations":[],"meta":{}},"geometry":{"type":"Point","coordinates":[22.1469735,65.6191262]}},{"type":"Feature","id":"node/2095568291","properties":{"type":"node","id":2095568291,"tags":{"amenity":"atm","designation":"ATM","fee":"no","operator":"Nordea"},"relations":[],"meta":{}},"geometry":{"type":"Point","coordinates":[22.1468153,65.6187353]}},{"type":"Feature","id":"node/2098193783","properties":{"type":"node","id":2098193783,"tags":{"amenity":"atm"},"relations":[],"meta":{}},"geometry":{"type":"Point","coordinates":[17.9463892,59.4027802]}},{"type":"Feature","id":"node/2099194346","properties":{"type":"node","id":2099194346,"tags":{"amenity":"atm"},"relations":[],"meta":{}},"geometry":{"type":"Point","coordinates":[17.9745111,59.3047317]}},{"type":"Feature","id":"node/2104789711","properties":{"type":"node","id":2104789711,"tags":{"amenity":"atm"},"relations":[],"meta":{}},"geometry":{"type":"Point","coordinates":[15.053283,58.1970776]}},{"type":"Feature","id":"node/2104789844","properties":{"type":"node","id":2104789844,"tags":{"amenity":"atm"},"relations":[],"meta":{}},"geometry":{"type":"Point","coordinates":[15.0552142,58.1969475]}},{"type":"Feature","id":"node/2110449676","properties":{"type":"node","id":2110449676,"tags":{"amenity":"atm"},"relations":[],"meta":{}},"geometry":{"type":"Point","coordinates":[11.9077179,57.712076]}},{"type":"Feature","id":"node/2123451909","properties":{"type":"node","id":2123451909,"tags":{"amenity":"atm"},"relations":[],"meta":{}},"geometry":{"type":"Point","coordinates":[13.0242817,55.6051241]}},{"type":"Feature","id":"node/2132469298","properties":{"type":"node","id":2132469298,"tags":{"amenity":"atm"},"relations":[],"meta":{}},"geometry":{"type":"Point","coordinates":[13.2349811,56.0738133]}},{"type":"Feature","id":"node/2137607226","properties":{"type":"node","id":2137607226,"tags":{"amenity":"atm","operator":"Swedbank"},"relations":[],"meta":{}},"geometry":{"type":"Point","coordinates":[11.9745044,57.7019413]}},{"type":"Feature","id":"node/2137607235","properties":{"type":"node","id":2137607235,"tags":{"amenity":"atm"},"relations":[],"meta":{}},"geometry":{"type":"Point","coordinates":[11.9676461,57.7092057]}},{"type":"Feature","id":"node/2139221308","properties":{"type":"node","id":2139221308,"tags":{"amenity":"atm","operator":"Nordea"},"relations":[],"meta":{}},"geometry":{"type":"Point","coordinates":[11.9819376,57.6987186]}},{"type":"Feature","id":"node/2140184278","properties":{"type":"node","id":2140184278,"tags":{"amenity":"atm","name":"Kontanten"},"relations":[],"meta":{}},"geometry":{"type":"Point","coordinates":[17.979084,59.359952]}},{"type":"Feature","id":"node/2144014674","properties":{"type":"node","id":2144014674,"tags":{"amenity":"atm","operator":"Bankomat AB"},"relations":[],"meta":{}},"geometry":{"type":"Point","coordinates":[11.9710969,57.7052031]}},{"type":"Feature","id":"node/2147836512","properties":{"type":"node","id":2147836512,"tags":{"amenity":"atm"},"relations":[],"meta":{}},"geometry":{"type":"Point","coordinates":[20.2602593,63.8260832]}},{"type":"Feature","id":"node/2154571600","properties":{"type":"node","id":2154571600,"tags":{"amenity":"atm","operator":"Danske Bank"},"relations":[],"meta":{}},"geometry":{"type":"Point","coordinates":[11.9664768,57.7041631]}},{"type":"Feature","id":"node/2162404239","properties":{"type":"node","id":2162404239,"tags":{"amenity":"atm"},"relations":[],"meta":{}},"geometry":{"type":"Point","coordinates":[18.0547458,59.3651971]}},{"type":"Feature","id":"node/2163840927","properties":{"type":"node","id":2163840927,"tags":{"amenity":"atm","operator":"Nordea"},"relations":[],"meta":{}},"geometry":{"type":"Point","coordinates":[11.9642167,57.7037964]}},{"type":"Feature","id":"node/2163858889","properties":{"type":"node","id":2163858889,"tags":{"amenity":"atm","wheelchair":"yes"},"relations":[],"meta":{}},"geometry":{"type":"Point","coordinates":[13.7805275,56.1644928]}},{"type":"Feature","id":"node/2165044340","properties":{"type":"node","id":2165044340,"tags":{"amenity":"atm","operator":"ICA Banken","source":"survey"},"relations":[],"meta":{}},"geometry":{"type":"Point","coordinates":[18.1342859,59.4627054]}},{"type":"Feature","id":"node/2165234282","properties":{"type":"node","id":2165234282,"tags":{"amenity":"atm","operator":"Swedbank"},"relations":[],"meta":{}},"geometry":{"type":"Point","coordinates":[11.9545339,57.7236243]}},{"type":"Feature","id":"node/2165497423","properties":{"type":"node","id":2165497423,"tags":{"amenity":"atm","layer":"2","operator":"Nordea"},"relations":[],"meta":{}},"geometry":{"type":"Point","coordinates":[11.9118288,57.6515846]}},{"type":"Feature","id":"node/2168909972","properties":{"type":"node","id":2168909972,"tags":{"amenity":"atm","operator":"SEB"},"relations":[],"meta":{}},"geometry":{"type":"Point","coordinates":[11.9672585,57.6984667]}},{"type":"Feature","id":"node/2171069999","properties":{"type":"node","id":2171069999,"tags":{"amenity":"atm","wheelchair":"yes"},"relations":[],"meta":{}},"geometry":{"type":"Point","coordinates":[13.7589541,56.1546382]}},{"type":"Feature","id":"node/2174808967","properties":{"type":"node","id":2174808967,"tags":{"amenity":"atm"},"relations":[],"meta":{}},"geometry":{"type":"Point","coordinates":[15.5864155,56.162008]}},{"type":"Feature","id":"node/2174808972","properties":{"type":"node","id":2174808972,"tags":{"amenity":"atm"},"relations":[],"meta":{}},"geometry":{"type":"Point","coordinates":[15.5882046,56.1621768]}},{"type":"Feature","id":"node/2174808973","properties":{"type":"node","id":2174808973,"tags":{"amenity":"atm"},"relations":[],"meta":{}},"geometry":{"type":"Point","coordinates":[15.5857664,56.1621947]}},{"type":"Feature","id":"node/2174808975","properties":{"type":"node","id":2174808975,"tags":{"amenity":"atm"},"relations":[],"meta":{}},"geometry":{"type":"Point","coordinates":[15.5833793,56.1613463]}},{"type":"Feature","id":"node/2174808976","properties":{"type":"node","id":2174808976,"tags":{"amenity":"atm"},"relations":[],"meta":{}},"geometry":{"type":"Point","coordinates":[15.5850986,56.1620946]}},{"type":"Feature","id":"node/2174808977","properties":{"type":"node","id":2174808977,"tags":{"amenity":"atm","operator":"swedbank"},"relations":[],"meta":{}},"geometry":{"type":"Point","coordinates":[15.5835643,56.161542]}},{"type":"Feature","id":"node/2174808978","properties":{"type":"node","id":2174808978,"tags":{"amenity":"atm"},"relations":[],"meta":{}},"geometry":{"type":"Point","coordinates":[15.587585,56.1616241]}},{"type":"Feature","id":"node/2203059570","properties":{"type":"node","id":2203059570,"tags":{"amenity":"atm","operator":"Kontanten"},"relations":[],"meta":{}},"geometry":{"type":"Point","coordinates":[11.954545,57.7236325]}},{"type":"Feature","id":"node/2213850479","properties":{"type":"node","id":2213850479,"tags":{"amenity":"atm","wheelchair":"yes"},"relations":[],"meta":{}},"geometry":{"type":"Point","coordinates":[13.188503,55.7054227]}},{"type":"Feature","id":"node/2227496771","properties":{"type":"node","id":2227496771,"tags":{"amenity":"atm","fee":"no","operator":"Swedbank"},"relations":[],"meta":{}},"geometry":{"type":"Point","coordinates":[22.133221,65.6175304]}},{"type":"Feature","id":"node/2228458659","properties":{"type":"node","id":2228458659,"tags":{"amenity":"atm"},"relations":[],"meta":{}},"geometry":{"type":"Point","coordinates":[17.3390815,62.4007212]}},{"type":"Feature","id":"node/2229410700","properties":{"type":"node","id":2229410700,"tags":{"amenity":"atm"},"relations":[],"meta":{}},"geometry":{"type":"Point","coordinates":[18.009719,59.33712]}},{"type":"Feature","id":"node/2244866499","properties":{"type":"node","id":2244866499,"tags":{"amenity":"atm","name":"SEB"},"relations":[],"meta":{}},"geometry":{"type":"Point","coordinates":[11.938444,57.706508]}},{"type":"Feature","id":"node/2249151971","properties":{"type":"node","id":2249151971,"tags":{"amenity":"atm","layer":"0"},"relations":[],"meta":{}},"geometry":{"type":"Point","coordinates":[11.9692053,57.7062903]}},{"type":"Feature","id":"node/2264141136","properties":{"type":"node","id":2264141136,"tags":{"amenity":"atm","operator":"Länsförsäkringar"},"relations":[],"meta":{}},"geometry":{"type":"Point","coordinates":[15.6202725,58.4133621]}},{"type":"Feature","id":"node/2264629140","properties":{"type":"node","id":2264629140,"tags":{"amenity":"atm"},"relations":[],"meta":{}},"geometry":{"type":"Point","coordinates":[13.1097898,57.4966014]}},{"type":"Feature","id":"node/2264629141","properties":{"type":"node","id":2264629141,"tags":{"amenity":"atm"},"relations":[],"meta":{}},"geometry":{"type":"Point","coordinates":[13.1103505,57.4947881]}},{"type":"Feature","id":"node/2271579714","properties":{"type":"node","id":2271579714,"tags":{"amenity":"atm"},"relations":[],"meta":{}},"geometry":{"type":"Point","coordinates":[16.4758002,59.420122]}},{"type":"Feature","id":"node/2271651109","properties":{"type":"node","id":2271651109,"tags":{"amenity":"atm"},"relations":[],"meta":{}},"geometry":{"type":"Point","coordinates":[12.5917053,59.654626]}},{"type":"Feature","id":"node/2271651111","properties":{"type":"node","id":2271651111,"tags":{"amenity":"atm"},"relations":[],"meta":{}},"geometry":{"type":"Point","coordinates":[12.5916088,59.6553143]}},{"type":"Feature","id":"node/2271651118","properties":{"type":"node","id":2271651118,"tags":{"amenity":"atm"},"relations":[],"meta":{}},"geometry":{"type":"Point","coordinates":[12.5907183,59.6542194]}},{"type":"Feature","id":"node/2287945248","properties":{"type":"node","id":2287945248,"tags":{"amenity":"atm","operator":"Komtanten"},"relations":[],"meta":{}},"geometry":{"type":"Point","coordinates":[11.910226,57.716003]}},{"type":"Feature","id":"node/2288368325","properties":{"type":"node","id":2288368325,"tags":{"amenity":"atm","operator":"Bankomat","source":"survey","survey:date":"2013-05-01"},"relations":[],"meta":{}},"geometry":{"type":"Point","coordinates":[17.9347848,59.2951308]}},{"type":"Feature","id":"node/2289444438","properties":{"type":"node","id":2289444438,"tags":{"amenity":"atm"},"relations":[],"meta":{}},"geometry":{"type":"Point","coordinates":[13.8579149,58.4076]}},{"type":"Feature","id":"node/2293592874","properties":{"type":"node","id":2293592874,"tags":{"amenity":"atm"},"relations":[],"meta":{}},"geometry":{"type":"Point","coordinates":[17.9146564,59.5254363]}},{"type":"Feature","id":"node/2302185438","properties":{"type":"node","id":2302185438,"tags":{"amenity":"atm","history":"retrieved using undelete JOSM plugin","wheelchair":"yes"},"relations":[],"meta":{}},"geometry":{"type":"Point","coordinates":[17.927732,59.64748]}},{"type":"Feature","id":"node/2302190937","properties":{"type":"node","id":2302190937,"tags":{"amenity":"atm","history":"retrieved using undelete JOSM plugin","layer":"1","operator":"Kontanten"},"relations":[],"meta":{}},"geometry":{"type":"Point","coordinates":[17.926572,59.647764]}},{"type":"Feature","id":"node/2305394823","properties":{"type":"node","id":2305394823,"tags":{"amenity":"atm","operator":"SEB","source":"survey"},"relations":[],"meta":{}},"geometry":{"type":"Point","coordinates":[18.1328557,59.4613728]}},{"type":"Feature","id":"node/2305447513","properties":{"type":"node","id":2305447513,"tags":{"amenity":"atm"},"relations":[],"meta":{}},"geometry":{"type":"Point","coordinates":[17.9335535,59.440884]}},{"type":"Feature","id":"node/2314462060","properties":{"type":"node","id":2314462060,"tags":{"amenity":"atm","fee":"NA","operator":"Swedbank"},"relations":[],"meta":{}},"geometry":{"type":"Point","coordinates":[22.2891853,65.8554184]}},{"type":"Feature","id":"node/2315655597","properties":{"type":"node","id":2315655597,"tags":{"amenity":"atm"},"relations":[],"meta":{}},"geometry":{"type":"Point","coordinates":[11.9741338,57.8743087]}},{"type":"Feature","id":"node/2315926261","properties":{"type":"node","id":2315926261,"tags":{"amenity":"atm","operator":"Kontanten"},"relations":[],"meta":{}},"geometry":{"type":"Point","coordinates":[11.9609508,57.7015285]}},{"type":"Feature","id":"node/2317060643","properties":{"type":"node","id":2317060643,"tags":{"amenity":"atm","fee":"no","operator":"Swedbank","wheelchair":"yes"},"relations":[],"meta":{}},"geometry":{"type":"Point","coordinates":[22.1528318,65.5833924]}},{"type":"Feature","id":"node/2317479654","properties":{"type":"node","id":2317479654,"tags":{"amenity":"atm","indoor":"yes","operator":"Ica"},"relations":[],"meta":{}},"geometry":{"type":"Point","coordinates":[21.237099,64.6866225]}},{"type":"Feature","id":"node/2318390766","properties":{"type":"node","id":2318390766,"tags":{"amenity":"atm"},"relations":[],"meta":{}},"geometry":{"type":"Point","coordinates":[11.9689857,57.7064995]}},{"type":"Feature","id":"node/2324462284","properties":{"type":"node","id":2324462284,"tags":{"amenity":"atm"},"relations":[],"meta":{}},"geometry":{"type":"Point","coordinates":[14.0947008,57.4283834]}},{"type":"Feature","id":"node/2324462456","properties":{"type":"node","id":2324462456,"tags":{"amenity":"atm"},"relations":[],"meta":{}},"geometry":{"type":"Point","coordinates":[14.0929091,57.4273293]}},{"type":"Feature","id":"node/2328436275","properties":{"type":"node","id":2328436275,"tags":{"amenity":"atm"},"relations":[],"meta":{}},"geometry":{"type":"Point","coordinates":[15.2126336,59.2732391]}},{"type":"Feature","id":"node/2329572739","properties":{"type":"node","id":2329572739,"tags":{"amenity":"atm","operator":"Sparbanken Öresund"},"relations":[],"meta":{}},"geometry":{"type":"Point","coordinates":[13.2139994,55.7173702]}},{"type":"Feature","id":"node/2336100321","properties":{"type":"node","id":2336100321,"tags":{"amenity":"atm"},"relations":[],"meta":{}},"geometry":{"type":"Point","coordinates":[15.210599,59.2708911]}},{"type":"Feature","id":"node/2336100336","properties":{"type":"node","id":2336100336,"tags":{"amenity":"atm","name":"Minuten","wheelchair":"unknown"},"relations":[],"meta":{}},"geometry":{"type":"Point","coordinates":[15.2113923,59.2717284]}},{"type":"Feature","id":"node/2338002308","properties":{"type":"node","id":2338002308,"tags":{"amenity":"atm","note":"Open all year round"},"relations":[],"meta":{}},"geometry":{"type":"Point","coordinates":[12.9991326,61.1757362]}},{"type":"Feature","id":"node/2340909284","properties":{"type":"node","id":2340909284,"tags":{"amenity":"atm"},"relations":[],"meta":{}},"geometry":{"type":"Point","coordinates":[23.6533545,66.3831328]}},{"type":"Feature","id":"node/2344528046","properties":{"type":"node","id":2344528046,"tags":{"amenity":"atm","operator":"Swedbank"},"relations":[],"meta":{}},"geometry":{"type":"Point","coordinates":[18.6775887,64.594781]}},{"type":"Feature","id":"node/2344528050","properties":{"type":"node","id":2344528050,"tags":{"amenity":"atm","operator":"Ica"},"relations":[],"meta":{}},"geometry":{"type":"Point","coordinates":[18.6805375,64.595365]}},{"type":"Feature","id":"node/2355508039","properties":{"type":"node","id":2355508039,"tags":{"amenity":"atm","name":"Sparbanken Nord"},"relations":[],"meta":{}},"geometry":{"type":"Point","coordinates":[20.226135,67.8550094]}},{"type":"Feature","id":"node/2360919813","properties":{"type":"node","id":2360919813,"tags":{"amenity":"atm","source":"survey"},"relations":[],"meta":{}},"geometry":{"type":"Point","coordinates":[15.2055982,59.2760656]}},{"type":"Feature","id":"node/2360933609","properties":{"type":"node","id":2360933609,"tags":{"addr:city":"Uppsala","addr:country":"SE","addr:housename":"Kvarnen","addr:housenumber":"30","addr:postcode":"753 31","addr:street":"Vaksalagatan","amenity":"atm","operator":"Danske Bank"},"relations":[],"meta":{}},"geometry":{"type":"Point","coordinates":[17.6459151,59.8625093]}},{"type":"Feature","id":"node/2364201101","properties":{"type":"node","id":2364201101,"tags":{"amenity":"atm","operator":"ICA Banken","source":"survey"},"relations":[],"meta":{}},"geometry":{"type":"Point","coordinates":[18.2996633,59.479682]}},{"type":"Feature","id":"node/2383556114","properties":{"type":"node","id":2383556114,"tags":{"amenity":"atm"},"relations":[],"meta":{}},"geometry":{"type":"Point","coordinates":[12.6941401,56.0454762]}},{"type":"Feature","id":"node/2385860975","properties":{"type":"node","id":2385860975,"tags":{"amenity":"atm"},"relations":[],"meta":{}},"geometry":{"type":"Point","coordinates":[15.2136074,59.2720164]}},{"type":"Feature","id":"node/2391626312","properties":{"type":"node","id":2391626312,"tags":{"amenity":"atm"},"relations":[],"meta":{}},"geometry":{"type":"Point","coordinates":[12.3628185,59.7628714]}},{"type":"Feature","id":"node/2396256817","properties":{"type":"node","id":2396256817,"tags":{"amenity":"atm"},"relations":[],"meta":{}},"geometry":{"type":"Point","coordinates":[18.0803118,59.2941364]}},{"type":"Feature","id":"node/2396256818","properties":{"type":"node","id":2396256818,"tags":{"amenity":"atm"},"relations":[],"meta":{}},"geometry":{"type":"Point","coordinates":[18.0804868,59.2939051]}},{"type":"Feature","id":"node/2397085896","properties":{"type":"node","id":2397085896,"tags":{"amenity":"atm"},"relations":[],"meta":{}},"geometry":{"type":"Point","coordinates":[14.970411,57.670608]}},{"type":"Feature","id":"node/2397085901","properties":{"type":"node","id":2397085901,"tags":{"amenity":"atm","operator":"Nordea"},"relations":[],"meta":{}},"geometry":{"type":"Point","coordinates":[14.9718251,57.6665338]}},{"type":"Feature","id":"node/2398769687","properties":{"type":"node","id":2398769687,"tags":{"amenity":"atm"},"relations":[],"meta":{}},"geometry":{"type":"Point","coordinates":[20.3017987,63.8229641]}},{"type":"Feature","id":"node/2398801009","properties":{"type":"node","id":2398801009,"tags":{"amenity":"atm"},"relations":[],"meta":{}},"geometry":{"type":"Point","coordinates":[18.1461211,59.3495757]}},{"type":"Feature","id":"node/2401898216","properties":{"type":"node","id":2401898216,"tags":{"amenity":"atm"},"relations":[],"meta":{}},"geometry":{"type":"Point","coordinates":[15.2110619,59.2698342]}},{"type":"Feature","id":"node/2401961720","properties":{"type":"node","id":2401961720,"tags":{"amenity":"atm"},"relations":[],"meta":{}},"geometry":{"type":"Point","coordinates":[17.1092877,61.7277337]}},{"type":"Feature","id":"node/2404791742","properties":{"type":"node","id":2404791742,"tags":{"amenity":"atm","name":"Nordea"},"relations":[],"meta":{}},"geometry":{"type":"Point","coordinates":[15.1196281,60.8831613]}},{"type":"Feature","id":"node/2405946989","properties":{"type":"node","id":2405946989,"tags":{"amenity":"atm"},"relations":[],"meta":{}},"geometry":{"type":"Point","coordinates":[12.7549429,56.0907692]}},{"type":"Feature","id":"node/2406730487","properties":{"type":"node","id":2406730487,"tags":{"amenity":"atm","source":"knowledge"},"relations":[],"meta":{}},"geometry":{"type":"Point","coordinates":[17.7476877,59.1937874]}},{"type":"Feature","id":"node/2408182201","properties":{"type":"node","id":2408182201,"tags":{"amenity":"atm","operator":"Handelsbanken"},"relations":[],"meta":{}},"geometry":{"type":"Point","coordinates":[13.024932,55.6050598]}},{"type":"Feature","id":"node/2408448504","properties":{"type":"node","id":2408448504,"tags":{"amenity":"atm"},"relations":[],"meta":{}},"geometry":{"type":"Point","coordinates":[14.345069,55.5561386]}},{"type":"Feature","id":"node/2408448511","properties":{"type":"node","id":2408448511,"tags":{"amenity":"atm"},"relations":[],"meta":{}},"geometry":{"type":"Point","coordinates":[14.3468889,55.5556789]}},{"type":"Feature","id":"node/2408448731","properties":{"type":"node","id":2408448731,"tags":{"amenity":"atm"},"relations":[],"meta":{}},"geometry":{"type":"Point","coordinates":[14.3508425,55.5562099]}},{"type":"Feature","id":"node/2409927286","properties":{"type":"node","id":2409927286,"tags":{"amenity":"atm"},"relations":[],"meta":{}},"geometry":{"type":"Point","coordinates":[13.466162,59.603914]}},{"type":"Feature","id":"node/2411550522","properties":{"type":"node","id":2411550522,"tags":{"amenity":"atm"},"relations":[],"meta":{}},"geometry":{"type":"Point","coordinates":[17.8983301,59.3810245]}},{"type":"Feature","id":"node/2411550523","properties":{"type":"node","id":2411550523,"tags":{"amenity":"atm"},"relations":[],"meta":{}},"geometry":{"type":"Point","coordinates":[17.8991443,59.3811778]}},{"type":"Feature","id":"node/2415289364","properties":{"type":"node","id":2415289364,"tags":{"amenity":"atm","operator":"Handelsbanken"},"relations":[],"meta":{}},"geometry":{"type":"Point","coordinates":[15.3367411,59.0646481]}},{"type":"Feature","id":"node/2419320618","properties":{"type":"node","id":2419320618,"tags":{"amenity":"atm"},"relations":[],"meta":{}},"geometry":{"type":"Point","coordinates":[16.7304927,59.1335364]}},{"type":"Feature","id":"node/2421944656","properties":{"type":"node","id":2421944656,"tags":{"amenity":"atm","operator":"ICA-banken"},"relations":[],"meta":{}},"geometry":{"type":"Point","coordinates":[17.9656028,59.4456752]}},{"type":"Feature","id":"node/2423368809","properties":{"type":"node","id":2423368809,"tags":{"amenity":"atm","operator":"Sörmlands Sparbank"},"relations":[],"meta":{}},"geometry":{"type":"Point","coordinates":[15.874242,59.0432143]}},{"type":"Feature","id":"node/2423368818","properties":{"type":"node","id":2423368818,"tags":{"amenity":"atm","operator":"SEB"},"relations":[],"meta":{}},"geometry":{"type":"Point","coordinates":[15.8733032,59.043118]}},{"type":"Feature","id":"node/2434548512","properties":{"type":"node","id":2434548512,"tags":{"amenity":"atm","operator":"Handelsbanken"},"relations":[],"meta":{}},"geometry":{"type":"Point","coordinates":[19.1770316,65.592442]}},{"type":"Feature","id":"node/2449594396","properties":{"type":"node","id":2449594396,"tags":{"amenity":"atm"},"relations":[],"meta":{}},"geometry":{"type":"Point","coordinates":[17.6399618,59.8595592]}},{"type":"Feature","id":"node/2449594426","properties":{"type":"node","id":2449594426,"tags":{"amenity":"atm"},"relations":[],"meta":{}},"geometry":{"type":"Point","coordinates":[17.6415685,59.8600521]}},{"type":"Feature","id":"node/2452732419","properties":{"type":"node","id":2452732419,"tags":{"amenity":"atm","name":"Swedbank Automat"},"relations":[],"meta":{}},"geometry":{"type":"Point","coordinates":[14.8080942,56.8771988]}},{"type":"Feature","id":"node/2456547174","properties":{"type":"node","id":2456547174,"tags":{"amenity":"atm"},"relations":[],"meta":{}},"geometry":{"type":"Point","coordinates":[12.5713861,57.6690597]}},{"type":"Feature","id":"node/2456547362","properties":{"type":"node","id":2456547362,"tags":{"amenity":"atm"},"relations":[],"meta":{}},"geometry":{"type":"Point","coordinates":[12.5678199,57.6689638]}},{"type":"Feature","id":"node/2459030563","properties":{"type":"node","id":2459030563,"tags":{"amenity":"atm"},"relations":[],"meta":{}},"geometry":{"type":"Point","coordinates":[15.2152534,59.2764182]}},{"type":"Feature","id":"node/2460601760","properties":{"type":"node","id":2460601760,"tags":{"amenity":"atm","ele":"114.207489","name":"Kontanten","source":"survey"},"relations":[],"meta":{}},"geometry":{"type":"Point","coordinates":[15.633829,60.605034]}},{"type":"Feature","id":"node/2463099542","properties":{"type":"node","id":2463099542,"tags":{"amenity":"atm","operator":"ICA"},"relations":[],"meta":{}},"geometry":{"type":"Point","coordinates":[18.8055817,57.7045266]}},{"type":"Feature","id":"node/2466637637","properties":{"type":"node","id":2466637637,"tags":{"amenity":"atm"},"relations":[],"meta":{}},"geometry":{"type":"Point","coordinates":[11.9805344,57.8702991]}},{"type":"Feature","id":"node/2468128482","properties":{"type":"node","id":2468128482,"tags":{"amenity":"atm"},"relations":[],"meta":{}},"geometry":{"type":"Point","coordinates":[11.7741626,57.7099448]}},{"type":"Feature","id":"node/2469279868","properties":{"type":"node","id":2469279868,"tags":{"amenity":"atm"},"relations":[],"meta":{}},"geometry":{"type":"Point","coordinates":[11.9532856,57.5991114]}},{"type":"Feature","id":"node/2473348073","properties":{"type":"node","id":2473348073,"tags":{"amenity":"atm"},"relations":[],"meta":{}},"geometry":{"type":"Point","coordinates":[20.2984981,63.8175894]}},{"type":"Feature","id":"node/2476520313","properties":{"type":"node","id":2476520313,"tags":{"amenity":"atm"},"relations":[],"meta":{}},"geometry":{"type":"Point","coordinates":[15.6429268,58.3923347]}},{"type":"Feature","id":"node/2489401151","properties":{"type":"node","id":2489401151,"tags":{"amenity":"atm"},"relations":[],"meta":{}},"geometry":{"type":"Point","coordinates":[13.3190206,55.437658]}},{"type":"Feature","id":"node/2489815978","properties":{"type":"node","id":2489815978,"tags":{"amenity":"atm"},"relations":[],"meta":{}},"geometry":{"type":"Point","coordinates":[18.0639903,59.3419506]}},{"type":"Feature","id":"node/2493131751","properties":{"type":"node","id":2493131751,"tags":{"amenity":"atm"},"relations":[],"meta":{}},"geometry":{"type":"Point","coordinates":[18.011409,59.2505302]}},{"type":"Feature","id":"node/2493835568","properties":{"type":"node","id":2493835568,"tags":{"amenity":"atm"},"relations":[],"meta":{}},"geometry":{"type":"Point","coordinates":[18.0964948,59.3243578]}},{"type":"Feature","id":"node/2496951151","properties":{"type":"node","id":2496951151,"tags":{"amenity":"atm"},"relations":[],"meta":{}},"geometry":{"type":"Point","coordinates":[18.1017967,59.3242324]}},{"type":"Feature","id":"node/2504994785","properties":{"type":"node","id":2504994785,"tags":{"amenity":"atm","operator":"Länsförsäkringar"},"relations":[],"meta":{}},"geometry":{"type":"Point","coordinates":[18.1312789,59.3049405]}},{"type":"Feature","id":"node/2507550703","properties":{"type":"node","id":2507550703,"tags":{"amenity":"atm"},"relations":[],"meta":{}},"geometry":{"type":"Point","coordinates":[18.0339035,59.3165892]}},{"type":"Feature","id":"node/2522005852","properties":{"type":"node","id":2522005852,"tags":{"amenity":"atm","wheelchair":"yes"},"relations":[],"meta":{}},"geometry":{"type":"Point","coordinates":[18.1029394,59.30253]}},{"type":"Feature","id":"node/2528957906","properties":{"type":"node","id":2528957906,"tags":{"amenity":"atm","operator":"Länsförsäkringar"},"relations":[],"meta":{}},"geometry":{"type":"Point","coordinates":[18.1251942,59.305874]}},{"type":"Feature","id":"node/2534992685","properties":{"type":"node","id":2534992685,"tags":{"amenity":"atm"},"relations":[],"meta":{}},"geometry":{"type":"Point","coordinates":[16.4464058,57.2657766]}},{"type":"Feature","id":"node/2534992688","properties":{"type":"node","id":2534992688,"tags":{"amenity":"atm"},"relations":[],"meta":{}},"geometry":{"type":"Point","coordinates":[16.4470442,57.2650369]}},{"type":"Feature","id":"node/2560497600","properties":{"type":"node","id":2560497600,"tags":{"amenity":"atm"},"relations":[],"meta":{}},"geometry":{"type":"Point","coordinates":[18.0430165,59.2632054]}},{"type":"Feature","id":"node/2577142189","properties":{"type":"node","id":2577142189,"tags":{"amenity":"atm"},"relations":[],"meta":{}},"geometry":{"type":"Point","coordinates":[16.4455695,57.2645819]}},{"type":"Feature","id":"node/2593118922","properties":{"type":"node","id":2593118922,"tags":{"amenity":"atm"},"relations":[],"meta":{}},"geometry":{"type":"Point","coordinates":[18.2290722,59.3155411]}},{"type":"Feature","id":"node/2593134833","properties":{"type":"node","id":2593134833,"tags":{"amenity":"atm"},"relations":[],"meta":{}},"geometry":{"type":"Point","coordinates":[18.2574445,59.3269239]}},{"type":"Feature","id":"node/2605322635","properties":{"type":"node","id":2605322635,"tags":{"amenity":"atm"},"relations":[],"meta":{}},"geometry":{"type":"Point","coordinates":[17.8441872,59.1985923]}},{"type":"Feature","id":"node/2608542304","properties":{"type":"node","id":2608542304,"tags":{"amenity":"atm"},"relations":[],"meta":{}},"geometry":{"type":"Point","coordinates":[18.0926173,59.2435655]}},{"type":"Feature","id":"node/2608556924","properties":{"type":"node","id":2608556924,"tags":{"amenity":"atm","note":"More than one operator probably. The ATM doesn't specify which bank it belongs to, but tried with Swedbank and it worked.","operator":"swedbank"},"relations":[],"meta":{}},"geometry":{"type":"Point","coordinates":[18.0714635,59.4455227]}},{"type":"Feature","id":"node/2622589520","properties":{"type":"node","id":2622589520,"tags":{"amenity":"atm"},"relations":[],"meta":{}},"geometry":{"type":"Point","coordinates":[13.0266781,55.7225477]}},{"type":"Feature","id":"node/2624710184","properties":{"type":"node","id":2624710184,"tags":{"amenity":"atm","brand":"Swedbank","opening_hours":"24/7","operator":"Swedbank AB"},"relations":[],"meta":{}},"geometry":{"type":"Point","coordinates":[14.8184035,57.8388628]}},{"type":"Feature","id":"node/2628726134","properties":{"type":"node","id":2628726134,"tags":{"amenity":"atm","name":"ICA banken","source":"survey","wheelchair":"yes"},"relations":[],"meta":{}},"geometry":{"type":"Point","coordinates":[18.2268673,59.56027]}},{"type":"Feature","id":"node/2653577092","properties":{"type":"node","id":2653577092,"tags":{"amenity":"atm"},"relations":[],"meta":{}},"geometry":{"type":"Point","coordinates":[17.9436089,59.4042842]}},{"type":"Feature","id":"node/2667651499","properties":{"type":"node","id":2667651499,"tags":{"amenity":"atm"},"relations":[],"meta":{}},"geometry":{"type":"Point","coordinates":[15.2127835,59.2750267]}},{"type":"Feature","id":"node/2669737640","properties":{"type":"node","id":2669737640,"tags":{"amenity":"atm"},"relations":[],"meta":{}},"geometry":{"type":"Point","coordinates":[15.156354,60.1357187]}},{"type":"Feature","id":"node/2680647969","properties":{"type":"node","id":2680647969,"tags":{"amenity":"atm","fee":"Nordea"},"relations":[],"meta":{}},"geometry":{"type":"Point","coordinates":[12.3000355,59.8846545]}},{"type":"Feature","id":"node/2684202298","properties":{"type":"node","id":2684202298,"tags":{"amenity":"atm"},"relations":[],"meta":{}},"geometry":{"type":"Point","coordinates":[15.2096907,59.2686458]}},{"type":"Feature","id":"node/2686716101","properties":{"type":"node","id":2686716101,"tags":{"amenity":"atm","operator":"Länsförsäkringar Bank"},"relations":[],"meta":{}},"geometry":{"type":"Point","coordinates":[13.503382,59.3792894]}},{"type":"Feature","id":"node/2686716102","properties":{"type":"node","id":2686716102,"tags":{"amenity":"atm","operator":"SEB"},"relations":[],"meta":{}},"geometry":{"type":"Point","coordinates":[13.4989361,59.3793615]}},{"type":"Feature","id":"node/2698631027","properties":{"type":"node","id":2698631027,"tags":{"amenity":"atm","operator":"Nordea"},"relations":[],"meta":{}},"geometry":{"type":"Point","coordinates":[16.2850527,60.5458584]}},{"type":"Feature","id":"node/2732631822","properties":{"type":"node","id":2732631822,"tags":{"amenity":"atm","brand":"Bankomat"},"relations":[],"meta":{}},"geometry":{"type":"Point","coordinates":[18.0813817,60.0646598]}},{"type":"Feature","id":"node/2736612157","properties":{"type":"node","id":2736612157,"tags":{"amenity":"atm","operator":""},"relations":[],"meta":{}},"geometry":{"type":"Point","coordinates":[14.2877031,58.3014197]}},{"type":"Feature","id":"node/2736617197","properties":{"type":"node","id":2736617197,"tags":{"amenity":"atm","operator":""},"relations":[],"meta":{}},"geometry":{"type":"Point","coordinates":[14.2915538,58.3042154]}},{"type":"Feature","id":"node/2741364513","properties":{"type":"node","id":2741364513,"tags":{"amenity":"atm"},"relations":[],"meta":{}},"geometry":{"type":"Point","coordinates":[21.0097253,65.6734086]}},{"type":"Feature","id":"node/2756372259","properties":{"type":"node","id":2756372259,"tags":{"amenity":"atm","name":"Bankomat"},"relations":[],"meta":{}},"geometry":{"type":"Point","coordinates":[18.0613289,59.332412]}},{"type":"Feature","id":"node/2763463867","properties":{"type":"node","id":2763463867,"tags":{"amenity":"atm"},"relations":[],"meta":{}},"geometry":{"type":"Point","coordinates":[17.9864612,59.3499035]}},{"type":"Feature","id":"node/2765658168","properties":{"type":"node","id":2765658168,"tags":{"amenity":"atm"},"relations":[],"meta":{}},"geometry":{"type":"Point","coordinates":[11.966844,57.8696973]}},{"type":"Feature","id":"node/2776006897","properties":{"type":"node","id":2776006897,"tags":{"amenity":"atm"},"relations":[],"meta":{}},"geometry":{"type":"Point","coordinates":[17.6465941,59.8580231]}},{"type":"Feature","id":"node/2778217795","properties":{"type":"node","id":2778217795,"tags":{"amenity":"atm"},"relations":[],"meta":{}},"geometry":{"type":"Point","coordinates":[17.6464044,59.8583616]}},{"type":"Feature","id":"node/2819361416","properties":{"type":"node","id":2819361416,"tags":{"amenity":"atm"},"relations":[],"meta":{}},"geometry":{"type":"Point","coordinates":[15.2111367,59.2760857]}},{"type":"Feature","id":"node/2826938369","properties":{"type":"node","id":2826938369,"tags":{"amenity":"atm"},"relations":[],"meta":{}},"geometry":{"type":"Point","coordinates":[18.0338965,59.3464839]}},{"type":"Feature","id":"node/2846964684","properties":{"type":"node","id":2846964684,"tags":{"amenity":"atm"},"relations":[],"meta":{}},"geometry":{"type":"Point","coordinates":[14.4514249,63.3267717]}},{"type":"Feature","id":"node/2852256887","properties":{"type":"node","id":2852256887,"tags":{"amenity":"atm","operator":"Marker Sparebank"},"relations":[],"meta":{}},"geometry":{"type":"Point","coordinates":[11.7474054,59.4849321]}},{"type":"Feature","id":"node/2864475314","properties":{"type":"node","id":2864475314,"tags":{"amenity":"atm"},"relations":[],"meta":{}},"geometry":{"type":"Point","coordinates":[12.2990962,57.8365513]}},{"type":"Feature","id":"node/2883780334","properties":{"type":"node","id":2883780334,"tags":{"amenity":"atm","brand":"Nordea"},"relations":[],"meta":{}},"geometry":{"type":"Point","coordinates":[24.139055,65.8354873]}},{"type":"Feature","id":"node/2883780335","properties":{"type":"node","id":2883780335,"tags":{"amenity":"atm"},"relations":[],"meta":{}},"geometry":{"type":"Point","coordinates":[24.1289986,65.8430432]}},{"type":"Feature","id":"node/2892247326","properties":{"type":"node","id":2892247326,"tags":{"amenity":"atm"},"relations":[],"meta":{}},"geometry":{"type":"Point","coordinates":[12.0007454,57.7696991]}},{"type":"Feature","id":"node/2899000259","properties":{"type":"node","id":2899000259,"tags":{"amenity":"atm","brand":"Bankomat"},"relations":[],"meta":{}},"geometry":{"type":"Point","coordinates":[15.2863661,56.2456597]}},{"type":"Feature","id":"node/2903831930","properties":{"type":"node","id":2903831930,"tags":{"amenity":"atm"},"relations":[],"meta":{}},"geometry":{"type":"Point","coordinates":[17.9116353,59.5181532]}},{"type":"Feature","id":"node/2903883609","properties":{"type":"node","id":2903883609,"tags":{"amenity":"atm"},"relations":[],"meta":{}},"geometry":{"type":"Point","coordinates":[17.9115988,59.5187733]}},{"type":"Feature","id":"node/2907680425","properties":{"type":"node","id":2907680425,"tags":{"amenity":"atm"},"relations":[],"meta":{}},"geometry":{"type":"Point","coordinates":[17.9100074,59.5185712]}},{"type":"Feature","id":"node/2917633048","properties":{"type":"node","id":2917633048,"tags":{"amenity":"atm","opening_hours":"24/7","operator":"Bankomat"},"relations":[],"meta":{}},"geometry":{"type":"Point","coordinates":[14.1687606,59.7126692]}},{"type":"Feature","id":"node/2917633049","properties":{"type":"node","id":2917633049,"tags":{"amenity":"atm","opening_hours":"24/7","operator":"Bankomat","wheelchair":"yes"},"relations":[],"meta":{}},"geometry":{"type":"Point","coordinates":[14.1684603,59.7128396]}},{"type":"Feature","id":"node/2917633050","properties":{"type":"node","id":2917633050,"tags":{"amenity":"atm","opening_hours":"24/7","operator":"Autocash","wheelchair":"yes"},"relations":[],"meta":{}},"geometry":{"type":"Point","coordinates":[14.1705196,59.713194]}},{"type":"Feature","id":"node/2917633051","properties":{"type":"node","id":2917633051,"tags":{"amenity":"atm","opening_hours":"24/7","operator":"Autocash","wheelchair":"yes"},"relations":[],"meta":{}},"geometry":{"type":"Point","coordinates":[14.1563233,59.7132065]}},{"type":"Feature","id":"node/2920517720","properties":{"type":"node","id":2920517720,"tags":{"amenity":"atm","operator":"ICA-banken"},"relations":[],"meta":{}},"geometry":{"type":"Point","coordinates":[16.1442911,58.6036831]}},{"type":"Feature","id":"node/2923870086","properties":{"type":"node","id":2923870086,"tags":{"amenity":"atm"},"relations":[],"meta":{}},"geometry":{"type":"Point","coordinates":[13.4122094,57.7917626]}},{"type":"Feature","id":"node/2924974242","properties":{"type":"node","id":2924974242,"tags":{"amenity":"atm"},"relations":[],"meta":{}},"geometry":{"type":"Point","coordinates":[13.5114487,57.6052582]}},{"type":"Feature","id":"node/2924994364","properties":{"type":"node","id":2924994364,"tags":{"amenity":"atm"},"relations":[],"meta":{}},"geometry":{"type":"Point","coordinates":[13.3493577,57.4832284]}},{"type":"Feature","id":"node/2931105401","properties":{"type":"node","id":2931105401,"tags":{"amenity":"atm"},"relations":[],"meta":{}},"geometry":{"type":"Point","coordinates":[11.952189,57.721952]}},{"type":"Feature","id":"node/2932698003","properties":{"type":"node","id":2932698003,"tags":{"amenity":"atm"},"relations":[],"meta":{}},"geometry":{"type":"Point","coordinates":[11.9449,57.719629]}},{"type":"Feature","id":"node/2932698901","properties":{"type":"node","id":2932698901,"tags":{"amenity":"atm"},"relations":[],"meta":{}},"geometry":{"type":"Point","coordinates":[11.944881,57.719542]}},{"type":"Feature","id":"node/2947519633","properties":{"type":"node","id":2947519633,"tags":{"amenity":"atm"},"relations":[],"meta":{}},"geometry":{"type":"Point","coordinates":[11.992801,57.704731]}},{"type":"Feature","id":"node/2949859776","properties":{"type":"node","id":2949859776,"tags":{"amenity":"atm"},"relations":[],"meta":{}},"geometry":{"type":"Point","coordinates":[14.871745,59.173271]}},{"type":"Feature","id":"node/2955175027","properties":{"type":"node","id":2955175027,"tags":{"amenity":"atm","operator":"Handelsbanken"},"relations":[],"meta":{}},"geometry":{"type":"Point","coordinates":[17.0409013,60.929335]}},{"type":"Feature","id":"node/2958518384","properties":{"type":"node","id":2958518384,"tags":{"amenity":"atm","operator":"SEB"},"relations":[],"meta":{}},"geometry":{"type":"Point","coordinates":[17.6267405,59.196655]}},{"type":"Feature","id":"node/2958518389","properties":{"type":"node","id":2958518389,"tags":{"amenity":"atm","operator":"Nordea"},"relations":[],"meta":{}},"geometry":{"type":"Point","coordinates":[17.6283014,59.1952742]}},{"type":"Feature","id":"node/2958518390","properties":{"type":"node","id":2958518390,"tags":{"amenity":"atm","operator":"Swedbank"},"relations":[],"meta":{}},"geometry":{"type":"Point","coordinates":[17.6272225,59.1960052]}},{"type":"Feature","id":"node/2972229222","properties":{"type":"node","id":2972229222,"tags":{"amenity":"atm"},"relations":[],"meta":{}},"geometry":{"type":"Point","coordinates":[12.8764563,56.6635321]}},{"type":"Feature","id":"node/2972229223","properties":{"type":"node","id":2972229223,"tags":{"amenity":"atm"},"relations":[],"meta":{}},"geometry":{"type":"Point","coordinates":[12.9086964,56.6563102]}},{"type":"Feature","id":"node/2972229227","properties":{"type":"node","id":2972229227,"tags":{"amenity":"atm"},"relations":[],"meta":{}},"geometry":{"type":"Point","coordinates":[12.8581379,56.6736783]}},{"type":"Feature","id":"node/2972229228","properties":{"type":"node","id":2972229228,"tags":{"amenity":"atm"},"relations":[],"meta":{}},"geometry":{"type":"Point","coordinates":[12.8779073,56.6646833]}},{"type":"Feature","id":"node/2972232734","properties":{"type":"node","id":2972232734,"tags":{"amenity":"atm"},"relations":[],"meta":{}},"geometry":{"type":"Point","coordinates":[12.9104559,56.655228]}},{"type":"Feature","id":"node/2972232740","properties":{"type":"node","id":2972232740,"tags":{"amenity":"atm"},"relations":[],"meta":{}},"geometry":{"type":"Point","coordinates":[12.858405,56.6745664]}},{"type":"Feature","id":"node/2985011102","properties":{"type":"node","id":2985011102,"tags":{"amenity":"atm"},"relations":[],"meta":{}},"geometry":{"type":"Point","coordinates":[11.8386483,59.5083991]}},{"type":"Feature","id":"node/2990120917","properties":{"type":"node","id":2990120917,"tags":{"amenity":"atm","name":"Bankomat"},"relations":[],"meta":{}},"geometry":{"type":"Point","coordinates":[14.9797851,56.5251387]}},{"type":"Feature","id":"node/2997098164","properties":{"type":"node","id":2997098164,"tags":{"amenity":"atm"},"relations":[],"meta":{}},"geometry":{"type":"Point","coordinates":[13.9731381,62.4826992]}},{"type":"Feature","id":"node/3004384418","properties":{"type":"node","id":3004384418,"tags":{"amenity":"atm"},"relations":[],"meta":{}},"geometry":{"type":"Point","coordinates":[17.896174,60.1955718]}},{"type":"Feature","id":"node/3012120955","properties":{"type":"node","id":3012120955,"tags":{"amenity":"atm","currency:SEK":"yes","operator":"Kontanten"},"relations":[],"meta":{}},"geometry":{"type":"Point","coordinates":[17.6292404,59.8098836]}},{"type":"Feature","id":"node/3012120965","properties":{"type":"node","id":3012120965,"tags":{"amenity":"atm","currency:SEK":"yes","operator":"Kontanten"},"relations":[],"meta":{}},"geometry":{"type":"Point","coordinates":[17.6286498,59.8112183]}},{"type":"Feature","id":"node/3012120966","properties":{"type":"node","id":3012120966,"tags":{"amenity":"atm","currency:SEK":"yes","operator":"Kontanten"},"relations":[],"meta":{}},"geometry":{"type":"Point","coordinates":[17.6287584,59.8113665]}},{"type":"Feature","id":"node/3045300333","properties":{"type":"node","id":3045300333,"tags":{"amenity":"atm","operator":"Länsförsäkringar"},"relations":[],"meta":{}},"geometry":{"type":"Point","coordinates":[12.1100853,57.7401961]}},{"type":"Feature","id":"node/3053275038","properties":{"type":"node","id":3053275038,"tags":{"amenity":"atm","name":"Handelsbanken"},"relations":[],"meta":{}},"geometry":{"type":"Point","coordinates":[18.4087348,59.1335203]}},{"type":"Feature","id":"node/3076713829","properties":{"type":"node","id":3076713829,"tags":{"amenity":"atm"},"relations":[],"meta":{}},"geometry":{"type":"Point","coordinates":[14.0401128,57.1854293]}},{"type":"Feature","id":"node/3099935613","properties":{"type":"node","id":3099935613,"tags":{"amenity":"atm"},"relations":[],"meta":{}},"geometry":{"type":"Point","coordinates":[12.8082735,58.0317806]}},{"type":"Feature","id":"node/3104126483","properties":{"type":"node","id":3104126483,"tags":{"amenity":"atm","opening_hours":"mo-su 06:00-01:00","operator":"SEB"},"relations":[],"meta":{}},"geometry":{"type":"Point","coordinates":[11.8484758,57.7196734]}},{"type":"Feature","id":"node/3133498923","properties":{"type":"node","id":3133498923,"tags":{"amenity":"atm","operator":"Swedbank"},"relations":[],"meta":{}},"geometry":{"type":"Point","coordinates":[22.1989857,65.5789311]}},{"type":"Feature","id":"node/3134179049","properties":{"type":"node","id":3134179049,"tags":{"amenity":"atm","name":"Bankomat","operator":"Bankomat","source":"survey"},"relations":[],"meta":{}},"geometry":{"type":"Point","coordinates":[15.4170876,60.4846102]}},{"type":"Feature","id":"node/3134658268","properties":{"type":"node","id":3134658268,"tags":{"amenity":"atm","opening_hours":"Mo-Su 08:00-21:00","operator":"ICA Banken"},"relations":[],"meta":{}},"geometry":{"type":"Point","coordinates":[15.109534,59.0654105]}},{"type":"Feature","id":"node/3139117005","properties":{"type":"node","id":3139117005,"tags":{"amenity":"atm"},"relations":[],"meta":{}},"geometry":{"type":"Point","coordinates":[22.1562301,65.5853832]}},{"type":"Feature","id":"node/3144391612","properties":{"type":"node","id":3144391612,"tags":{"amenity":"atm"},"relations":[],"meta":{}},"geometry":{"type":"Point","coordinates":[13.0050698,55.5896758]}},{"type":"Feature","id":"node/3144393573","properties":{"type":"node","id":3144393573,"tags":{"amenity":"atm"},"relations":[],"meta":{}},"geometry":{"type":"Point","coordinates":[13.0062983,55.5903655]}},{"type":"Feature","id":"node/3144396267","properties":{"type":"node","id":3144396267,"tags":{"amenity":"atm"},"relations":[],"meta":{}},"geometry":{"type":"Point","coordinates":[13.0065021,55.5865124]}},{"type":"Feature","id":"node/3148902029","properties":{"type":"node","id":3148902029,"tags":{"amenity":"atm","operator":"Ica"},"relations":[],"meta":{}},"geometry":{"type":"Point","coordinates":[11.9292886,57.7098617]}},{"type":"Feature","id":"node/3167911146","properties":{"type":"node","id":3167911146,"tags":{"amenity":"atm"},"relations":[],"meta":{}},"geometry":{"type":"Point","coordinates":[12.0713269,57.7322304]}},{"type":"Feature","id":"node/3169661630","properties":{"type":"node","id":3169661630,"tags":{"amenity":"atm","wheelchair":"yes"},"relations":[],"meta":{}},"geometry":{"type":"Point","coordinates":[13.7063444,55.6317098]}},{"type":"Feature","id":"node/3172628222","properties":{"type":"node","id":3172628222,"tags":{"amenity":"atm"},"relations":[],"meta":{}},"geometry":{"type":"Point","coordinates":[13.086547,63.3958335]}},{"type":"Feature","id":"node/3173338053","properties":{"type":"node","id":3173338053,"tags":{"amenity":"atm"},"relations":[],"meta":{}},"geometry":{"type":"Point","coordinates":[11.9723403,57.7092846]}},{"type":"Feature","id":"node/3173338054","properties":{"type":"node","id":3173338054,"tags":{"amenity":"atm"},"relations":[],"meta":{}},"geometry":{"type":"Point","coordinates":[11.9932334,57.747631]}},{"type":"Feature","id":"node/3182326065","properties":{"type":"node","id":3182326065,"tags":{"amenity":"atm"},"relations":[],"meta":{}},"geometry":{"type":"Point","coordinates":[13.0760818,63.3989358]}},{"type":"Feature","id":"node/3182326067","properties":{"type":"node","id":3182326067,"tags":{"amenity":"atm"},"relations":[],"meta":{}},"geometry":{"type":"Point","coordinates":[13.080116,63.3995506]}},{"type":"Feature","id":"node/3182559561","properties":{"type":"node","id":3182559561,"tags":{"amenity":"atm","name":"Bankomat"},"relations":[],"meta":{}},"geometry":{"type":"Point","coordinates":[12.049477,57.721878]}},{"type":"Feature","id":"node/3186279162","properties":{"type":"node","id":3186279162,"tags":{"amenity":"atm"},"relations":[],"meta":{}},"geometry":{"type":"Point","coordinates":[11.967987,57.706301]}},{"type":"Feature","id":"node/3198815353","properties":{"type":"node","id":3198815353,"tags":{"amenity":"atm","operator":"SEB"},"relations":[],"meta":{}},"geometry":{"type":"Point","coordinates":[12.2874835,58.2834896]}},{"type":"Feature","id":"node/3253676975","properties":{"type":"node","id":3253676975,"tags":{"amenity":"atm","covered":"yes","operator":"Ica"},"relations":[],"meta":{}},"geometry":{"type":"Point","coordinates":[11.825241,58.074917]}},{"type":"Feature","id":"node/3290693766","properties":{"type":"node","id":3290693766,"tags":{"amenity":"atm"},"relations":[],"meta":{}},"geometry":{"type":"Point","coordinates":[22.2421547,65.5897554]}},{"type":"Feature","id":"node/3294433761","properties":{"type":"node","id":3294433761,"tags":{"amenity":"atm"},"relations":[],"meta":{}},"geometry":{"type":"Point","coordinates":[11.851085,57.94296]}},{"type":"Feature","id":"node/3294561561","properties":{"type":"node","id":3294561561,"tags":{"amenity":"atm"},"relations":[],"meta":{}},"geometry":{"type":"Point","coordinates":[11.832891,58.015154]}},{"type":"Feature","id":"node/3296402772","properties":{"type":"node","id":3296402772,"tags":{"amenity":"atm","name":"Kontenten"},"relations":[],"meta":{}},"geometry":{"type":"Point","coordinates":[11.812956,58.354579]}},{"type":"Feature","id":"node/3322975867","properties":{"type":"node","id":3322975867,"tags":{"amenity":"atm"},"relations":[],"meta":{}},"geometry":{"type":"Point","coordinates":[17.856313,59.6191067]}},{"type":"Feature","id":"node/3333996243","properties":{"type":"node","id":3333996243,"tags":{"addr:country":"SE","addr:housenumber":"8","addr:street":"Dalvägen","amenity":"atm","cash_in":"no","currency":"SEK=yes","name":"Kontanten","operator":"Nokasgruppen"},"relations":[],"meta":{}},"geometry":{"type":"Point","coordinates":[18.0054979,59.3672194]}},{"type":"Feature","id":"node/3358944451","properties":{"type":"node","id":3358944451,"tags":{"amenity":"atm","brand":"Swedbank"},"relations":[],"meta":{}},"geometry":{"type":"Point","coordinates":[15.5928784,59.4343101]}},{"type":"Feature","id":"node/3404493495","properties":{"type":"node","id":3404493495,"tags":{"amenity":"atm"},"relations":[],"meta":{}},"geometry":{"type":"Point","coordinates":[18.0650983,59.3140832]}},{"type":"Feature","id":"node/3416198916","properties":{"type":"node","id":3416198916,"tags":{"amenity":"atm"},"relations":[],"meta":{}},"geometry":{"type":"Point","coordinates":[14.0372771,61.2294975]}},{"type":"Feature","id":"node/3433547355","properties":{"type":"node","id":3433547355,"tags":{"amenity":"atm","name":"Länsförsäkringar","operator":"Länsförsäkringar Skaraborg","source":"survey"},"relations":[],"meta":{}},"geometry":{"type":"Point","coordinates":[13.8460457,58.3902223]}},{"type":"Feature","id":"node/3433760565","properties":{"type":"node","id":3433760565,"tags":{"amenity":"atm","name":"Swedbank","source":"survey"},"relations":[],"meta":{}},"geometry":{"type":"Point","coordinates":[13.8450962,58.3885142]}},{"type":"Feature","id":"node/3452507986","properties":{"type":"node","id":3452507986,"tags":{"amenity":"atm"},"relations":[],"meta":{}},"geometry":{"type":"Point","coordinates":[17.9249329,59.2661772]}},{"type":"Feature","id":"node/3476374642","properties":{"type":"node","id":3476374642,"tags":{"amenity":"atm","brand":"Bankomat","opening_hours":"24/7","operator":"Bankomat AB"},"relations":[],"meta":{}},"geometry":{"type":"Point","coordinates":[11.9574692,57.6937124]}},{"type":"Feature","id":"node/3508630331","properties":{"type":"node","id":3508630331,"tags":{"amenity":"atm","drive_through":"no"},"relations":[],"meta":{}},"geometry":{"type":"Point","coordinates":[13.3232693,55.8417273]}},{"type":"Feature","id":"node/3521855181","properties":{"type":"node","id":3521855181,"tags":{"amenity":"atm"},"relations":[],"meta":{}},"geometry":{"type":"Point","coordinates":[17.9046483,59.5210701]}},{"type":"Feature","id":"node/3521855182","properties":{"type":"node","id":3521855182,"tags":{"amenity":"atm"},"relations":[],"meta":{}},"geometry":{"type":"Point","coordinates":[17.903691,59.5211945]}},{"type":"Feature","id":"node/3529103217","properties":{"type":"node","id":3529103217,"tags":{"amenity":"atm"},"relations":[],"meta":{}},"geometry":{"type":"Point","coordinates":[12.3229245,58.3805224]}},{"type":"Feature","id":"node/3545285697","properties":{"type":"node","id":3545285697,"tags":{"amenity":"atm","brand":"ICA Banken"},"relations":[],"meta":{}},"geometry":{"type":"Point","coordinates":[15.272141,56.2149499]}},{"type":"Feature","id":"node/3551224606","properties":{"type":"node","id":3551224606,"tags":{"amenity":"atm"},"relations":[],"meta":{}},"geometry":{"type":"Point","coordinates":[18.0732387,59.312367]}},{"type":"Feature","id":"node/3556937612","properties":{"type":"node","id":3556937612,"tags":{"amenity":"atm"},"relations":[],"meta":{}},"geometry":{"type":"Point","coordinates":[17.7768806,62.9307005]}},{"type":"Feature","id":"node/3556937613","properties":{"type":"node","id":3556937613,"tags":{"amenity":"atm"},"relations":[],"meta":{}},"geometry":{"type":"Point","coordinates":[17.7776724,62.9308776]}},{"type":"Feature","id":"node/3556937617","properties":{"type":"node","id":3556937617,"tags":{"amenity":"atm"},"relations":[],"meta":{}},"geometry":{"type":"Point","coordinates":[17.7802467,62.9314825]}},{"type":"Feature","id":"node/3564253894","properties":{"type":"node","id":3564253894,"tags":{"amenity":"atm"},"relations":[],"meta":{}},"geometry":{"type":"Point","coordinates":[13.2994375,55.8404859]}},{"type":"Feature","id":"node/3595278909","properties":{"type":"node","id":3595278909,"tags":{"amenity":"atm"},"relations":[],"meta":{}},"geometry":{"type":"Point","coordinates":[14.090575,55.8378219]}}]}